{"type": "FeatureCollection", "features": [{"type": "Feature", "properties": {"featurecla": "Admin-1 states provinces", "scalerank": 9, "adm1_code": "LUX-906", "diss_me": 906, "iso_3166_2": "LU-D", "wikipedia": null, "iso_a2": "LU", "adm0_sr": 1, "name": "Diekirch", "name_alt": "Dikrech|Dikkrich", "name_local": null, "type": "District", "type_en": "District", "code_local": null, "code_hasc": "LU.DI", "note": null, "hasc_maybe": null, "region": null, "region_cod": null, "provnum_ne": 3, "gadm_level": 1, "check_me": 20, "datarank": 8, "abbrev": null, "postal": "DI", "area_sqkm": 0, "sameascity": 9, "labelrank": 9, "name_len": 8, "mapcolor9": 3, "mapcolor13": 7, "fips": "LU01", "fips_alt": null, "woe_id": 20070542, "woe_label": "Diekirch, LU, Luxembourg", "woe_name": "Diekirch", "latitude": 49.9763, "longitude": 6.00481, "sov_a3": "LUX", "adm0_a3": "LUX", "adm0_label": 5, "admin": "Luxembourg", "geonunit": "Luxembourg", "gu_a3": "LUX", "gn_id": 2960655, "gn_name": "District de Diekirch", "gns_id": -1735848, "gns_name": "Diekirch, District de", "gn_level": 1, "gn_region": null, "gn_a1_code": "LU.01", "region_sub": null, "sub_code": null, "gns_level": 1, "gns_lang": "zho", "gns_adm1": "LU01", "gns_region": null, "min_label": 8.7, "max_label": 11, "min_zoom": 8.7, "wikidataid": "Q208747", "name_ar": "\u0645\u0642\u0627\u0637\u0639\u0629 \u062f\u064a\u0643\u0631\u0634", "name_bn": "\u09a1\u09bf\u0995\u09bf\u09b0\u09cd\u0996 \u099c\u09c7\u09b2\u09be", "name_de": "Diekirch", "name_en": "Diekirch", "name_es": "Diekirch", "name_fr": "Diekirch", "name_el": "\u039d\u03c4\u03b9\u03b5\u03c1\u03ba\u03af\u03c1\u03c4\u03c2", "name_hi": "\u0926\u093e\u0907\u0915\u093f\u0930\u094d\u091a \u091c\u093f\u0932\u093e", "name_hu": "Diekirch", "name_id": "Diekirch", "name_it": "Diekirch", "name_ja": "\u30c7\u30a3\u30fc\u30ad\u30eb\u30d2\u5e83\u57df\u884c\u653f\u533a", "name_ko": "\ub514\ud0a4\ub974\ud788 \uad6c", "name_nl": "Diekirch", "name_pl": "Diekirch", "name_pt": "Diekirch", "name_ru": "\u0414\u0438\u043a\u0438\u0440\u0445", "name_sv": "Diekirch", "name_tr": "Diekirch ili", "name_vi": "Qu\u1eadn Diekirch", "name_zh": "\u8fea\u57fa\u5e0c\u533a", "ne_id": 1159310951, "name_he": "\u05de\u05d7\u05d5\u05d6 \u05d3\u05d9\u05e7\u05d9\u05e8\u05da", "name_uk": "\u0414\u0456\u043a\u0456\u0440\u0445", "name_ur": "\u062f\u06cc\u06cc\u06a9\u06cc\u0631\u0686 \u0636\u0644\u0639", "name_fa": "\u062f\u06cc\u06a9\u0631\u06cc\u0686", "name_zht": "\u8fea\u57fa\u5e0c\u5340", "FCLASS_ISO": null, "FCLASS_US": null, "FCLASS_FR": null, "FCLASS_RU": null, "FCLASS_ES": null, "FCLASS_CN": null, "FCLASS_TW": null, "FCLASS_IN": null, "FCLASS_NP": null, "FCLASS_PK": null, "FCLASS_DE": null, "FCLASS_GB": null, "FCLASS_BR": null, "FCLASS_IL": null, "FCLASS_PS": null, "FCLASS_SA": null, "FCLASS_EG": null, "FCLASS_MA": null, "FCLASS_PT": null, "FCLASS_AR": null, "FCLASS_JP": null, "FCLASS_KO": null, "FCLASS_VN": null, "FCLASS_TR": null, "FCLASS_ID": null, "FCLASS_PL": null, "FCLASS_GR": null, "FCLASS_IT": null, "FCLASS_NL": null, "FCLASS_SE": null, "FCLASS_BD": null, "FCLASS_UA": null, "FCLASS_TLC": null}, "bbox": [5.714927, 49.705807, 6.295568, 50.174975], "geometry": {"type": "Polygon", "coordinates": [[[6.117487, 50.120456], [6.110562, 50.105987], [6.105704, 50.092241], [6.0994, 50.064129], [6.101157, 50.063405], [6.107151, 50.063767], [6.109425, 50.06356], [6.105704, 50.060305], [6.096403, 50.048626], [6.107255, 50.044595], [6.113766, 50.036378], [6.119967, 50.015501], [6.117177, 50.004391], [6.121517, 49.996278], [6.138777, 49.979328], [6.15397, 49.951216], [6.161928, 49.942482], [6.172677, 49.956228], [6.189834, 49.938297], [6.2227, 49.887137], [6.238306, 49.876905], [6.272206, 49.867138], [6.286779, 49.86104], [6.291533, 49.855563], [6.295568, 49.848616], [6.295203, 49.848586], [6.277064, 49.847087], [6.269623, 49.844968], [6.263887, 49.841092], [6.257996, 49.832798], [6.256135, 49.828096], [6.258306, 49.823884], [6.261561, 49.822179], [6.266832, 49.820034], [6.266677, 49.815693], [6.265902, 49.812205], [6.246317, 49.790553], [6.214536, 49.799906], [6.193865, 49.812412], [6.184718, 49.819388], [6.157278, 49.823833], [6.147356, 49.8236], [6.113818, 49.81758], [6.104517, 49.819104], [6.095525, 49.821895], [6.081056, 49.828096], [6.069428, 49.829724], [6.059817, 49.82962], [6.043073, 49.824453], [6.033772, 49.817166], [6.031601, 49.813006], [6.029121, 49.806314], [6.018682, 49.797374], [6.013721, 49.79032], [6.001319, 49.781251], [5.999303, 49.775412], [5.998683, 49.761252], [5.995118, 49.7504], [5.993722, 49.739445], [5.994032, 49.728851], [5.959409, 49.721565], [5.934294, 49.713658], [5.919102, 49.71092], [5.875952, 49.709989], [5.856403, 49.705807], [5.856004, 49.708078], [5.850216, 49.714021], [5.843705, 49.714331], [5.837297, 49.712936], [5.831716, 49.713607], [5.825721, 49.715778], [5.811769, 49.718517], [5.805361, 49.721876], [5.805774, 49.724201], [5.803604, 49.738154], [5.802054, 49.742856], [5.778489, 49.773035], [5.771875, 49.779392], [5.759162, 49.784456], [5.748414, 49.785644], [5.738285, 49.788848], [5.727743, 49.800217], [5.721645, 49.812775], [5.720198, 49.824712], [5.724642, 49.834272], [5.736528, 49.83944], [5.726916, 49.845227], [5.728673, 49.848845], [5.730533, 49.85117], [5.73198, 49.854167], [5.731877, 49.859955], [5.758129, 49.858198], [5.748827, 49.867293], [5.726709, 49.878197], [5.714927, 49.881866], [5.718958, 49.891374], [5.753581, 49.930183], [5.757612, 49.93654], [5.759989, 49.941604], [5.76371, 49.946823], [5.771565, 49.953541], [5.778593, 49.95659], [5.793372, 49.958812], [5.80164, 49.963825], [5.812596, 49.977571], [5.808565, 49.9831], [5.801537, 49.988681], [5.802674, 50.002479], [5.808875, 50.007801], [5.829132, 50.013589], [5.836367, 50.01855], [5.838847, 50.026457], [5.838847, 50.035862], [5.83771, 50.047437], [5.843705, 50.053638], [5.858278, 50.061803], [5.864375, 50.067488], [5.866856, 50.074309], [5.86882, 50.090535], [5.872437, 50.096892], [5.888973, 50.106607], [5.92618, 50.118337], [5.941063, 50.128311], [5.949021, 50.142677], [5.953156, 50.156371], [5.96163, 50.165621], [5.982921, 50.167068], [5.998321, 50.174975], [6.004729, 50.170479], [6.008036, 50.160919], [6.014134, 50.153581], [6.022967, 50.15082], [6.027363, 50.149447], [6.038628, 50.148413], [6.061366, 50.150738], [6.070048, 50.154201], [6.076456, 50.158645], [6.084207, 50.159317], [6.097126, 50.151307], [6.101467, 50.142108], [6.10033, 50.132652], [6.102604, 50.124745], [6.117487, 50.120456]]]}}, {"type": "Feature", "properties": {"featurecla": "Admin-1 states provinces", "scalerank": 9, "adm1_code": "LUX-907", "diss_me": 907, "iso_3166_2": "LU-G", "wikipedia": null, "iso_a2": "LU", "adm0_sr": 1, "name": "Grevenmacher", "name_alt": "Gr\u00e9ivemaacher", "name_local": null, "type": "District", "type_en": "District", "code_local": null, "code_hasc": "LU.GR", "note": null, "hasc_maybe": null, "region": null, "region_cod": null, "provnum_ne": 1, "gadm_level": 1, "check_me": 20, "datarank": 8, "abbrev": null, "postal": "GR", "area_sqkm": 0, "sameascity": 9, "labelrank": 9, "name_len": 12, "mapcolor9": 3, "mapcolor13": 7, "fips": "LU02", "fips_alt": null, "woe_id": 20070559, "woe_label": "Grevenmacher, LU, Luxembourg", "woe_name": "Grevenmacher", "latitude": 49.6474, "longitude": 6.33835, "sov_a3": "LUX", "adm0_a3": "LUX", "adm0_label": 5, "admin": "Luxembourg", "geonunit": "Luxembourg", "gu_a3": "LUX", "gn_id": 2960513, "gn_name": "District de Grevenmacher", "gns_id": -1735992, "gns_name": "Grevenmacher, District de", "gn_level": 1, "gn_region": null, "gn_a1_code": "LU.02", "region_sub": null, "sub_code": null, "gns_level": 1, "gns_lang": "zho", "gns_adm1": "LU02", "gns_region": null, "min_label": 8.7, "max_label": 11, "min_zoom": 8.7, "wikidataid": "Q208284", "name_ar": "\u0645\u0642\u0627\u0637\u0639\u0629 \u063a\u0631\u064a\u0641\u0646\u0645\u0627\u0643\u0631", "name_bn": "\u0997\u09cd\u09b0\u09c7\u09ad\u09c7\u09a8\u09ae\u09be\u0995\u09c7\u09b0 \u099c\u09c7\u09b2\u09be", "name_de": "Grevenmacher", "name_en": "Grevenmacher", "name_es": "Grevenmacher", "name_fr": "Grevenmacher", "name_el": "\u0395\u03c0\u03b1\u03c1\u03c7\u03af\u03b1 \u0393\u03ba\u03c1\u03b5\u03b2\u03b5\u03bd\u03bc\u03ac\u03c7\u03b5\u03c1", "name_hi": "\u0917\u094d\u0930\u0947\u0935\u0947\u0928\u092e\u0947\u091a\u0930 \u091c\u093f\u0932\u093e", "name_hu": "Grevenmacher", "name_id": "Grevenmacher", "name_it": "Grevenmacher", "name_ja": "\u30b0\u30ec\u30fc\u30f4\u30a7\u30f3\u30de\u30cf\u5e83\u57df\u884c\u653f\u533a", "name_ko": "\uadf8\ub808\ubca4\ub9c8\ud5c8 \uad6c", "name_nl": "Grevenmacher", "name_pl": "Grevenmacher", "name_pt": "Grevenmacher", "name_ru": "\u0413\u0440\u0435\u0432\u0435\u043d\u043c\u0430\u0445\u0435\u0440", "name_sv": "Grevenmacher", "name_tr": "Grevenmacher ili", "name_vi": "Qu\u1eadn Grevenmacher", "name_zh": "\u683c\u96f7\u6587\u9a6c\u8d6b\u533a", "ne_id": 1159310953, "name_he": "\u05de\u05d7\u05d5\u05d6 \u05d2\u05e8\u05d1\u05e0\u05de\u05db\u05e8", "name_uk": "\u0413\u0440\u0435\u0432\u0435\u043d\u043c\u0430\u0445\u0435\u0440", "name_ur": "\u062c\u0631\u06cc\u0648\u06cc\u0646\u0645\u0627\u0686\u06cc\u0631 \u0688\u0633\u0679\u0631\u06a9", "name_fa": "\u06af\u0631\u0648\u0646\u0645\u0627\u0686\u0631", "name_zht": "\u683c\u96f7\u6587\u99ac\u8d6b\u5340", "FCLASS_ISO": null, "FCLASS_US": null, "FCLASS_FR": null, "FCLASS_RU": null, "FCLASS_ES": null, "FCLASS_CN": null, "FCLASS_TW": null, "FCLASS_IN": null, "FCLASS_NP": null, "FCLASS_PK": null, "FCLASS_DE": null, "FCLASS_GB": null, "FCLASS_BR": null, "FCLASS_IL": null, "FCLASS_PS": null, "FCLASS_SA": null, "FCLASS_EG": null, "FCLASS_MA": null, "FCLASS_PT": null, "FCLASS_AR": null, "FCLASS_JP": null, "FCLASS_KO": null, "FCLASS_VN": null, "FCLASS_TR": null, "FCLASS_ID": null, "FCLASS_PL": null, "FCLASS_GR": null, "FCLASS_IT": null, "FCLASS_NL": null, "FCLASS_SE": null, "FCLASS_BD": null, "FCLASS_UA": null, "FCLASS_TLC": null}, "bbox": [6.174642, 49.455349, 6.502579, 49.848616], "geometry": {"type": "Polygon", "coordinates": [[[6.295568, 49.848616], [6.301558, 49.838303], [6.302592, 49.834944], [6.310653, 49.834479], [6.325639, 49.84037], [6.334424, 49.840215], [6.351374, 49.83329], [6.380106, 49.815565], [6.397056, 49.808589], [6.414523, 49.805488], [6.462478, 49.805488], [6.493278, 49.799597], [6.497205, 49.799442], [6.502579, 49.79567], [6.502269, 49.795876], [6.500099, 49.794481], [6.499996, 49.786058], [6.498549, 49.785386], [6.493794, 49.76363], [6.493691, 49.756551], [6.496378, 49.752106], [6.495965, 49.748231], [6.48625, 49.742701], [6.485526, 49.733761], [6.4878, 49.725596], [6.492554, 49.718413], [6.499686, 49.712212], [6.491004, 49.714434], [6.486353, 49.712936], [6.482942, 49.708078], [6.489764, 49.702962], [6.491727, 49.700792], [6.418243, 49.669889], [6.402741, 49.655782], [6.404498, 49.652474], [6.410905, 49.649632], [6.417003, 49.645756], [6.417933, 49.639142], [6.415246, 49.634646], [6.407701, 49.627411], [6.397573, 49.613872], [6.371528, 49.592995], [6.356438, 49.577595], [6.350754, 49.566588], [6.350754, 49.53491], [6.348809, 49.52529], [6.342279, 49.493001], [6.34538, 49.462718], [6.345307, 49.455349], [6.325329, 49.456724], [6.298768, 49.466232], [6.251117, 49.48946], [6.247092, 49.506126], [6.234845, 49.540026], [6.233914, 49.553565], [6.240891, 49.56204], [6.273033, 49.582349], [6.28063, 49.584932], [6.298768, 49.587542], [6.301249, 49.593614], [6.299543, 49.59842], [6.294428, 49.602244], [6.289001, 49.6055], [6.285126, 49.609117], [6.287141, 49.612631], [6.291172, 49.615887], [6.312153, 49.62723], [6.295048, 49.647978], [6.285591, 49.674333], [6.278304, 49.680224], [6.264817, 49.68627], [6.251123, 49.68875], [6.174642, 49.689991], [6.220117, 49.736913], [6.228333, 49.741874], [6.241046, 49.747093], [6.248022, 49.746266], [6.262957, 49.74668], [6.274584, 49.770089], [6.272568, 49.77306], [6.266987, 49.777065], [6.262181, 49.779081], [6.246317, 49.790553], [6.265902, 49.812205], [6.266677, 49.815693], [6.266832, 49.820034], [6.261561, 49.822179], [6.258306, 49.823884], [6.256135, 49.828096], [6.257996, 49.832798], [6.263887, 49.841092], [6.269623, 49.844968], [6.277064, 49.847087], [6.295203, 49.848586], [6.295568, 49.848616]]]}}, {"type": "Feature", "properties": {"featurecla": "Admin-1 states provinces", "scalerank": 9, "adm1_code": "LUX-908", "diss_me": 908, "iso_3166_2": "LU-L", "wikipedia": null, "iso_a2": "LU", "adm0_sr": 1, "name": "Luxembourg", "name_alt": "L\u00ebtzebuerg|Luxemburg", "name_local": null, "type": "District", "type_en": "District", "code_local": null, "code_hasc": "LU.LU", "note": null, "hasc_maybe": null, "region": null, "region_cod": null, "provnum_ne": 2, "gadm_level": 1, "check_me": 20, "datarank": 8, "abbrev": null, "postal": "LU", "area_sqkm": 0, "sameascity": 9, "labelrank": 9, "name_len": 10, "mapcolor9": 3, "mapcolor13": 7, "fips": "LU03", "fips_alt": null, "woe_id": 20070560, "woe_label": "Luxemburg, LU, Luxembourg", "woe_name": "Luxembourg", "latitude": 49.6376, "longitude": 6.05114, "sov_a3": "LUX", "adm0_a3": "LUX", "adm0_label": 5, "admin": "Luxembourg", "geonunit": "Luxembourg", "gu_a3": "LUX", "gn_id": 2960314, "gn_name": "District de Luxembourg", "gns_id": -1736193, "gns_name": "Luxembourg, District de", "gn_level": 1, "gn_region": null, "gn_a1_code": "LU.03", "region_sub": null, "sub_code": null, "gns_level": 1, "gns_lang": "zho", "gns_adm1": "LU03", "gns_region": null, "min_label": 8.7, "max_label": 11, "min_zoom": 8.7, "wikidataid": null, "name_ar": "\u0644\u0648\u0643\u0633\u0645\u0628\u0648\u0631\u063a", "name_bn": "\u09b2\u09c1\u0995\u09cd\u09b8\u09c7\u09ae\u09ac\u09be\u09b0\u09cd\u0997", "name_de": "Luxemburg", "name_en": "Luxembourg", "name_es": "Luxemburgo", "name_fr": "Luxembourg", "name_el": "\u039b\u03bf\u03c5\u03be\u03b5\u03bc\u03b2\u03bf\u03cd\u03c1\u03b3\u03bf", "name_hi": "\u0932\u0915\u094d\u0938\u092e\u092c\u0930\u094d\u0917", "name_hu": "Luxembourg", "name_id": "Luxembourg", "name_it": "Lussemburgo", "name_ja": "\u30eb\u30af\u30bb\u30f3\u30d6\u30eb\u30b0", "name_ko": "\ub8e9\uc148\ubd80\ub974\ud06c", "name_nl": "Luxemburg", "name_pl": "Luksemburg", "name_pt": "Luxemburgo", "name_ru": "\u041b\u044e\u043a\u0441\u0435\u043c\u0431\u0443\u0440\u0433", "name_sv": "Luxemburg", "name_tr": "L\u00fcksemburg", "name_vi": "Luxembourg", "name_zh": "\u5362\u68ee\u5821", "ne_id": 1159310955, "name_he": "\u05dc\u05d5\u05d6\u05d4", "name_uk": "\u041b\u044e\u043a\u0441\u0435\u043c\u0431\u0443\u0440\u0433", "name_ur": "\u0644\u06af\u0632\u0645\u0628\u0631\u06af", "name_fa": "\u0644\u0648\u06af\u0632\u0627\u0645\u0628\u0648\u0631\u06af", "name_zht": "\u76e7\u68ee\u5821", "FCLASS_ISO": null, "FCLASS_US": null, "FCLASS_FR": null, "FCLASS_RU": null, "FCLASS_ES": null, "FCLASS_CN": null, "FCLASS_TW": null, "FCLASS_IN": null, "FCLASS_NP": null, "FCLASS_PK": null, "FCLASS_DE": null, "FCLASS_GB": null, "FCLASS_BR": null, "FCLASS_IL": null, "FCLASS_PS": null, "FCLASS_SA": null, "FCLASS_EG": null, "FCLASS_MA": null, "FCLASS_PT": null, "FCLASS_AR": null, "FCLASS_JP": null, "FCLASS_KO": null, "FCLASS_VN": null, "FCLASS_TR": null, "FCLASS_ID": null, "FCLASS_PL": null, "FCLASS_GR": null, "FCLASS_IT": null, "FCLASS_NL": null, "FCLASS_SE": null, "FCLASS_BD": null, "FCLASS_UA": null, "FCLASS_TLC": null}, "bbox": [5.790685, 49.441324, 6.312153, 49.829724], "geometry": {"type": "Polygon", "coordinates": [[[5.790685, 49.537753], [5.814456, 49.545142], [5.8374, 49.56111], [5.846909, 49.576717], [5.829959, 49.582763], [5.841224, 49.589687], [5.849183, 49.599713], [5.861998, 49.62276], [5.869957, 49.628858], [5.879878, 49.634853], [5.885459, 49.643534], [5.879878, 49.657745], [5.872644, 49.661724], [5.852593, 49.663223], [5.845772, 49.666582], [5.842258, 49.67392], [5.843705, 49.677486], [5.846702, 49.68069], [5.847219, 49.687201], [5.848769, 49.69273], [5.853627, 49.696296], [5.857347, 49.70043], [5.856403, 49.705807], [5.875952, 49.709989], [5.919102, 49.71092], [5.934294, 49.713658], [5.959409, 49.721565], [5.994032, 49.728851], [5.993722, 49.739445], [5.995118, 49.7504], [5.998683, 49.761252], [5.999303, 49.775412], [6.001319, 49.781251], [6.013721, 49.79032], [6.018682, 49.797374], [6.029121, 49.806314], [6.031601, 49.813006], [6.033772, 49.817166], [6.043073, 49.824453], [6.059817, 49.82962], [6.069428, 49.829724], [6.081056, 49.828096], [6.095525, 49.821895], [6.104517, 49.819104], [6.113818, 49.81758], [6.147356, 49.8236], [6.157278, 49.823833], [6.184718, 49.819388], [6.193865, 49.812412], [6.214536, 49.799906], [6.246317, 49.790553], [6.262181, 49.779081], [6.266987, 49.777065], [6.272568, 49.77306], [6.274584, 49.770089], [6.262957, 49.74668], [6.248022, 49.746266], [6.241046, 49.747093], [6.228333, 49.741874], [6.220117, 49.736913], [6.174642, 49.689991], [6.251123, 49.68875], [6.264817, 49.68627], [6.278304, 49.680224], [6.285591, 49.674333], [6.295048, 49.647978], [6.312153, 49.62723], [6.291172, 49.615887], [6.287141, 49.612631], [6.285126, 49.609117], [6.289001, 49.6055], [6.294428, 49.602244], [6.299543, 49.59842], [6.301249, 49.593614], [6.298768, 49.587542], [6.28063, 49.584932], [6.273033, 49.582349], [6.240891, 49.56204], [6.233914, 49.553565], [6.234845, 49.540026], [6.247092, 49.506126], [6.251117, 49.48946], [6.249365, 49.490314], [6.221976, 49.497445], [6.193554, 49.499409], [6.13609, 49.495275], [6.142601, 49.486076], [6.114386, 49.484371], [6.107255, 49.48251], [6.101984, 49.476413], [6.102087, 49.470005], [6.099813, 49.46463], [6.087721, 49.461633], [6.078006, 49.452021], [6.06333, 49.448456], [5.978064, 49.445097], [5.9607, 49.441324], [5.946954, 49.469953], [5.928142, 49.482306], [5.864686, 49.492174], [5.839571, 49.499874], [5.822104, 49.510519], [5.790685, 49.537753]]]}}]}