{"type": "FeatureCollection", "features": [{"type": "Feature", "properties": {"featurecla": "Admin-1 states provinces", "scalerank": 10, "adm1_code": "MCO+00?", "diss_me": 10107, "iso_3166_2": "MC-X01~", "wikipedia": null, "iso_a2": "MC", "adm0_sr": 5, "name": "Monaco", "name_alt": null, "name_local": null, "type": null, "type_en": null, "code_local": null, "code_hasc": "MC.MC", "note": null, "hasc_maybe": null, "region": null, "region_cod": null, "provnum_ne": 0, "gadm_level": 0, "check_me": 20, "datarank": 10, "abbrev": null, "postal": null, "area_sqkm": 0, "sameascity": -99, "labelrank": 20, "name_len": 6, "mapcolor9": 2, "mapcolor13": 12, "fips": null, "fips_alt": null, "woe_id": 23424892, "woe_label": null, "woe_name": "Monaco", "latitude": 43.7461, "longitude": 7.39979, "sov_a3": "MCO", "adm0_a3": "MCO", "adm0_label": 5, "admin": "Monaco", "geonunit": "Monaco", "gu_a3": "MCO", "gn_id": 3319178, "gn_name": "Commune de Monaco", "gns_id": 0, "gns_name": null, "gn_level": 1, "gn_region": null, "gn_a1_code": "MC.00", "region_sub": null, "sub_code": null, "gns_level": 0, "gns_lang": null, "gns_adm1": null, "gns_region": null, "min_label": 18, "max_label": 18, "min_zoom": 18, "wikidataid": "Q55115", "name_ar": "\u0645\u062f\u064a\u0646\u0629 \u0645\u0648\u0646\u0627\u0643\u0648", "name_bn": "\u09ae\u09cb\u09a8\u09be\u0995\u09cb", "name_de": "Monaco-Ville", "name_en": "Monaco", "name_es": "Monaco-Ville", "name_fr": "Monaco-Ville", "name_el": "\u039c\u03bf\u03bd\u03b1\u03ba\u03cc-\u0392\u03b9\u03bb", "name_hi": "\u092e\u094b\u0928\u093e\u0915\u094b", "name_hu": "Monaco", "name_id": "Monako", "name_it": "Monaco Vecchia", "name_ja": "\u30e2\u30ca\u30b3\u30fb\u30f4\u30a3\u30eb", "name_ko": "\ubaa8\ub098\ucf54\ube4c", "name_nl": "Monaco-Ville", "name_pl": "Monaco-Ville", "name_pt": "Monaco-Ville", "name_ru": "\u041c\u043e\u043d\u0430\u043a\u043e", "name_sv": "Monaco-Ville", "name_tr": "Monaco-Ville", "name_vi": "Monaco", "name_zh": "\u6469\u7eb3\u54e5\u57ce", "ne_id": 1159315589, "name_he": "\u05de\u05d5\u05e0\u05e7\u05d5-\u05d5\u05d9\u05dc", "name_uk": "\u041c\u043e\u043d\u0430\u043a\u043e", "name_ur": "\u0645\u0648\u0646\u0627\u06a9\u0648 \u0634\u06c1\u0631", "name_fa": "\u0645\u0648\u0646\u0627\u06a9\u0648\u0648\u06cc\u0644", "name_zht": "\u6469\u7eb3\u54e5\u57ce", "FCLASS_ISO": null, "FCLASS_US": null, "FCLASS_FR": null, "FCLASS_RU": null, "FCLASS_ES": null, "FCLASS_CN": null, "FCLASS_TW": null, "FCLASS_IN": null, "FCLASS_NP": null, "FCLASS_PK": null, "FCLASS_DE": null, "FCLASS_GB": null, "FCLASS_BR": null, "FCLASS_IL": null, "FCLASS_PS": null, "FCLASS_SA": null, "FCLASS_EG": null, "FCLASS_MA": null, "FCLASS_PT": null, "FCLASS_AR": null, "FCLASS_JP": null, "FCLASS_KO": null, "FCLASS_VN": null, "FCLASS_TR": null, "FCLASS_ID": null, "FCLASS_PL": null, "FCLASS_GR": null, "FCLASS_IT": null, "FCLASS_NL": null, "FCLASS_SE": null, "FCLASS_BD": null, "FCLASS_UA": null, "FCLASS_TLC": null}, "bbox": [7.36575, 43.717969, 7.437454, 43.763506], "geometry": {"type": "Polygon", "coordinates": [[[7.406969, 43.763506], [7.426246, 43.755464], [7.437454, 43.743361], [7.432845, 43.739853], [7.417957, 43.730904], [7.404319, 43.717969], [7.380723, 43.719273], [7.36575, 43.72273], [7.367263, 43.734125], [7.372655, 43.745832], [7.387538, 43.757899], [7.406969, 43.763506]]]}}]}