{"type": "FeatureCollection", "features": [{"type": "Feature", "properties": {"featurecla": "Admin-1 states provinces", "scalerank": 9, "adm1_code": "MNE-1506", "diss_me": 1506, "iso_3166_2": "ME-08", "wikipedia": null, "iso_a2": "ME", "adm0_sr": 1, "name": "Herceg Novi", "name_alt": null, "name_local": null, "type": "Op\u0161tina", "type_en": "Municipality", "code_local": null, "code_hasc": "ME.HN", "note": null, "hasc_maybe": null, "region": null, "region_cod": null, "provnum_ne": 13, "gadm_level": 1, "check_me": 0, "datarank": 8, "abbrev": null, "postal": "HN", "area_sqkm": 0, "sameascity": -99, "labelrank": 9, "name_len": 11, "mapcolor9": 4, "mapcolor13": 5, "fips": "HR03", "fips_alt": null, "woe_id": 29389246, "woe_label": "Herceg Novi, ME, Montenegro", "woe_name": "Herceg Novi", "latitude": 42.4041, "longitude": 18.6027, "sov_a3": "MNE", "adm0_a3": "MNE", "adm0_label": 5, "admin": "Montenegro", "geonunit": "Montenegro", "gu_a3": "MNE", "gn_id": 3199393, "gn_name": "Opstina Herceg Novi", "gns_id": -82628, "gns_name": "Herceg Novi, Opstina", "gn_level": 1, "gn_region": null, "gn_a1_code": "ME.08", "region_sub": null, "sub_code": null, "gns_level": 1, "gns_lang": "sqi", "gns_adm1": "MJ00", "gns_region": null, "min_label": 10, "max_label": 11, "min_zoom": 10, "wikidataid": "Q3317366", "name_ar": "\u0628\u0644\u062f\u064a\u0629 \u0647\u0631\u0633\u0643 \u0646\u0648\u0641\u064a", "name_bn": "\u09b9\u09be\u09b0\u099a\u09c7\u0997 \u09a8\u09cb\u09ad\u09bf \u09aa\u09cc\u09b0\u09b8\u09ad\u09be", "name_de": "Gemeinde Herceg Novi", "name_en": "Herceg Novi", "name_es": "Municipio de Herceg Novi", "name_fr": "Herceg Novi", "name_el": "\u03a7\u03b5\u03c1\u03ba\u03ad\u03b3\u03ba \u039d\u03cc\u03b2\u03b9", "name_hi": "\u0939\u0930\u094d\u091c\u0947\u0917 \u0928\u094b\u0935\u0940 \u0928\u0917\u0930 \u092a\u093e\u0932\u093f\u0915\u093e", "name_hu": "Herceg Novi", "name_id": "Herceg Novi", "name_it": "Castelnuovo", "name_ja": "\u30d8\u30eb\u30c4\u30a7\u30b0\u30fb\u30ce\u30f4\u30a3", "name_ko": "\ud5e4\ub974\uccb4\uadf8\ub178\ube44", "name_nl": "Herceg Novi", "name_pl": "Gmina Herceg Novi", "name_pt": "Herceg-Novi", "name_ru": "\u0425\u0435\u0440\u0446\u0435\u0433-\u041d\u043e\u0432\u0438", "name_sv": "Herceg Novi", "name_tr": "Herceg Novi Belediye", "name_vi": "\u0110\u00f4 th\u1ecb t\u1ef1 tr\u1ecb Herceg Novi", "name_zh": "\u8d6b\u5c14\u91c7\u683c\u8bfa\u7ef4\u533a", "ne_id": 1159310611, "name_he": "\u05d4\u05e8\u05e6\u05d2 \u05e0\u05d5\u05d1\u05d9", "name_uk": "\u0425\u0435\u0440\u0446\u0435\u0433-\u041d\u043e\u0432\u0438\u0439", "name_ur": "\u062e\u06cc\u0631\u062a\u0633\u06cc\u06af \u0646\u0648\u0648\u06cc \u0628\u0644\u062f\u06cc\u06c1", "name_fa": "\u0634\u0647\u0631\u062f\u0627\u0631\u06cc \u0647\u0631\u062a\u0633\u06af \u0646\u0648\u0648\u06cc", "name_zht": "\u8d6b\u723e\u91c7\u683c\u8afe\u7dad\u5340", "FCLASS_ISO": null, "FCLASS_US": null, "FCLASS_FR": null, "FCLASS_RU": null, "FCLASS_ES": null, "FCLASS_CN": null, "FCLASS_TW": null, "FCLASS_IN": null, "FCLASS_NP": null, "FCLASS_PK": null, "FCLASS_DE": null, "FCLASS_GB": null, "FCLASS_BR": null, "FCLASS_IL": null, "FCLASS_PS": null, "FCLASS_SA": null, "FCLASS_EG": null, "FCLASS_MA": null, "FCLASS_PT": null, "FCLASS_AR": null, "FCLASS_JP": null, "FCLASS_KO": null, "FCLASS_VN": null, "FCLASS_TR": null, "FCLASS_ID": null, "FCLASS_PL": null, "FCLASS_GR": null, "FCLASS_IT": null, "FCLASS_NL": null, "FCLASS_SE": null, "FCLASS_BD": null, "FCLASS_UA": null, "FCLASS_TLC": null}, "bbox": [18.436425, 42.366278, 18.659978, 42.59849], "geometry": {"type": "MultiPolygon", "coordinates": [[[[18.49643, 42.416327], [18.497816, 42.431158], [18.492855, 42.442372], [18.475492, 42.449813], [18.467741, 42.453379], [18.454925, 42.464722], [18.444279, 42.477925], [18.437148, 42.493402], [18.436425, 42.510765], [18.442006, 42.543012], [18.437355, 42.559212], [18.44769, 42.566214], [18.458956, 42.569728], [18.470531, 42.569056], [18.481797, 42.563682], [18.492132, 42.564767], [18.495852, 42.570865], [18.493682, 42.579831], [18.486654, 42.58983], [18.506798, 42.59849], [18.523397, 42.582827], [18.557142, 42.548359], [18.583083, 42.536655], [18.611195, 42.521901], [18.632692, 42.495856], [18.654145, 42.451809], [18.608653, 42.44538], [18.502452, 42.455634], [18.502452, 42.448188], [18.521251, 42.437974], [18.51295, 42.409003], [18.529796, 42.400377], [18.510265, 42.40526], [18.49643, 42.416327]]], [[[18.658539, 42.386623], [18.653168, 42.366278], [18.646495, 42.366278], [18.638438, 42.370307], [18.61671, 42.368069], [18.612315, 42.36994], [18.607107, 42.37641], [18.5949, 42.383734], [18.580903, 42.389838], [18.570649, 42.392971], [18.573009, 42.39643], [18.57309, 42.397528], [18.574067, 42.398261], [18.578136, 42.400377], [18.552989, 42.413642], [18.545177, 42.42357], [18.550141, 42.435126], [18.562836, 42.438544], [18.644949, 42.418362], [18.653105, 42.401185], [18.659978, 42.386664], [18.658539, 42.386623]]]]}}, {"type": "Feature", "properties": {"featurecla": "Admin-1 states provinces", "scalerank": 9, "adm1_code": "MNE-1501", "diss_me": 1501, "iso_3166_2": "ME-17", "wikipedia": null, "iso_a2": "ME", "adm0_sr": 1, "name": "Ro\u017eaje", "name_alt": null, "name_local": null, "type": "Op\u0161tina", "type_en": "Municipality", "code_local": null, "code_hasc": "ME.RO", "note": null, "hasc_maybe": null, "region": null, "region_cod": null, "provnum_ne": 4, "gadm_level": 1, "check_me": 0, "datarank": 8, "abbrev": null, "postal": "RO", "area_sqkm": 0, "sameascity": -99, "labelrank": 9, "name_len": 6, "mapcolor9": 4, "mapcolor13": 5, "fips": "AL47", "fips_alt": null, "woe_id": 29389229, "woe_label": "Ro\u00c5\u00beaje, ME, Montenegro", "woe_name": "Ro\u017eaje", "latitude": 42.8615, "longitude": 20.2013, "sov_a3": "MNE", "adm0_a3": "MNE", "adm0_label": 5, "admin": "Montenegro", "geonunit": "Montenegro", "gu_a3": "MNE", "gn_id": 786233, "gn_name": "Opstina Rozaje", "gns_id": 10540272, "gns_name": "Rozaje, Opstina", "gn_level": 1, "gn_region": null, "gn_a1_code": "ME.17", "region_sub": null, "sub_code": null, "gns_level": 1, "gns_lang": "mkd", "gns_adm1": "MJ00", "gns_region": null, "min_label": 10, "max_label": 11, "min_zoom": 10, "wikidataid": "Q3296677", "name_ar": "\u0631\u0648\u0632\u0627\u064a\u064a", "name_bn": "\u09b0\u09cb\u099c\u09be\u099c\u09c7", "name_de": "Gemeinde Ro\u017eaje", "name_en": "Ro\u017eaje", "name_es": "Municipio de Ro\u017eaje", "name_fr": "Ro\u017eaje", "name_el": "\u03a1\u03cc\u03b6\u03b1\u03b3\u03b9\u03b5", "name_hi": "\u0930\u094b\u091c\u093c\u093e\u091c\u0947", "name_hu": "Ro\u017eaje", "name_id": "Ro\u017eaje", "name_it": "Ro\u017eaje", "name_ja": "\u30ed\u30b8\u30e3\u30a4\u30a7", "name_ko": "\ub85c\uc790\uc81c", "name_nl": "Ro\u017eaje", "name_pl": "Gmina Ro\u017eaje", "name_pt": "Ro\u017eaje", "name_ru": "\u0420\u043e\u0436\u0430\u0435", "name_sv": "Ro\u017eaje", "name_tr": "Ro\u017eaje", "name_vi": "Ro\u017eaje", "name_zh": "\u7f85\u624e\u8036\u5340", "ne_id": 1159310607, "name_he": "\u05e8\u05d5\u05d6'\u05d0\u05d9\u05d4", "name_uk": "\u0420\u043e\u0436\u0430\u0454", "name_ur": "\u0631\u0648\u0698\u0627\u06cc\u06d2 \u0628\u0644\u062f\u06cc\u06c1", "name_fa": "\u0634\u0647\u0631\u062f\u0627\u0631\u06cc \u0631\u0648\u0698\u0627\u062c\u0647", "name_zht": "\u7f85\u624e\u8036\u5340", "FCLASS_ISO": null, "FCLASS_US": null, "FCLASS_FR": null, "FCLASS_RU": null, "FCLASS_ES": null, "FCLASS_CN": null, "FCLASS_TW": null, "FCLASS_IN": null, "FCLASS_NP": null, "FCLASS_PK": null, "FCLASS_DE": null, "FCLASS_GB": null, "FCLASS_BR": null, "FCLASS_IL": null, "FCLASS_PS": null, "FCLASS_SA": null, "FCLASS_EG": null, "FCLASS_MA": null, "FCLASS_PT": null, "FCLASS_AR": null, "FCLASS_JP": null, "FCLASS_KO": null, "FCLASS_VN": null, "FCLASS_TR": null, "FCLASS_ID": null, "FCLASS_PL": null, "FCLASS_GR": null, "FCLASS_IT": null, "FCLASS_NL": null, "FCLASS_SE": null, "FCLASS_BD": null, "FCLASS_UA": null, "FCLASS_TLC": null}, "bbox": [20.047593, 42.742508, 20.355171, 42.973605], "geometry": {"type": "Polygon", "coordinates": [[[20.345352, 42.827439], [20.319166, 42.824145], [20.264427, 42.817258], [20.226083, 42.806768], [20.217608, 42.802737], [20.209236, 42.791704], [20.208409, 42.782093], [20.20996, 42.772972], [20.208409, 42.763282], [20.183398, 42.742508], [20.149498, 42.749872], [20.112085, 42.766538], [20.076325, 42.773437], [20.065059, 42.769458], [20.055638, 42.763866], [20.0555, 42.764315], [20.047593, 42.789895], [20.056378, 42.838057], [20.074207, 42.85648], [20.08356, 42.883378], [20.092655, 42.902911], [20.108468, 42.924176], [20.129464, 42.973605], [20.14092, 42.970815], [20.19456, 42.966836], [20.223189, 42.957663], [20.275589, 42.929887], [20.337084, 42.906969], [20.35362, 42.890975], [20.355171, 42.86617], [20.345352, 42.827439]]]}}, {"type": "Feature", "properties": {"featurecla": "Admin-1 states provinces", "scalerank": 9, "adm1_code": "MNE-1509", "diss_me": 1509, "iso_3166_2": "ME-03", "wikipedia": null, "iso_a2": "ME", "adm0_sr": 1, "name": "Berane", "name_alt": null, "name_local": null, "type": "Op\u0161tina", "type_en": "Municipality", "code_local": null, "code_hasc": "ME.BR", "note": null, "hasc_maybe": null, "region": null, "region_cod": null, "provnum_ne": 8, "gadm_level": 1, "check_me": 0, "datarank": 8, "abbrev": null, "postal": "BE", "area_sqkm": 0, "sameascity": -99, "labelrank": 9, "name_len": 6, "mapcolor9": 4, "mapcolor13": 5, "fips": "MJ00", "fips_alt": null, "woe_id": 29389228, "woe_label": "Berane, ME, Montenegro", "woe_name": "Berane", "latitude": 42.8198, "longitude": 19.9003, "sov_a3": "MNE", "adm0_a3": "MNE", "adm0_label": 5, "admin": "Montenegro", "geonunit": "Montenegro", "gu_a3": "MNE", "gn_id": 3199070, "gn_name": "Opstina Berane", "gns_id": -83023, "gns_name": "Berane, Opstina", "gn_level": 1, "gn_region": null, "gn_a1_code": "ME.03", "region_sub": null, "sub_code": null, "gns_level": 1, "gns_lang": "ita", "gns_adm1": "MJ00", "gns_region": null, "min_label": 10, "max_label": 11, "min_zoom": 10, "wikidataid": "Q4853794", "name_ar": "\u0628\u0644\u062f\u064a\u0629 \u0628\u064a\u0631\u0627\u0646\u064a", "name_bn": "\u09ac\u09c7\u09b0\u09be\u09a8\u09c7 \u09aa\u09cc\u09b0\u09b8\u09ad\u09be", "name_de": "Berane", "name_en": "Berane", "name_es": "Municipio de Berane", "name_fr": "Berane", "name_el": "\u039c\u03c0\u03b5\u03c1\u03ac\u03bd\u03b5", "name_hi": "\u092c\u093f\u0930\u0947\u0928 \u0928\u0917\u0930\u092a\u093e\u0932\u093f\u0915\u093e", "name_hu": "Berane", "name_id": "Berane", "name_it": "Berane", "name_ja": "\u30d9\u30e9\u30cd", "name_ko": "\ubca0\ub77c\ub124 \uc9c0\ubc29 \uc790\uce58\uc81c", "name_nl": "Berane", "name_pl": "Gmina Berane", "name_pt": "Berane", "name_ru": "\u0411\u0435\u0440\u0430\u043d\u0435", "name_sv": "Berane", "name_tr": "Berane", "name_vi": "\u0110\u00f4 th\u1ecb t\u1ef1 tr\u1ecb Berane", "name_zh": "\u8c9d\u62c9\u5167\u5340", "ne_id": 1159310617, "name_he": "\u05d1\u05e8\u05d0\u05df", "name_uk": "\u0411\u0435\u0440\u0430\u043d\u0435", "name_ur": "\u0628\u06cc\u0631\u0627\u0646\u06d2 \u0628\u0644\u062f\u06cc\u06c1", "name_fa": "\u0628\u0631\u0627\u0646", "name_zht": "\u8c9d\u62c9\u5167\u5340", "FCLASS_ISO": null, "FCLASS_US": null, "FCLASS_FR": null, "FCLASS_RU": null, "FCLASS_ES": null, "FCLASS_CN": null, "FCLASS_TW": null, "FCLASS_IN": null, "FCLASS_NP": null, "FCLASS_PK": null, "FCLASS_DE": null, "FCLASS_GB": null, "FCLASS_BR": null, "FCLASS_IL": null, "FCLASS_PS": null, "FCLASS_SA": null, "FCLASS_EG": null, "FCLASS_MA": null, "FCLASS_PT": null, "FCLASS_AR": null, "FCLASS_JP": null, "FCLASS_KO": null, "FCLASS_VN": null, "FCLASS_TR": null, "FCLASS_ID": null, "FCLASS_PL": null, "FCLASS_GR": null, "FCLASS_IT": null, "FCLASS_NL": null, "FCLASS_SE": null, "FCLASS_BD": null, "FCLASS_UA": null, "FCLASS_TLC": null}, "bbox": [19.67113, 42.689281, 20.129464, 43.020796], "geometry": {"type": "Polygon", "coordinates": [[[20.055638, 42.763866], [20.034673, 42.751423], [20.026508, 42.743206], [20.024751, 42.723414], [20.03612, 42.707989], [20.037006, 42.707363], [19.999121, 42.703518], [19.90941, 42.689281], [19.9091, 42.689643], [19.879645, 42.715688], [19.859233, 42.732689], [19.859233, 42.749691], [19.877629, 42.763282], [19.843368, 42.770077], [19.77593, 42.785089], [19.732315, 42.808602], [19.687305, 42.82643], [19.67573, 42.825293], [19.67542, 42.827567], [19.67113, 42.869787], [19.678985, 42.881646], [19.695522, 42.906632], [19.698777, 42.90751], [19.743684, 42.919629], [19.775362, 42.926708], [19.800321, 42.942289], [19.832051, 42.9488], [19.87055, 42.940041], [19.894321, 42.940041], [19.931735, 42.953632], [19.96119, 42.962132], [19.970285, 42.967223], [20.001188, 42.976292], [20.026923, 42.985335], [20.056344, 43.020796], [20.116942, 42.976654], [20.129464, 42.973605], [20.108468, 42.924176], [20.092655, 42.902911], [20.08356, 42.883378], [20.074207, 42.85648], [20.056378, 42.838057], [20.047593, 42.789895], [20.0555, 42.764315], [20.055638, 42.763866]]]}}, {"type": "Feature", "properties": {"featurecla": "Admin-1 states provinces", "scalerank": 9, "adm1_code": "MNE-1503", "diss_me": 1503, "iso_3166_2": "ME-13", "wikipedia": null, "iso_a2": "ME", "adm0_sr": 1, "name": "Plav", "name_alt": null, "name_local": null, "type": "Op\u0161tina", "type_en": "Municipality", "code_local": null, "code_hasc": "ME.PA", "note": null, "hasc_maybe": null, "region": null, "region_cod": null, "provnum_ne": 7, "gadm_level": 1, "check_me": 0, "datarank": 8, "abbrev": null, "postal": "PV", "area_sqkm": 0, "sameascity": -99, "labelrank": 9, "name_len": 4, "mapcolor9": 4, "mapcolor13": 5, "fips": "AL49", "fips_alt": null, "woe_id": 29389239, "woe_label": "Plav, ME, Montenegro", "woe_name": "Plav", "latitude": 42.5985, "longitude": 19.9168, "sov_a3": "MNE", "adm0_a3": "MNE", "adm0_label": 5, "admin": "Montenegro", "geonunit": "Montenegro", "gu_a3": "MNE", "gn_id": 3193227, "gn_name": "Opstina Plav", "gns_id": 10540270, "gns_name": "Plav, Opstina", "gn_level": 1, "gn_region": null, "gn_a1_code": "ME.13", "region_sub": null, "sub_code": null, "gns_level": 1, "gns_lang": "mkd", "gns_adm1": "MJ00", "gns_region": null, "min_label": 10, "max_label": 11, "min_zoom": 10, "wikidataid": "Q4859821", "name_ar": "\u0628\u0644\u062f\u064a\u0629 \u0628\u0644\u0627\u0641", "name_bn": "\u09aa\u09cd\u09b2\u09c7\u09ad \u09aa\u09cc\u09b0\u09b8\u09ad\u09be", "name_de": "Gemeinde Plav", "name_en": "Plav", "name_es": "Municipio de Plav", "name_fr": "Plav", "name_el": "\u03a0\u03bb\u03b1\u03b2", "name_hi": "\u092a\u094d\u0932\u093e\u0935 \u0928\u0917\u0930\u092a\u093e\u0932\u093f\u0915\u093e", "name_hu": "Plav", "name_id": "Plav", "name_it": "Plav", "name_ja": "\u30d7\u30e9\u30f4", "name_ko": "\ud50c\ub77c\ube0c \uc9c0\ubc29 \uc790\uce58\uc81c", "name_nl": "Plav", "name_pl": "Gmina Plav", "name_pt": "Plav", "name_ru": "\u041f\u043b\u0430\u0432", "name_sv": "Plav", "name_tr": "Plav", "name_vi": "\u0110\u00f4 th\u1ecb t\u1ef1 tr\u1ecb Plav", "name_zh": "\u666e\u62c9\u592b\u5340", "ne_id": 1159310609, "name_he": "\u05e4\u05dc\u05d0\u05d1", "name_uk": "\u041f\u043b\u0430\u0432", "name_ur": "\u067e\u0644\u0627\u0648 \u0628\u0644\u062f\u06cc\u06c1", "name_fa": "\u0634\u0647\u0631\u062f\u0627\u0631\u06cc \u067e\u0644\u0627\u0648", "name_zht": "\u666e\u62c9\u592b\u5340", "FCLASS_ISO": null, "FCLASS_US": null, "FCLASS_FR": null, "FCLASS_RU": null, "FCLASS_ES": null, "FCLASS_CN": null, "FCLASS_TW": null, "FCLASS_IN": null, "FCLASS_NP": null, "FCLASS_PK": null, "FCLASS_DE": null, "FCLASS_GB": null, "FCLASS_BR": null, "FCLASS_IL": null, "FCLASS_PS": null, "FCLASS_SA": null, "FCLASS_EG": null, "FCLASS_MA": null, "FCLASS_PT": null, "FCLASS_AR": null, "FCLASS_JP": null, "FCLASS_KO": null, "FCLASS_VN": null, "FCLASS_TR": null, "FCLASS_ID": null, "FCLASS_PL": null, "FCLASS_GR": null, "FCLASS_IT": null, "FCLASS_NL": null, "FCLASS_SE": null, "FCLASS_BD": null, "FCLASS_UA": null, "FCLASS_TLC": null}, "bbox": [19.730299, 42.466479, 20.10392, 42.707363], "geometry": {"type": "Polygon", "coordinates": [[[20.037006, 42.707363], [20.094205, 42.666983], [20.101956, 42.656674], [20.10392, 42.653108], [20.090587, 42.627348], [20.079218, 42.61125], [20.075704, 42.603085], [20.075394, 42.586962], [20.078185, 42.572906], [20.077048, 42.55991], [20.064956, 42.546758], [20.039221, 42.557765], [20.017723, 42.546241], [19.981757, 42.510765], [19.956332, 42.505314], [19.907549, 42.506399], [19.882745, 42.493557], [19.882538, 42.493402], [19.873339, 42.486839], [19.835512, 42.470251], [19.829063, 42.468723], [19.819596, 42.466479], [19.801406, 42.468132], [19.784456, 42.474566], [19.75159, 42.493402], [19.73433, 42.524382], [19.730919, 42.533658], [19.730299, 42.540428], [19.732159, 42.555543], [19.733916, 42.562597], [19.741358, 42.574405], [19.746009, 42.579934], [19.747766, 42.578901], [19.746885, 42.58893], [19.763476, 42.594765], [19.822956, 42.627321], [19.859491, 42.663003], [19.904553, 42.688506], [19.90941, 42.689281], [19.999121, 42.703518], [20.037006, 42.707363]]]}}, {"type": "Feature", "properties": {"featurecla": "Admin-1 states provinces", "scalerank": 9, "adm1_code": "MNE-1516", "diss_me": 1516, "iso_3166_2": "ME-14", "wikipedia": null, "iso_a2": "ME", "adm0_sr": 1, "name": "Pljevlja", "name_alt": null, "name_local": null, "type": "Op\u0161tina", "type_en": "Municipality", "code_local": null, "code_hasc": "ME.PL", "note": null, "hasc_maybe": null, "region": null, "region_cod": null, "provnum_ne": 21, "gadm_level": 1, "check_me": 0, "datarank": 8, "abbrev": null, "postal": "PL", "area_sqkm": 0, "sameascity": -99, "labelrank": 9, "name_len": 8, "mapcolor9": 4, "mapcolor13": 5, "fips": "MJ00", "fips_alt": null, "woe_id": 29389226, "woe_label": "Pljevlja, ME, Montenegro", "woe_name": "Pljevlja", "latitude": 43.3019, "longitude": 19.2264, "sov_a3": "MNE", "adm0_a3": "MNE", "adm0_label": 5, "admin": "Montenegro", "geonunit": "Montenegro", "gu_a3": "MNE", "gn_id": 3193160, "gn_name": "Opstina Pljevlja", "gns_id": -92159, "gns_name": "Pljevlja, Opstina", "gn_level": 1, "gn_region": null, "gn_a1_code": "ME.14", "region_sub": null, "sub_code": null, "gns_level": 1, "gns_lang": "sqi", "gns_adm1": "MJ00", "gns_region": null, "min_label": 10, "max_label": 11, "min_zoom": 10, "wikidataid": "Q3299950", "name_ar": "\u0628\u0644\u062f\u064a\u0629 \u0628\u0644\u064a\u0641\u0644\u064a\u0647", "name_bn": "\u09aa\u09cd\u09b2\u09bf\u09ad\u09bf\u099c\u09be \u09aa\u09cc\u09b0\u09b8\u09ad\u09be", "name_de": "Gemeinde Pljevlja", "name_en": "Pljevlja", "name_es": "Municipio de Pljevlja", "name_fr": "Pljevlja", "name_el": "\u03a0\u03bb\u03c4\u03b6\u03ad\u03b2\u03bb\u03c4\u03b6\u03b1", "name_hi": "\u092a\u094d\u0932\u0947\u0935\u0932\u093f\u092f\u093e \u0928\u0917\u0930 \u092a\u093e\u0932\u093f\u0915\u093e", "name_hu": "Pljevlja", "name_id": "Pljevlja", "name_it": "Pljevlja", "name_ja": "\u30d7\u30ea\u30a7\u30f4\u30ea\u30e3", "name_ko": "\ud50c\ub808\ube14\ub77c \uc9c0\ubc29 \uc790\uce58\uc81c", "name_nl": "Pljevlja", "name_pl": "Gmina Pljevlja", "name_pt": "Pljevlja", "name_ru": "\u041f\u043b\u0435\u0432\u043b\u044f", "name_sv": "Pljevlja", "name_tr": "Pljevlja Belediyesi", "name_vi": "\u0110\u00f4 th\u1ecb t\u1ef1 tr\u1ecb Pljevlja", "name_zh": "\u666e\u5217\u592b\u5229\u4e9e\u5340", "ne_id": 1159310633, "name_he": "\u05e4\u05dc\u05d9\u05d9\u05d1\u05dc\u05d9\u05d4", "name_uk": "\u041c\u0443\u043d\u0456\u0446\u0438\u043f\u0430\u043b\u0456\u0442\u0435\u0442 \u041f\u043b\u0435\u0432\u043b\u044f", "name_ur": "\u067e\u0644\u0626\u06cc\u0648\u0644\u06cc\u0627 \u0628\u0644\u062f\u06cc\u06c1", "name_fa": "\u067e\u0644\u06cc\u0641\u0644\u06cc\u0627", "name_zht": "\u666e\u5217\u592b\u5229\u4e9e\u5340", "FCLASS_ISO": null, "FCLASS_US": null, "FCLASS_FR": null, "FCLASS_RU": null, "FCLASS_ES": null, "FCLASS_CN": null, "FCLASS_TW": null, "FCLASS_IN": null, "FCLASS_NP": null, "FCLASS_PK": null, "FCLASS_DE": null, "FCLASS_GB": null, "FCLASS_BR": null, "FCLASS_IL": null, "FCLASS_PS": null, "FCLASS_SA": null, "FCLASS_EG": null, "FCLASS_MA": null, "FCLASS_PT": null, "FCLASS_AR": null, "FCLASS_JP": null, "FCLASS_KO": null, "FCLASS_VN": null, "FCLASS_TR": null, "FCLASS_ID": null, "FCLASS_PL": null, "FCLASS_GR": null, "FCLASS_IT": null, "FCLASS_NL": null, "FCLASS_SE": null, "FCLASS_BD": null, "FCLASS_UA": null, "FCLASS_TLC": null}, "bbox": [18.90513, 43.045177, 19.547845, 43.547886], "geometry": {"type": "Polygon", "coordinates": [[[19.195345, 43.532796], [19.175191, 43.509619], [19.175914, 43.480887], [19.192244, 43.454532], [19.218392, 43.438202], [19.355645, 43.393063], [19.372285, 43.384226], [19.414039, 43.338389], [19.473054, 43.293276], [19.485146, 43.280098], [19.502303, 43.251935], [19.512431, 43.240643], [19.547845, 43.218815], [19.537237, 43.191059], [19.534446, 43.165169], [19.5284, 43.142561], [19.517393, 43.125197], [19.499771, 43.109462], [19.472486, 43.09706], [19.460084, 43.0698], [19.459464, 43.049647], [19.425564, 43.051352], [19.411146, 43.045177], [19.387323, 43.071997], [19.357558, 43.09706], [19.321178, 43.120521], [19.271827, 43.146436], [19.224129, 43.169019], [19.187491, 43.188837], [19.142584, 43.202066], [19.106462, 43.198242], [19.071994, 43.197674], [19.048016, 43.215605], [19.038921, 43.241754], [19.02626, 43.287797], [19.022535, 43.296546], [19.024709, 43.298728], [19.036285, 43.303327], [19.062536, 43.304386], [19.069668, 43.30883], [19.039592, 43.350714], [19.00993, 43.410995], [18.975306, 43.444274], [18.968278, 43.448098], [18.946264, 43.443938], [18.946368, 43.44908], [18.950708, 43.457297], [18.951225, 43.463808], [18.937893, 43.478949], [18.930658, 43.482282], [18.915258, 43.485383], [18.905647, 43.490628], [18.90513, 43.499051], [18.911021, 43.507268], [18.920529, 43.512203], [18.938926, 43.518947], [18.962697, 43.5383], [18.977477, 43.546232], [19.000214, 43.547886], [19.01427, 43.537783], [19.025019, 43.523029], [19.038145, 43.511015], [19.054991, 43.5067], [19.076386, 43.507242], [19.096023, 43.512901], [19.122791, 43.535948], [19.147699, 43.538145], [19.195345, 43.532796]]]}}, {"type": "Feature", "properties": {"featurecla": "Admin-1 states provinces", "scalerank": 9, "adm1_code": "MNE-1510", "diss_me": 1510, "iso_3166_2": "ME-04", "wikipedia": null, "iso_a2": "ME", "adm0_sr": 1, "name": "Bijelo Polje", "name_alt": null, "name_local": null, "type": "Op\u0161tina", "type_en": "Municipality", "code_local": null, "code_hasc": "ME.BP", "note": null, "hasc_maybe": null, "region": null, "region_cod": null, "provnum_ne": 19, "gadm_level": 1, "check_me": 0, "datarank": 8, "abbrev": null, "postal": "BP", "area_sqkm": 0, "sameascity": -99, "labelrank": 9, "name_len": 12, "mapcolor9": 4, "mapcolor13": 5, "fips": "MJ00", "fips_alt": null, "woe_id": 29389227, "woe_label": "Bijelo Polje, ME, Montenegro", "woe_name": "Bijelo Polje", "latitude": 43.0174, "longitude": 19.7579, "sov_a3": "MNE", "adm0_a3": "MNE", "adm0_label": 5, "admin": "Montenegro", "geonunit": "Montenegro", "gu_a3": "MNE", "gn_id": 3204173, "gn_name": "Opstina Bijelo Polje", "gns_id": -75072, "gns_name": "Bijelo Polje, Opstina", "gn_level": 1, "gn_region": null, "gn_a1_code": "ME.04", "region_sub": null, "sub_code": null, "gns_level": 1, "gns_lang": "srp", "gns_adm1": "MJ00", "gns_region": null, "min_label": 10, "max_label": 11, "min_zoom": 10, "wikidataid": "Q4086488", "name_ar": "\u0628\u0644\u062f\u064a\u0629 \u0628\u064a\u064a\u0644\u0648 \u0628\u0648\u0644\u064a", "name_bn": "\u09ac\u09bf\u099c\u09c7\u09b2\u09cb \u09aa\u09cb\u09b2\u099c\u09c7 \u09aa\u09cc\u09b0\u09b8\u09ad\u09be", "name_de": "Gemeinde Bijelo Polje", "name_en": "Bijelo Polje", "name_es": "Municipio de Bijelo Polje", "name_fr": "Bijelo Polje", "name_el": "\u039c\u03c0\u03b9\u03c4\u03b6\u03ad\u03bb\u03bf \u03a0\u03cc\u03bb\u03c4\u03b6\u03b5", "name_hi": "\u092c\u093f\u090f\u0932\u094b \u092a\u094b\u0932\u093f\u090f \u0928\u0917\u0930 \u092a\u093e\u0932\u093f\u0915\u093e", "name_hu": "Bijelo Polje", "name_id": "Bijelo Polje", "name_it": "Bijelo Polje", "name_ja": "\u30d3\u30a4\u30a7\u30ed\u30fb\u30dd\u30ea\u30a7", "name_ko": "\ube44\uc610\ub85c\ud3f4\ub808", "name_nl": "Bijelo Polje", "name_pl": "Gmina Bijelo Polje", "name_pt": "Bijelo Polje", "name_ru": "\u0411\u0438\u0435\u043b\u043e-\u041f\u043e\u043b\u0435", "name_sv": "Bijelo Polje", "name_tr": "Bijelo Polje Belediyesi", "name_vi": "\u0110\u00f4 th\u1ecb t\u1ef1 tr\u1ecb Bijelo Polje", "name_zh": "\u6bd4\u8036\u6d1b\u6ce2\u5217\u5340", "ne_id": 1159310621, "name_he": "\u05d1\u05d9\u05d9\u05dc\u05d5 \u05e4\u05d5\u05dc\u05d9\u05d4", "name_uk": "\u041c\u0443\u043d\u0456\u0446\u0438\u043f\u0430\u043b\u0456\u0442\u0435\u0442 \u0411\u0456\u0454\u043b\u043e-\u041f\u043e\u043b\u0454", "name_ur": "\u0628\u06cc\u0626\u0644\u0648 \u067e\u0648\u0644\u06cc\u06d2 \u0628\u0644\u062f\u06cc\u06c1", "name_fa": "\u0634\u0647\u0631\u062f\u0627\u0631\u06cc \u0628\u06cc\u062c\u0644\u0648 \u067e\u0648\u0644\u062c\u0647", "name_zht": "\u6bd4\u8036\u6d1b\u6ce2\u5217\u5340", "FCLASS_ISO": null, "FCLASS_US": null, "FCLASS_FR": null, "FCLASS_RU": null, "FCLASS_ES": null, "FCLASS_CN": null, "FCLASS_TW": null, "FCLASS_IN": null, "FCLASS_NP": null, "FCLASS_PK": null, "FCLASS_DE": null, "FCLASS_GB": null, "FCLASS_BR": null, "FCLASS_IL": null, "FCLASS_PS": null, "FCLASS_SA": null, "FCLASS_EG": null, "FCLASS_MA": null, "FCLASS_PT": null, "FCLASS_AR": null, "FCLASS_JP": null, "FCLASS_KO": null, "FCLASS_VN": null, "FCLASS_TR": null, "FCLASS_ID": null, "FCLASS_PL": null, "FCLASS_GR": null, "FCLASS_IT": null, "FCLASS_NL": null, "FCLASS_SE": null, "FCLASS_BD": null, "FCLASS_UA": null, "FCLASS_TLC": null}, "bbox": [19.459464, 42.90751, 20.056344, 43.218815], "geometry": {"type": "Polygon", "coordinates": [[[19.547845, 43.218815], [19.549948, 43.217518], [19.580851, 43.187804], [19.598111, 43.176203], [19.618678, 43.168245], [19.663016, 43.158504], [19.684617, 43.156721], [19.69733, 43.160209], [19.705494, 43.166178], [19.713556, 43.165609], [19.742805, 43.126516], [19.761202, 43.108739], [19.781769, 43.096466], [19.805127, 43.089955], [19.838303, 43.088353], [19.872203, 43.090368], [19.883778, 43.095691], [19.907136, 43.113261], [19.916644, 43.117059], [19.92915, 43.113907], [19.936591, 43.105897], [19.942276, 43.095639], [19.949821, 43.085924], [19.959742, 43.07856], [20.019894, 43.047348], [20.054388, 43.022221], [20.056344, 43.020796], [20.026923, 42.985335], [20.001188, 42.976292], [19.970285, 42.967223], [19.96119, 42.962132], [19.931735, 42.953632], [19.894321, 42.940041], [19.87055, 42.940041], [19.832051, 42.9488], [19.800321, 42.942289], [19.775362, 42.926708], [19.743684, 42.919629], [19.698777, 42.90751], [19.675678, 42.928698], [19.658108, 42.940325], [19.664361, 42.953632], [19.663224, 42.978824], [19.648496, 42.998952], [19.621573, 43.01368], [19.575994, 43.021612], [19.544833, 43.028123], [19.537443, 43.032929], [19.514499, 43.041714], [19.476259, 43.048794], [19.459464, 43.049647], [19.460084, 43.0698], [19.472486, 43.09706], [19.499771, 43.109462], [19.517393, 43.125197], [19.5284, 43.142561], [19.534446, 43.165169], [19.537237, 43.191059], [19.547845, 43.218815]]]}}, {"type": "Feature", "properties": {"featurecla": "Admin-1 states provinces", "scalerank": 9, "adm1_code": "MNE-1520", "diss_me": 1520, "iso_3166_2": "ME-21", "wikipedia": null, "iso_a2": "ME", "adm0_sr": 1, "name": "\u017dabljak", "name_alt": null, "name_local": null, "type": "Op\u0161tina", "type_en": "Municipality", "code_local": null, "code_hasc": "ME.ZA", "note": null, "hasc_maybe": null, "region": null, "region_cod": null, "provnum_ne": 22, "gadm_level": 1, "check_me": 0, "datarank": 8, "abbrev": null, "postal": "ZA", "area_sqkm": 0, "sameascity": -99, "labelrank": 9, "name_len": 7, "mapcolor9": 4, "mapcolor13": 5, "fips": "MJ00", "fips_alt": null, "woe_id": 29389231, "woe_label": "\u00c5\u00bdabljak, ME, Montenegro", "woe_name": "\u017dabljak", "latitude": 43.1148, "longitude": 19.2003, "sov_a3": "MNE", "adm0_a3": "MNE", "adm0_label": 5, "admin": "Montenegro", "geonunit": "Montenegro", "gu_a3": "MNE", "gn_id": 3186995, "gn_name": "Opstina Zabljak", "gns_id": -101441, "gns_name": "Zabljak, Opstina", "gn_level": 1, "gn_region": null, "gn_a1_code": "ME.21", "region_sub": null, "sub_code": null, "gns_level": 1, "gns_lang": "ita", "gns_adm1": "MJ00", "gns_region": null, "min_label": 10, "max_label": 11, "min_zoom": 10, "wikidataid": "Q3304454", "name_ar": "\u0628\u0644\u062f\u064a\u0629 \u0634\u0627\u0628\u0644\u064a\u0627\u0643", "name_bn": "\u099c\u09be\u09ac\u09cd\u09b2\u099c\u09be\u0995 \u09aa\u09cc\u09b0\u09b8\u09ad\u09be", "name_de": "Gemeinde \u017dabljak", "name_en": "\u017dabljak", "name_es": "Municipio de \u017dabljak", "name_fr": "\u017dabljak", "name_el": "\u03c4\u03bf\u03c5 \u0396\u03ac\u03bc\u03c0\u03bb\u03b9\u03b1\u03ba", "name_hi": "\u091c\u093c\u093e\u092c\u094d\u0932\u093f\u092f\u093e\u0915 \u0928\u0917\u0930\u092a\u093e\u0932\u093f\u0915\u093e", "name_hu": "\u017dabljak", "name_id": "\u017dabljak", "name_it": "\u017dabljak", "name_ja": "\u30b8\u30e3\u30d6\u30ea\u30e3\u30af", "name_ko": "\uc790\ube14\ub77c\ud06c \uc9c0\ubc29 \uc790\uce58\uc81c", "name_nl": "\u017dabljak", "name_pl": "Gmina \u017dabljak", "name_pt": "\u017dabljak", "name_ru": "\u0416\u0430\u0431\u043b\u044f\u043a", "name_sv": "\u017dabljaks", "name_tr": "Zabljak Belediyesi", "name_vi": "\u0110\u00f4 th\u1ecb t\u1ef1 tr\u1ecb Zabljak", "name_zh": "\u624e\u5e03\u5229\u4e9e\u514b\u5340", "ne_id": 1159309495, "name_he": "\u05d6'\u05d0\u05d1\u05dc\u05d9\u05d0\u05e7", "name_uk": "\u041c\u0443\u043d\u0456\u0446\u0438\u043f\u0430\u043b\u0456\u0442\u0435\u0442 \u0416\u0430\u0431\u043b\u044f\u043a", "name_ur": "\u0632\u0627\u0628\u0644\u062c\u06a9 \u0645\u06cc\u0648\u0646\u0633\u067e\u0644\u0679\u06cc", "name_fa": "\u0634\u0647\u0631\u062f\u0627\u0631\u06cc \u0698\u0627\u0628\u0644\u06cc\u0627\u06a9", "name_zht": "\u624e\u5e03\u5229\u4e9e\u514b\u5340", "FCLASS_ISO": null, "FCLASS_US": null, "FCLASS_FR": null, "FCLASS_RU": null, "FCLASS_ES": null, "FCLASS_CN": null, "FCLASS_TW": null, "FCLASS_IN": null, "FCLASS_NP": null, "FCLASS_PK": null, "FCLASS_DE": null, "FCLASS_GB": null, "FCLASS_BR": null, "FCLASS_IL": null, "FCLASS_PS": null, "FCLASS_SA": null, "FCLASS_EG": null, "FCLASS_MA": null, "FCLASS_PT": null, "FCLASS_AR": null, "FCLASS_JP": null, "FCLASS_KO": null, "FCLASS_VN": null, "FCLASS_TR": null, "FCLASS_ID": null, "FCLASS_PL": null, "FCLASS_GR": null, "FCLASS_IT": null, "FCLASS_NL": null, "FCLASS_SE": null, "FCLASS_BD": null, "FCLASS_UA": null, "FCLASS_TLC": null}, "bbox": [18.989506, 42.990115, 19.411146, 43.296546], "geometry": {"type": "Polygon", "coordinates": [[[18.992463, 43.267102], [19.002902, 43.273949], [19.01086, 43.28232], [19.017164, 43.291157], [19.022535, 43.296546], [19.02626, 43.287797], [19.038921, 43.241754], [19.048016, 43.215605], [19.071994, 43.197674], [19.106462, 43.198242], [19.142584, 43.202066], [19.187491, 43.188837], [19.224129, 43.169019], [19.271827, 43.146436], [19.321178, 43.120521], [19.357558, 43.09706], [19.387323, 43.071997], [19.411146, 43.045177], [19.403757, 43.041998], [19.380864, 43.027555], [19.349393, 43.021612], [19.335234, 43.011406], [19.331668, 42.990115], [19.270431, 43.008073], [19.2525, 43.014687], [19.239581, 43.027917], [19.211469, 43.04776], [19.180049, 43.04776], [19.158242, 43.040862], [19.144754, 43.058767], [19.121035, 43.075304], [19.087445, 43.071997], [19.066206, 43.071997], [19.04998, 43.085226], [19.02471, 43.094217], [19.025175, 43.111141], [19.003678, 43.138142], [18.994014, 43.163205], [18.992619, 43.193281], [18.990397, 43.251443], [18.989518, 43.271726], [18.989506, 43.272016], [18.992463, 43.267102]]]}}, {"type": "Feature", "properties": {"featurecla": "Admin-1 states provinces", "scalerank": 9, "adm1_code": "MNE-1515", "diss_me": 1515, "iso_3166_2": "ME-15", "wikipedia": null, "iso_a2": "ME", "adm0_sr": 1, "name": "Plu\u017eine", "name_alt": null, "name_local": null, "type": "Op\u0161tina", "type_en": "Municipality", "code_local": null, "code_hasc": "ME.PU", "note": null, "hasc_maybe": null, "region": null, "region_cod": null, "provnum_ne": 20, "gadm_level": 1, "check_me": 0, "datarank": 8, "abbrev": null, "postal": "PU", "area_sqkm": 0, "sameascity": -99, "labelrank": 9, "name_len": 7, "mapcolor9": 4, "mapcolor13": 5, "fips": "MJ00", "fips_alt": null, "woe_id": 29389230, "woe_label": "Plu\u00c5\u00beine, ME, Montenegro", "woe_name": "Plu\u017eine", "latitude": 43.1483, "longitude": 18.8229, "sov_a3": "MNE", "adm0_a3": "MNE", "adm0_label": 5, "admin": "Montenegro", "geonunit": "Montenegro", "gu_a3": "MNE", "gn_id": 3193129, "gn_name": "Opstina Pluzine", "gns_id": -92203, "gns_name": "Pluzine, Opstina", "gn_level": 1, "gn_region": null, "gn_a1_code": "ME.15", "region_sub": null, "sub_code": null, "gns_level": 1, "gns_lang": "sqi", "gns_adm1": "MJ00", "gns_region": null, "min_label": 10, "max_label": 11, "min_zoom": 10, "wikidataid": "Q4864476", "name_ar": "\u0628\u0644\u062f\u064a\u0629 \u0628\u0644\u0648\u0632\u064a\u0646", "name_bn": "\u09aa\u09cd\u09b2\u09c1\u099c\u09be\u0987\u09a8 \u09aa\u09cc\u09b0\u09b8\u09ad\u09be", "name_de": "Gemeinde Plu\u017eine", "name_en": "Plu\u017eine", "name_es": "Municipio de Plu\u017eine", "name_fr": "Plu\u017eine", "name_el": "\u03a0\u03bb\u03bf\u03cd\u03b6\u03b9\u03bd\u03b5", "name_hi": "\u092a\u094d\u0932\u0941\u091c\u093e\u0907\u0928 \u0928\u0917\u0930\u092a\u093e\u0932\u093f\u0915\u093e", "name_hu": "Plu\u017eine", "name_id": "Plu\u017eine", "name_it": "Plu\u017eine", "name_ja": "\u30d7\u30eb\u30b8\u30cd", "name_ko": "\ud50c\ub8e8\uc9c0\ub124 \uc9c0\ubc29 \uc790\uce58\uc81c", "name_nl": "Pluzine", "name_pl": "Gmina Plu\u017eine", "name_pt": "Pluzine", "name_ru": "\u041f\u043b\u0443\u0436\u0438\u043d\u0435", "name_sv": "Op\u0161tina Plu\u017eine", "name_tr": "Pluzine Belediyesi", "name_vi": "\u0110\u00f4 th\u1ecb t\u1ef1 tr\u1ecb Pluzine", "name_zh": "\u666e\u76e7\u65e5\u5167\u5340", "ne_id": 1159310631, "name_he": "\u05e4\u05dc\u05d5\u05d6'\u05d9\u05df", "name_uk": "\u041c\u0443\u043d\u0456\u0446\u0438\u043f\u0430\u043b\u0456\u0442\u0435\u0442 \u041f\u043b\u0443\u0436\u0438\u043d\u0435", "name_ur": "\u067e\u0644\u0648\u0698\u06cc\u0646\u06d2 \u0628\u0644\u062f\u06cc\u06c1", "name_fa": "\u0634\u0647\u0631\u062f\u0627\u0631\u06cc \u067e\u0644\u0648\u0632\u06cc\u0646", "name_zht": "\u666e\u76e7\u65e5\u5167\u5340", "FCLASS_ISO": null, "FCLASS_US": null, "FCLASS_FR": null, "FCLASS_RU": null, "FCLASS_ES": null, "FCLASS_CN": null, "FCLASS_TW": null, "FCLASS_IN": null, "FCLASS_NP": null, "FCLASS_PK": null, "FCLASS_DE": null, "FCLASS_GB": null, "FCLASS_BR": null, "FCLASS_IL": null, "FCLASS_PS": null, "FCLASS_SA": null, "FCLASS_EG": null, "FCLASS_MA": null, "FCLASS_PT": null, "FCLASS_AR": null, "FCLASS_JP": null, "FCLASS_KO": null, "FCLASS_VN": null, "FCLASS_TR": null, "FCLASS_ID": null, "FCLASS_PL": null, "FCLASS_GR": null, "FCLASS_IT": null, "FCLASS_NL": null, "FCLASS_SE": null, "FCLASS_BD": null, "FCLASS_UA": null, "FCLASS_TLC": null}, "bbox": [18.621128, 42.9334, 19.025175, 43.351903], "geometry": {"type": "Polygon", "coordinates": [[[18.899135, 43.351903], [18.923423, 43.346838], [18.950295, 43.333067], [18.957323, 43.325858], [18.957943, 43.318985], [18.957116, 43.311828], [18.959493, 43.303456], [18.968589, 43.292216], [18.988949, 43.272941], [18.989506, 43.272016], [18.989518, 43.271726], [18.990397, 43.251443], [18.992619, 43.193281], [18.994014, 43.163205], [19.003678, 43.138142], [19.025175, 43.111141], [19.02471, 43.094217], [19.014426, 43.097886], [18.977219, 43.094062], [18.950761, 43.07117], [18.930917, 43.030113], [18.936705, 43.002285], [18.983834, 42.979392], [18.988226, 42.938878], [18.978098, 42.9334], [18.958977, 42.939705], [18.902237, 42.944123], [18.850147, 42.955156], [18.816247, 42.979392], [18.784518, 43.020191], [18.761108, 43.067604], [18.737389, 43.095148], [18.703799, 43.109462], [18.638997, 43.121348], [18.621128, 43.124578], [18.629074, 43.154886], [18.645301, 43.180182], [18.688399, 43.224469], [18.664318, 43.233176], [18.679511, 43.24948], [18.807151, 43.318029], [18.833506, 43.324153], [18.830302, 43.328157], [18.824618, 43.337408], [18.821207, 43.341387], [18.839604, 43.34782], [18.899135, 43.351903]]]}}, {"type": "Feature", "properties": {"featurecla": "Admin-1 states provinces", "scalerank": 9, "adm1_code": "MNE-1514", "diss_me": 1514, "iso_3166_2": "ME-12", "wikipedia": null, "iso_a2": "ME", "adm0_sr": 1, "name": "Nik\u0161ic", "name_alt": null, "name_local": null, "type": "Op\u0161tina", "type_en": "Municipality", "code_local": null, "code_hasc": "ME.NK", "note": null, "hasc_maybe": null, "region": null, "region_cod": null, "provnum_ne": 18, "gadm_level": 1, "check_me": 0, "datarank": 8, "abbrev": null, "postal": "NK", "area_sqkm": 0, "sameascity": -99, "labelrank": 9, "name_len": 6, "mapcolor9": 4, "mapcolor13": 5, "fips": "MJ00", "fips_alt": null, "woe_id": 29389238, "woe_label": "Nik\u00c5\u00a1i\u00c4\u2021, ME, Montenegro", "woe_name": "Nik\u0161ic", "latitude": 42.8341, "longitude": 18.8259, "sov_a3": "MNE", "adm0_a3": "MNE", "adm0_label": 5, "admin": "Montenegro", "geonunit": "Montenegro", "gu_a3": "MNE", "gn_id": 3194493, "gn_name": "Opstina Niksic", "gns_id": -90106, "gns_name": "Niksic, Opstina", "gn_level": 1, "gn_region": null, "gn_a1_code": "ME.12", "region_sub": null, "sub_code": null, "gns_level": 1, "gns_lang": "sqi", "gns_adm1": "MJ00", "gns_region": null, "min_label": 10, "max_label": 11, "min_zoom": 10, "wikidataid": "Q4865016", "name_ar": "\u0628\u0644\u062f\u064a\u0629 \u0646\u064a\u0643\u062a\u0633\u064a\u062a\u0634", "name_bn": "\u09a8\u09bf\u0995\u09b8\u09bf\u0995 \u09aa\u09cc\u09b0\u09b8\u09ad\u09be", "name_de": "Gemeinde Nik\u0161i\u0107", "name_en": "Nik\u0161i\u0107", "name_es": "Municipio de Nik\u0161i\u0107", "name_fr": "Nik\u0161i\u0107", "name_el": "\u039d\u03b9\u03ba\u03c3\u03af\u03c4\u03c2", "name_hi": "\u0928\u093f\u0915\u094d\u0938\u093f\u0915 \u0928\u0917\u0930\u092a\u093e\u0932\u093f\u0915\u093e", "name_hu": "Nik\u0161ic", "name_id": "Nik\u0161i\u0107", "name_it": "Nik\u0161i\u0107", "name_ja": "\u30cb\u30af\u30b7\u30c1", "name_ko": "\ub2c9\uc2dc\uce58 \uc9c0\ubc29 \uc790\uce58\uc81c", "name_nl": "Niksic", "name_pl": "Gmina Nik\u0161i\u0107", "name_pt": "Niksic", "name_ru": "\u041d\u0438\u043a\u0448\u0438\u0447", "name_sv": "Niksic", "name_tr": "Niksic Belediyesi", "name_vi": "\u0110\u00f4 th\u1ecb t\u1ef1 tr\u1ecb Niksi\u0107", "name_zh": "\u5c3c\u514b\u5e0c\u5947\u5340", "ne_id": 1159310629, "name_he": "\u05e0\u05d9\u05e7\u05e9\u05d9\u05e5'", "name_uk": "\u041c\u0443\u043d\u0456\u0446\u0438\u043f\u0430\u043b\u0456\u0442\u0435\u0442 \u041d\u0438\u043a\u0448\u0438\u0447", "name_ur": "\u0646\u06cc\u06a9\u0634\u06cc\u0686 \u0628\u0644\u062f\u06cc\u06c1", "name_fa": "\u0634\u0647\u0631\u062f\u0627\u0631\u06cc \u0646\u06cc\u06a9\u0686\u06cc\u0686", "name_zht": "\u5c3c\u514b\u5e0c\u5947\u5340", "FCLASS_ISO": null, "FCLASS_US": null, "FCLASS_FR": null, "FCLASS_RU": null, "FCLASS_ES": null, "FCLASS_CN": null, "FCLASS_TW": null, "FCLASS_IN": null, "FCLASS_NP": null, "FCLASS_PK": null, "FCLASS_DE": null, "FCLASS_GB": null, "FCLASS_BR": null, "FCLASS_IL": null, "FCLASS_PS": null, "FCLASS_SA": null, "FCLASS_EG": null, "FCLASS_MA": null, "FCLASS_PT": null, "FCLASS_AR": null, "FCLASS_JP": null, "FCLASS_KO": null, "FCLASS_VN": null, "FCLASS_TR": null, "FCLASS_ID": null, "FCLASS_PL": null, "FCLASS_GR": null, "FCLASS_IT": null, "FCLASS_NL": null, "FCLASS_SE": null, "FCLASS_BD": null, "FCLASS_UA": null, "FCLASS_TLC": null}, "bbox": [18.433531, 42.620215, 19.218652, 43.124578], "geometry": {"type": "Polygon", "coordinates": [[[18.638996, 43.020243], [18.621116, 43.09644], [18.620599, 43.122563], [18.621128, 43.124578], [18.638997, 43.121348], [18.703799, 43.109462], [18.737389, 43.095148], [18.761108, 43.067604], [18.784518, 43.020191], [18.816247, 42.979392], [18.850147, 42.955156], [18.902237, 42.944123], [18.958977, 42.939705], [18.978098, 42.9334], [19.012463, 42.922083], [19.057679, 42.899759], [19.089667, 42.882396], [19.145581, 42.865032], [19.208575, 42.858935], [19.218652, 42.839685], [19.215344, 42.81625], [19.205681, 42.792014], [19.210952, 42.761137], [19.210745, 42.759509], [19.208988, 42.743774], [19.20873, 42.728064], [19.213122, 42.70822], [19.177879, 42.694991], [19.125531, 42.698764], [19.089667, 42.703802], [19.072304, 42.708763], [19.04998, 42.703802], [19.014426, 42.687266], [18.997063, 42.664114], [18.995151, 42.634917], [18.981663, 42.622231], [18.93717, 42.620215], [18.932519, 42.640705], [18.914329, 42.6575], [18.889421, 42.669075], [18.870249, 42.680651], [18.859914, 42.690831], [18.823947, 42.696076], [18.797075, 42.69525], [18.767723, 42.709306], [18.727364, 42.718116], [18.719199, 42.700495], [18.70969, 42.689488], [18.696048, 42.685069], [18.690002, 42.674734], [18.69057, 42.658611], [18.6838, 42.641945], [18.669589, 42.631042], [18.648299, 42.629336], [18.638739, 42.628561], [18.601273, 42.624427], [18.544636, 42.626081], [18.542832, 42.626429], [18.549596, 42.638923], [18.550009, 42.668069], [18.539674, 42.695457], [18.522518, 42.71189], [18.502157, 42.727445], [18.46743, 42.769199], [18.453891, 42.793151], [18.444589, 42.817078], [18.443659, 42.834467], [18.453478, 42.845655], [18.465984, 42.852812], [18.473322, 42.862553], [18.467637, 42.881699], [18.443969, 42.916865], [18.434047, 42.936889], [18.433531, 42.954201], [18.452754, 42.993398], [18.483037, 43.014637], [18.538951, 43.023887], [18.598379, 43.024455], [18.638996, 43.020243]]]}}, {"type": "Feature", "properties": {"featurecla": "Admin-1 states provinces", "scalerank": 9, "adm1_code": "MNE-1507", "diss_me": 1507, "iso_3166_2": "ME-10", "wikipedia": null, "iso_a2": "ME", "adm0_sr": 1, "name": "Kotor", "name_alt": null, "name_local": null, "type": "Op\u0161tina", "type_en": "Municipality", "code_local": null, "code_hasc": "ME.KT", "note": null, "hasc_maybe": null, "region": null, "region_cod": null, "provnum_ne": 2, "gadm_level": 1, "check_me": 0, "datarank": 8, "abbrev": null, "postal": "KT", "area_sqkm": 0, "sameascity": -99, "labelrank": 9, "name_len": 5, "mapcolor9": 4, "mapcolor13": 5, "fips": "HR03", "fips_alt": null, "woe_id": 29389240, "woe_label": "Kotor, ME, Montenegro", "woe_name": "Kotor", "latitude": 42.5415, "longitude": 18.65, "sov_a3": "MNE", "adm0_a3": "MNE", "adm0_label": 5, "admin": "Montenegro", "geonunit": "Montenegro", "gu_a3": "MNE", "gn_id": 3197537, "gn_name": "Opstina Kotor", "gns_id": -85412, "gns_name": "Kotor, Opstina", "gn_level": 1, "gn_region": null, "gn_a1_code": "ME.10", "region_sub": null, "sub_code": null, "gns_level": 1, "gns_lang": "srp", "gns_adm1": "MJ00", "gns_region": null, "min_label": 10, "max_label": 11, "min_zoom": 10, "wikidataid": "Q4856305", "name_ar": "\u0643\u0648\u062a\u0648\u0631", "name_bn": "\u0995\u09cb\u09a4\u09cb\u09b0", "name_de": "Gemeinde Kotor", "name_en": "Kotor", "name_es": "Municipio de Kotor", "name_fr": "Kotor", "name_el": "\u039a\u03cc\u03c4\u03bf\u03c1", "name_hi": "\u0915\u094b\u091f\u094b\u0930", "name_hu": "Kotor", "name_id": "Kotor", "name_it": "Cattaro", "name_ja": "\u30b3\u30c8\u30eb", "name_ko": "\ucf54\ud1a0\ub974", "name_nl": "Kotor", "name_pl": "Gmina Kotor", "name_pt": "Kotor", "name_ru": "\u041a\u043e\u0442\u043e\u0440", "name_sv": "Kotor", "name_tr": "Kotor", "name_vi": "Kotor", "name_zh": "\u79d1\u6258\u5c14\u533a", "ne_id": 1159310613, "name_he": "\u05de\u05d7\u05d5\u05d6 \u05e7\u05d5\u05d8\u05d5\u05e8", "name_uk": "\u041a\u043e\u0442\u043e\u0440", "name_ur": "\u06a9\u0648\u062a\u0648\u0631 \u0628\u0644\u062f\u06cc\u06c1", "name_fa": "\u0634\u0647\u0631\u062f\u0627\u0631\u06cc \u06a9\u0648\u062a\u0648\u0631", "name_zht": "\u79d1\u6258\u723e\u5340", "FCLASS_ISO": null, "FCLASS_US": null, "FCLASS_FR": null, "FCLASS_RU": null, "FCLASS_ES": null, "FCLASS_CN": null, "FCLASS_TW": null, "FCLASS_IN": null, "FCLASS_NP": null, "FCLASS_PK": null, "FCLASS_DE": null, "FCLASS_GB": null, "FCLASS_BR": null, "FCLASS_IL": null, "FCLASS_PS": null, "FCLASS_SA": null, "FCLASS_EG": null, "FCLASS_MA": null, "FCLASS_PT": null, "FCLASS_AR": null, "FCLASS_JP": null, "FCLASS_KO": null, "FCLASS_VN": null, "FCLASS_TR": null, "FCLASS_ID": null, "FCLASS_PL": null, "FCLASS_GR": null, "FCLASS_IT": null, "FCLASS_NL": null, "FCLASS_SE": null, "FCLASS_BD": null, "FCLASS_UA": null, "FCLASS_TLC": null}, "bbox": [18.506798, 42.27147, 18.793561, 42.629336], "geometry": {"type": "Polygon", "coordinates": [[[18.506798, 42.59849], [18.517247, 42.602982], [18.538434, 42.618304], [18.542832, 42.626429], [18.544636, 42.626081], [18.601273, 42.624427], [18.638739, 42.628561], [18.648299, 42.629336], [18.650004, 42.624014], [18.666282, 42.59355], [18.683956, 42.576471], [18.694963, 42.556085], [18.698012, 42.540504], [18.722506, 42.527404], [18.76054, 42.507432], [18.772116, 42.47671], [18.771857, 42.452189], [18.769945, 42.439219], [18.761935, 42.425318], [18.765501, 42.410564], [18.779144, 42.379274], [18.793561, 42.354211], [18.784931, 42.340052], [18.786016, 42.308942], [18.78798, 42.280985], [18.788744, 42.276025], [18.786388, 42.274115], [18.778575, 42.27147], [18.771983, 42.276923], [18.762462, 42.291164], [18.729503, 42.311591], [18.714529, 42.325263], [18.714122, 42.338935], [18.708344, 42.342475], [18.699718, 42.34984], [18.693614, 42.353217], [18.693614, 42.357577], [18.693774, 42.357725], [18.714703, 42.377052], [18.73465, 42.428186], [18.709277, 42.463041], [18.685764, 42.476684], [18.685658, 42.476746], [18.687348, 42.482896], [18.654145, 42.451809], [18.632692, 42.495856], [18.611195, 42.521901], [18.583083, 42.536655], [18.557142, 42.548359], [18.523397, 42.582827], [18.506798, 42.59849]]]}}, {"type": "Feature", "properties": {"featurecla": "Admin-1 states provinces", "scalerank": 9, "adm1_code": "MNE-1508", "diss_me": 1508, "iso_3166_2": "ME-01", "wikipedia": null, "iso_a2": "ME", "adm0_sr": 1, "name": "Andrijevica", "name_alt": null, "name_local": null, "type": "Op\u0161tina", "type_en": "Municipality", "code_local": null, "code_hasc": "ME.AN", "note": null, "hasc_maybe": null, "region": null, "region_cod": null, "provnum_ne": 10, "gadm_level": 1, "check_me": 0, "datarank": 8, "abbrev": null, "postal": "AN", "area_sqkm": 0, "sameascity": -99, "labelrank": 9, "name_len": 11, "mapcolor9": 4, "mapcolor13": 5, "fips": "MJ00", "fips_alt": null, "woe_id": 29389233, "woe_label": "Andrijevica, ME, Montenegro", "woe_name": "Andrijevica", "latitude": 42.6933, "longitude": 19.7688, "sov_a3": "MNE", "adm0_a3": "MNE", "adm0_label": 5, "admin": "Montenegro", "geonunit": "Montenegro", "gu_a3": "MNE", "gn_id": 3343959, "gn_name": "Opstina Andrijevica", "gns_id": 9101381, "gns_name": "Andrijevica, Opstina", "gn_level": 1, "gn_region": null, "gn_a1_code": "ME.01", "region_sub": null, "sub_code": null, "gns_level": 1, "gns_lang": "ind", "gns_adm1": "MJ00", "gns_region": null, "min_label": 10, "max_label": 11, "min_zoom": 10, "wikidataid": "Q2384773", "name_ar": "\u0628\u0644\u062f\u064a\u0629 \u0623\u0646\u062f\u0631\u064a\u064a\u0641\u064a\u0643\u0627", "name_bn": "\u0986\u09a8\u09cd\u09a6\u09cd\u09b0\u09c7\u099c\u09c7\u09ad\u09bf\u0995\u09be \u09aa\u09cc\u09b0\u09b8\u09ad\u09be", "name_de": "Gemeinde Andrijevica", "name_en": "Andrijevica", "name_es": "Municipio de Andrijevica", "name_fr": "Andrijevica", "name_el": "\u0391\u03bd\u03c4\u03c1\u03b9\u03c4\u03b6\u03ad\u03b2\u03b9\u03ba\u03b1", "name_hi": "\u090f\u0902\u0921\u094d\u0930\u0940\u090f\u0935\u093f\u0915\u093e \u0928\u0917\u0930\u092a\u093e\u0932\u093f\u0915\u093e", "name_hu": "Andrijevica", "name_id": "Andrijevica", "name_it": "Andrijevica", "name_ja": "\u30a2\u30f3\u30c9\u30ea\u30a4\u30a7\u30f4\u30a3\u30c4\u30a1", "name_ko": "\uc548\ub4dc\ub9ac\uc608\ube44\ucc28 \uc9c0\ubc29 \uc790\uce58\uc81c", "name_nl": "Andrijevica", "name_pl": "Gmina Andrijevica", "name_pt": "Andrijevica", "name_ru": "\u0410\u043d\u0434\u0440\u0438\u0435\u0432\u0438\u0446\u0430", "name_sv": "Andrijevica", "name_tr": "Andrijevica Belediyesi", "name_vi": "\u0110\u00f4 th\u1ecb t\u1ef1 tr\u1ecb Andrijevica", "name_zh": "\u5b89\u5fb7\u91cc\u8036\u7dad\u5bdf\u5340", "ne_id": 1159310615, "name_he": "\u05d0\u05e0\u05d3\u05e8\u05d9\u05d9\u05d1\u05d9\u05e6\u05d4", "name_uk": "\u0410\u043d\u0434\u0440\u0456\u0454\u0432\u0438\u0446\u044f", "name_ur": "\u0622\u0646\u062f\u0631\u06cc\u06d2\u0648\u06cc\u062a\u0633\u0627 \u0628\u0644\u062f\u06cc\u06c1", "name_fa": "\u0634\u0647\u0631\u062f\u0627\u0631\u06cc \u0622\u0646\u062f\u0631\u06cc\u0698\u0648\u06cc\u06a9\u0627", "name_zht": "\u5b89\u5fb7\u91cc\u8036\u7dad\u5bdf\u5340", "FCLASS_ISO": null, "FCLASS_US": null, "FCLASS_FR": null, "FCLASS_RU": null, "FCLASS_ES": null, "FCLASS_CN": null, "FCLASS_TW": null, "FCLASS_IN": null, "FCLASS_NP": null, "FCLASS_PK": null, "FCLASS_DE": null, "FCLASS_GB": null, "FCLASS_BR": null, "FCLASS_IL": null, "FCLASS_PS": null, "FCLASS_SA": null, "FCLASS_EG": null, "FCLASS_MA": null, "FCLASS_PT": null, "FCLASS_AR": null, "FCLASS_JP": null, "FCLASS_KO": null, "FCLASS_VN": null, "FCLASS_TR": null, "FCLASS_ID": null, "FCLASS_PL": null, "FCLASS_GR": null, "FCLASS_IT": null, "FCLASS_NL": null, "FCLASS_SE": null, "FCLASS_BD": null, "FCLASS_UA": null, "FCLASS_TLC": null}, "bbox": [19.628136, 42.58893, 19.90941, 42.82643], "geometry": {"type": "Polygon", "coordinates": [[[19.746885, 42.58893], [19.746009, 42.5989], [19.737534, 42.624402], [19.722134, 42.64608], [19.699293, 42.654814], [19.676039, 42.646675], [19.658037, 42.634613], [19.657798, 42.635021], [19.654646, 42.640395], [19.628136, 42.665071], [19.641985, 42.675768], [19.664361, 42.702097], [19.664878, 42.728142], [19.662087, 42.761008], [19.658986, 42.782815], [19.643949, 42.792737], [19.629479, 42.803227], [19.643949, 42.822193], [19.67573, 42.825293], [19.687305, 42.82643], [19.732315, 42.808602], [19.77593, 42.785089], [19.843368, 42.770077], [19.877629, 42.763282], [19.859233, 42.749691], [19.859233, 42.732689], [19.879645, 42.715688], [19.9091, 42.689643], [19.90941, 42.689281], [19.904553, 42.688506], [19.859491, 42.663003], [19.822956, 42.627321], [19.763476, 42.594765], [19.746885, 42.58893]]]}}, {"type": "Feature", "properties": {"featurecla": "Admin-1 states provinces", "scalerank": 9, "adm1_code": "MNE-1517", "diss_me": 1517, "iso_3166_2": "ME-16", "wikipedia": null, "iso_a2": "ME", "adm0_sr": 1, "name": "Podgorica", "name_alt": null, "name_local": null, "type": "Op\u0161tina", "type_en": "Municipality", "code_local": null, "code_hasc": "ME.PG", "note": null, "hasc_maybe": null, "region": null, "region_cod": null, "provnum_ne": 9, "gadm_level": 1, "check_me": 0, "datarank": 8, "abbrev": null, "postal": "PG", "area_sqkm": 0, "sameascity": 9, "labelrank": 9, "name_len": 9, "mapcolor9": 4, "mapcolor13": 5, "fips": "MJ00", "fips_alt": null, "woe_id": 29389237, "woe_label": "Podgorica, ME, Montenegro", "woe_name": "Podgorica", "latitude": 42.4462, "longitude": 19.3069, "sov_a3": "MNE", "adm0_a3": "MNE", "adm0_label": 5, "admin": "Montenegro", "geonunit": "Montenegro", "gu_a3": "MNE", "gn_id": 3189077, "gn_name": "Opstina Podgorica", "gns_id": -98287, "gns_name": "Podgorica, Opstina", "gn_level": 1, "gn_region": null, "gn_a1_code": "ME.16", "region_sub": null, "sub_code": null, "gns_level": 1, "gns_lang": "srp", "gns_adm1": "MJ00", "gns_region": null, "min_label": 10, "max_label": 11, "min_zoom": 10, "wikidataid": "Q3305250", "name_ar": "\u0628\u0648\u062f\u063a\u0648\u0631\u064a\u062a\u0634\u0627", "name_bn": "\u09aa\u09a1\u0997\u09cb\u09b0\u09bf\u0995\u09be", "name_de": "Gro\u00dfgemeinde Podgorica", "name_en": "Podgorica", "name_es": "Municipio de Podgorica", "name_fr": "Podgorica", "name_el": "\u03a0\u03bf\u03bd\u03c4\u03b3\u03ba\u03cc\u03c1\u03b9\u03c4\u03c3\u03b1", "name_hi": "\u092a\u094b\u0921\u0917\u094b\u0930\u093f\u0915\u093e", "name_hu": "Podgorica", "name_id": "Podgorica", "name_it": "Podgorica", "name_ja": "\u30dd\u30c9\u30b4\u30ea\u30c4\u30a1", "name_ko": "\ud3ec\ub4dc\uace0\ub9ac\ucc28", "name_nl": "Podgorica", "name_pl": "Gmina Podgorica", "name_pt": "Podgorica", "name_ru": "\u041f\u043e\u0434\u0433\u043e\u0440\u0438\u0446\u0430", "name_sv": "Podgorica", "name_tr": "Podgorica", "name_vi": "Podgorica", "name_zh": "\u6ce2\u5fb7\u91cc\u67e5\u5340", "ne_id": 1159309489, "name_he": "\u05de\u05d7\u05d5\u05d6 \u05e4\u05d5\u05d3\u05d2\u05d5\u05e8\u05d9\u05e6\u05d4", "name_uk": "\u041f\u043e\u0434\u0433\u043e\u0440\u0456\u0446\u0430", "name_ur": "\u067e\u0648\u062f\u06af\u0648\u0631\u06cc\u062a\u0633\u0627 \u062f\u0627\u0631\u0627\u0644\u062d\u06a9\u0648\u0645\u062a \u0634\u06c1\u0631", "name_fa": "\u067e\u0648\u062f\u06af\u0648\u0631\u06cc\u0633\u0627 \u06a9\u0627\u067e\u06cc\u062a\u0627\u0644 \u0633\u06cc\u062a\u06cc", "name_zht": "\u6ce2\u5fb7\u91cc\u67e5\u5340", "FCLASS_ISO": null, "FCLASS_US": null, "FCLASS_FR": null, "FCLASS_RU": null, "FCLASS_ES": null, "FCLASS_CN": null, "FCLASS_TW": null, "FCLASS_IN": null, "FCLASS_NP": null, "FCLASS_PK": null, "FCLASS_DE": null, "FCLASS_GB": null, "FCLASS_BR": null, "FCLASS_IL": null, "FCLASS_PS": null, "FCLASS_SA": null, "FCLASS_EG": null, "FCLASS_MA": null, "FCLASS_PT": null, "FCLASS_AR": null, "FCLASS_JP": null, "FCLASS_KO": null, "FCLASS_VN": null, "FCLASS_TR": null, "FCLASS_ID": null, "FCLASS_PL": null, "FCLASS_GR": null, "FCLASS_IT": null, "FCLASS_NL": null, "FCLASS_SE": null, "FCLASS_BD": null, "FCLASS_UA": null, "FCLASS_TLC": null}, "bbox": [18.95598, 42.198047, 19.658037, 42.739071], "geometry": {"type": "Polygon", "coordinates": [[[19.658037, 42.634613], [19.647927, 42.627838], [19.621779, 42.604997], [19.605035, 42.584844], [19.599248, 42.571046], [19.593667, 42.54482], [19.588086, 42.532857], [19.575683, 42.522341], [19.561317, 42.516243], [19.549328, 42.508595], [19.543747, 42.493557], [19.543747, 42.493402], [19.531655, 42.474773], [19.517806, 42.45803], [19.501476, 42.444129], [19.481735, 42.434491], [19.468403, 42.41811], [19.417243, 42.374107], [19.412076, 42.368397], [19.402671, 42.352015], [19.400707, 42.344755], [19.401327, 42.331061], [19.400397, 42.325893], [19.304589, 42.215099], [19.283357, 42.198047], [19.271878, 42.204143], [19.239632, 42.234167], [19.218393, 42.246], [19.188886, 42.249592], [19.158293, 42.257576], [19.135969, 42.267239], [19.119433, 42.28543], [19.109511, 42.300312], [19.135142, 42.335607], [19.142584, 42.370877], [19.113077, 42.394028], [19.07866, 42.417179], [19.055819, 42.435653], [19.03458, 42.452448], [18.997115, 42.471723], [18.959598, 42.494332], [18.95598, 42.504538], [18.970605, 42.509783], [18.985332, 42.506346], [19.0059, 42.501515], [19.041195, 42.489939], [19.073699, 42.487174], [19.149198, 42.487717], [19.198808, 42.487433], [19.202115, 42.492135], [19.208471, 42.517483], [19.213174, 42.54947], [19.220615, 42.570942], [19.233018, 42.582543], [19.251466, 42.5974], [19.261646, 42.622231], [19.259734, 42.642359], [19.285934, 42.664114], [19.300972, 42.676879], [19.310171, 42.672124], [19.365309, 42.661918], [19.407736, 42.666879], [19.446855, 42.675147], [19.471918, 42.68755], [19.495379, 42.70822], [19.498686, 42.72778], [19.535066, 42.739071], [19.572583, 42.736048], [19.576976, 42.714835], [19.584159, 42.693622], [19.607827, 42.683958], [19.628136, 42.665071], [19.654646, 42.640395], [19.657798, 42.635021], [19.658037, 42.634613]]]}}, {"type": "Feature", "properties": {"featurecla": "Admin-1 states provinces", "scalerank": 9, "adm1_code": "MNE-1496", "diss_me": 1496, "iso_3166_2": "ME-02", "wikipedia": null, "iso_a2": "ME", "adm0_sr": 1, "name": "Bar", "name_alt": null, "name_local": null, "type": "Op\u0161tina", "type_en": "Municipality", "code_local": null, "code_hasc": "ME.BA", "note": null, "hasc_maybe": null, "region": null, "region_cod": null, "provnum_ne": 6, "gadm_level": 1, "check_me": 0, "datarank": 8, "abbrev": null, "postal": "BA", "area_sqkm": 0, "sameascity": -99, "labelrank": 9, "name_len": 3, "mapcolor9": 4, "mapcolor13": 5, "fips": "AL49", "fips_alt": null, "woe_id": 29389244, "woe_label": "Bar, ME, Montenegro", "woe_name": "Bar", "latitude": 42.1416, "longitude": 19.1463, "sov_a3": "MNE", "adm0_a3": "MNE", "adm0_label": 5, "admin": "Montenegro", "geonunit": "Montenegro", "gu_a3": "MNE", "gn_id": 3204508, "gn_name": "Opstina Bar", "gns_id": -74447, "gns_name": "Bar, Opstina", "gn_level": 1, "gn_region": null, "gn_a1_code": "ME.02", "region_sub": null, "sub_code": null, "gns_level": 1, "gns_lang": "srp", "gns_adm1": "MJ00", "gns_region": null, "min_label": 10, "max_label": 11, "min_zoom": 10, "wikidataid": "Q2604068", "name_ar": "\u0628\u0644\u062f\u064a\u0629 \u0628\u0627\u0631", "name_bn": "\u09ac\u09be\u09b0 \u09aa\u09cc\u09b0\u09b8\u09ad\u09be", "name_de": "Gemeinde Bar", "name_en": "Bar", "name_es": "Municipio de Bar", "name_fr": "Bar", "name_el": "\u03c4\u03bf\u03c5 \u039c\u03c0\u03b1\u03c1", "name_hi": "\u092c\u093e\u0930 \u0928\u0917\u0930 \u092a\u093e\u0932\u093f\u0915\u093e", "name_hu": "Bar", "name_id": "Bar", "name_it": "Antivari", "name_ja": "\u30d0\u30fc\u30eb", "name_ko": "\ubc14 \uc9c0\ubc29 \uc790\uce58\uc81c", "name_nl": "Bar", "name_pl": "Gmina Bar", "name_pt": "Bar", "name_ru": "\u0411\u0430\u0440", "name_sv": "Bar", "name_tr": "Bar Belediyesi", "name_vi": "\u0110\u00f4 th\u1ecb t\u1ef1 tr\u1ecb Bar", "name_zh": "\u5df4\u723e\u5340", "ne_id": 1159312435, "name_he": "\u05d1\u05e8", "name_uk": "\u0411\u0430\u0440", "name_ur": "\u0628\u0627\u0631 \u0628\u0644\u062f\u06cc\u06c1", "name_fa": "\u0634\u0647\u0631\u062f\u0627\u0631\u06cc \u0628\u0627\u0631", "name_zht": "\u5df4\u723e\u5340", "FCLASS_ISO": null, "FCLASS_US": null, "FCLASS_FR": null, "FCLASS_RU": null, "FCLASS_ES": null, "FCLASS_CN": null, "FCLASS_TW": null, "FCLASS_IN": null, "FCLASS_NP": null, "FCLASS_PK": null, "FCLASS_DE": null, "FCLASS_GB": null, "FCLASS_BR": null, "FCLASS_IL": null, "FCLASS_PS": null, "FCLASS_SA": null, "FCLASS_EG": null, "FCLASS_MA": null, "FCLASS_PT": null, "FCLASS_AR": null, "FCLASS_JP": null, "FCLASS_KO": null, "FCLASS_VN": null, "FCLASS_TR": null, "FCLASS_ID": null, "FCLASS_PL": null, "FCLASS_GR": null, "FCLASS_IT": null, "FCLASS_NL": null, "FCLASS_SE": null, "FCLASS_BD": null, "FCLASS_UA": null, "FCLASS_TLC": null}, "bbox": [18.922546, 42.011467, 19.369998, 42.321939], "geometry": {"type": "Polygon", "coordinates": [[[19.283357, 42.198047], [19.274926, 42.191276], [19.272033, 42.180682], [19.281956, 42.164723], [19.282058, 42.164559], [19.297767, 42.151666], [19.355025, 42.12004], [19.369998, 42.106507], [19.357816, 42.10296], [19.296941, 42.088646], [19.277614, 42.091953], [19.241803, 42.101875], [19.214517, 42.101617], [19.221959, 42.079835], [19.250071, 42.036556], [19.241803, 42.011467], [19.147286, 42.020562], [19.141395, 42.019839], [19.141184, 42.019813], [19.139171, 42.042426], [19.08253, 42.081204], [19.074718, 42.095649], [19.083832, 42.110093], [19.076427, 42.115953], [19.063975, 42.120185], [19.048676, 42.140204], [19.01059, 42.139553], [19.002126, 42.150214], [18.999848, 42.161078], [18.994802, 42.163642], [18.988048, 42.163723], [18.981619, 42.16706], [18.971441, 42.18327], [18.971587, 42.183394], [19.000887, 42.208535], [18.995874, 42.221635], [18.97324, 42.241711], [18.945748, 42.265276], [18.928592, 42.289202], [18.922546, 42.302147], [18.922959, 42.302224], [18.960579, 42.295946], [19.001352, 42.283621], [19.024658, 42.283853], [19.028844, 42.305325], [19.046982, 42.321939], [19.095817, 42.306048], [19.109511, 42.300312], [19.119433, 42.28543], [19.135969, 42.267239], [19.158293, 42.257576], [19.188886, 42.249592], [19.218393, 42.246], [19.239632, 42.234167], [19.271878, 42.204143], [19.283357, 42.198047]]]}}, {"type": "Feature", "properties": {"featurecla": "Admin-1 states provinces", "scalerank": 9, "adm1_code": "MNE-1497", "diss_me": 1497, "iso_3166_2": "ME-20", "wikipedia": null, "iso_a2": "ME", "adm0_sr": 1, "name": "Ulcinj", "name_alt": null, "name_local": null, "type": "Op\u0161tina", "type_en": "Municipality", "code_local": null, "code_hasc": "ME.UL", "note": null, "hasc_maybe": null, "region": null, "region_cod": null, "provnum_ne": 5, "gadm_level": 1, "check_me": 0, "datarank": 8, "abbrev": null, "postal": "UL", "area_sqkm": 0, "sameascity": -99, "labelrank": 9, "name_len": 6, "mapcolor9": 4, "mapcolor13": 5, "fips": "AL49", "fips_alt": null, "woe_id": 29389241, "woe_label": "Ulcinj, ME, Montenegro", "woe_name": "Ulcinj", "latitude": 42.0039, "longitude": 19.2564, "sov_a3": "MNE", "adm0_a3": "MNE", "adm0_label": 5, "admin": "Montenegro", "geonunit": "Montenegro", "gu_a3": "MNE", "gn_id": 3188514, "gn_name": "Opstina Ulcinj", "gns_id": -99161, "gns_name": "Ulcinj, Opstina", "gn_level": 1, "gn_region": null, "gn_a1_code": "ME.20", "region_sub": null, "sub_code": null, "gns_level": 1, "gns_lang": "sqi", "gns_adm1": "MJ00", "gns_region": null, "min_label": 10, "max_label": 11, "min_zoom": 10, "wikidataid": "Q3305169", "name_ar": "\u0628\u0644\u062f\u064a\u0629 \u0623\u0648\u0644\u062a\u0633\u064a", "name_bn": "\u0989\u09b2\u099a\u09bf\u099e\u09cd\u099c \u09aa\u09cc\u09b0\u09b8\u09ad\u09be", "name_de": "Gemeinde Ulcinj", "name_en": "Ulcinj", "name_es": "Municipio de Ulcinj", "name_fr": "Ulcinj", "name_el": "\u03c4\u03bf\u03c5 \u039f\u03cd\u03bb\u03c4\u03c3\u03b9\u03bd\u03b9", "name_hi": "\u0905\u0932\u0938\u093f\u0902\u091c \u0928\u0917\u0930\u092a\u093e\u0932\u093f\u0915\u093e", "name_hu": "Ulcinj", "name_id": "Ulcinj", "name_it": "Dulcigno", "name_ja": "\u30a6\u30eb\u30c4\u30a3\u30cb", "name_ko": "\uc6b8\uce58\ub2c8 \uc9c0\ubc29 \uc790\uce58\uc81c", "name_nl": "Ulcinj", "name_pl": "Gmina Ulcinj", "name_pt": "Ulcinj", "name_ru": "\u0423\u043b\u0446\u0438\u043d\u044c", "name_sv": "Ulcinj", "name_tr": "Ulcinj Belediyesi", "name_vi": "\u0110\u00f4 th\u1ecb t\u1ef1 tr\u1ecb Ulcinj", "name_zh": "\u4e4c\u5c14\u9f50\u5c3c\u5e02", "ne_id": 1159310599, "name_he": "\u05d0\u05d5\u05dc\u05e6\u05d9\u05e0\u05d9", "name_uk": "\u0423\u043b\u0446\u0438\u043d\u044c", "name_ur": "\u0627\u0648\u0644\u062a\u0633\u06cc\u0646\u06cc \u0628\u0644\u062f\u06cc\u06c1", "name_fa": "\u0634\u0647\u0631\u062f\u0627\u0631\u06cc \u0627\u0648\u0644\u06a9\u06cc\u0646\u062c", "name_zht": "\u70cf\u723e\u9f4a\u5c3c\u5340", "FCLASS_ISO": null, "FCLASS_US": null, "FCLASS_FR": null, "FCLASS_RU": null, "FCLASS_ES": null, "FCLASS_CN": null, "FCLASS_TW": null, "FCLASS_IN": null, "FCLASS_NP": null, "FCLASS_PK": null, "FCLASS_DE": null, "FCLASS_GB": null, "FCLASS_BR": null, "FCLASS_IL": null, "FCLASS_PS": null, "FCLASS_SA": null, "FCLASS_EG": null, "FCLASS_MA": null, "FCLASS_PT": null, "FCLASS_AR": null, "FCLASS_JP": null, "FCLASS_KO": null, "FCLASS_VN": null, "FCLASS_TR": null, "FCLASS_ID": null, "FCLASS_PL": null, "FCLASS_GR": null, "FCLASS_IT": null, "FCLASS_NL": null, "FCLASS_SE": null, "FCLASS_BD": null, "FCLASS_UA": null, "FCLASS_TLC": null}, "bbox": [19.13795, 41.852362, 19.374869, 42.106507], "geometry": {"type": "Polygon", "coordinates": [[[19.369998, 42.106507], [19.372491, 42.104253], [19.374869, 42.094667], [19.356575, 42.064798], [19.351718, 42.047615], [19.350581, 42.027823], [19.354198, 42.008703], [19.363396, 41.993639], [19.363707, 41.993484], [19.371045, 41.98656], [19.365774, 41.969713], [19.359779, 41.965993], [19.351614, 41.965166], [19.346447, 41.961548], [19.352854, 41.938501], [19.350477, 41.931369], [19.346653, 41.926176], [19.345413, 41.921189], [19.34593, 41.914471], [19.34531, 41.910337], [19.347687, 41.906358], [19.356989, 41.89964], [19.364947, 41.888995], [19.364223, 41.862846], [19.365082, 41.852362], [19.346934, 41.863959], [19.310232, 41.894517], [19.293224, 41.900784], [19.220225, 41.91885], [19.202973, 41.927069], [19.178477, 41.933905], [19.170258, 41.937974], [19.162283, 41.947943], [19.161957, 41.953437], [19.163259, 41.95897], [19.16033, 41.96898], [19.15561, 41.970649], [19.145274, 41.977607], [19.13795, 41.985297], [19.142914, 41.988837], [19.143565, 41.993069], [19.141184, 42.019813], [19.141395, 42.019839], [19.147286, 42.020562], [19.241803, 42.011467], [19.250071, 42.036556], [19.221959, 42.079835], [19.214517, 42.101617], [19.241803, 42.101875], [19.277614, 42.091953], [19.296941, 42.088646], [19.357816, 42.10296], [19.369998, 42.106507]]]}}, {"type": "Feature", "properties": {"featurecla": "Admin-1 states provinces", "scalerank": 9, "adm1_code": "MNE-1499", "diss_me": 1499, "iso_3166_2": "ME-05", "wikipedia": null, "iso_a2": "ME", "adm0_sr": 1, "name": "Budva", "name_alt": null, "name_local": null, "type": "Op\u0161tina", "type_en": "Municipality", "code_local": null, "code_hasc": "ME.BU", "note": null, "hasc_maybe": null, "region": null, "region_cod": null, "provnum_ne": 1, "gadm_level": 1, "check_me": 0, "datarank": 8, "abbrev": null, "postal": "BU", "area_sqkm": 0, "sameascity": -99, "labelrank": 9, "name_len": 5, "mapcolor9": 4, "mapcolor13": 5, "fips": "MJ00", "fips_alt": null, "woe_id": 29389243, "woe_label": "Budva, ME, Montenegro", "woe_name": "Budva", "latitude": 42.3039, "longitude": 18.8929, "sov_a3": "MNE", "adm0_a3": "MNE", "adm0_label": 5, "admin": "Montenegro", "geonunit": "Montenegro", "gu_a3": "MNE", "gn_id": 3203104, "gn_name": "Opstina Budva", "gns_id": -76640, "gns_name": "Budva, Opstina", "gn_level": 1, "gn_region": null, "gn_a1_code": "ME.05", "region_sub": null, "sub_code": null, "gns_level": 1, "gns_lang": "srp", "gns_adm1": "MJ00", "gns_region": null, "min_label": 10, "max_label": 11, "min_zoom": 10, "wikidataid": "Q3739214", "name_ar": "\u0628\u0644\u062f\u064a\u0629 \u0628\u0648\u062f\u0641\u0627", "name_bn": "\u09ac\u09c1\u09a6\u09cd\u09ad\u09be \u09aa\u09cc\u09b0\u09b8\u09ad\u09be", "name_de": "Gemeinde Budva", "name_en": "Budva", "name_es": "Municipio de Budva", "name_fr": "Budva", "name_el": "\u039c\u03c0\u03bf\u03cd\u03bd\u03c4\u03b2\u03b1", "name_hi": "\u092c\u0941\u0921\u0935\u093e \u0928\u0917\u0930 \u092a\u093e\u0932\u093f\u0915\u093e", "name_hu": "Budva", "name_id": "Budva", "name_it": "Budua", "name_ja": "\u30d6\u30c9\u30f4\u30a1", "name_ko": "\ubd80\ub4dc\ubc14 \uc9c0\ubc29 \uc790\uce58\uc81c", "name_nl": "Budva", "name_pl": "Gmina Budva", "name_pt": "Budva", "name_ru": "\u0411\u0443\u0434\u0432\u0430", "name_sv": "Budva", "name_tr": "Budva Belediyesi", "name_vi": "\u0110\u00f4 th\u1ecb t\u1ef1 tr\u1ecb Budva", "name_zh": "\u5e03\u5fb7\u74e6\u5340", "ne_id": 1159310603, "name_he": "\u05d1\u05d5\u05d3\u05d5\u05d5\u05d4", "name_uk": "\u0411\u0443\u0434\u0432\u0430", "name_ur": "\u0628\u0648\u062f\u0648\u0627 \u0628\u0644\u062f\u06cc\u06c1", "name_fa": "\u0634\u0647\u0631\u062f\u0627\u0631\u06cc \u0628\u0648\u062f\u0648\u0627", "name_zht": "\u5e03\u5fb7\u74e6\u5340", "FCLASS_ISO": null, "FCLASS_US": null, "FCLASS_FR": null, "FCLASS_RU": null, "FCLASS_ES": null, "FCLASS_CN": null, "FCLASS_TW": null, "FCLASS_IN": null, "FCLASS_NP": null, "FCLASS_PK": null, "FCLASS_DE": null, "FCLASS_GB": null, "FCLASS_BR": null, "FCLASS_IL": null, "FCLASS_PS": null, "FCLASS_SA": null, "FCLASS_EG": null, "FCLASS_MA": null, "FCLASS_PT": null, "FCLASS_AR": null, "FCLASS_JP": null, "FCLASS_KO": null, "FCLASS_VN": null, "FCLASS_TR": null, "FCLASS_ID": null, "FCLASS_PL": null, "FCLASS_GR": null, "FCLASS_IT": null, "FCLASS_NL": null, "FCLASS_SE": null, "FCLASS_BD": null, "FCLASS_UA": null, "FCLASS_TLC": null}, "bbox": [18.784931, 42.18327, 19.000887, 42.360025], "geometry": {"type": "Polygon", "coordinates": [[[18.971441, 42.18327], [18.968028, 42.188707], [18.953461, 42.199856], [18.913341, 42.222235], [18.901703, 42.237494], [18.894705, 42.270494], [18.885997, 42.284369], [18.871593, 42.290473], [18.854015, 42.290473], [18.838878, 42.285712], [18.831391, 42.277533], [18.826508, 42.282213], [18.820486, 42.286689], [18.817638, 42.291164], [18.801524, 42.284369], [18.793956, 42.280341], [18.788744, 42.276025], [18.78798, 42.280985], [18.786016, 42.308942], [18.784931, 42.340052], [18.793561, 42.354211], [18.797127, 42.360025], [18.82958, 42.351782], [18.852886, 42.344237], [18.884563, 42.339483], [18.914174, 42.320053], [18.922546, 42.302147], [18.928592, 42.289202], [18.945748, 42.265276], [18.97324, 42.241711], [18.995874, 42.221635], [19.000887, 42.208535], [18.971587, 42.183394], [18.971441, 42.18327]]]}}, {"type": "Feature", "properties": {"featurecla": "Admin-1 states provinces", "scalerank": 9, "adm1_code": "MNE-1518", "diss_me": 1518, "iso_3166_2": "ME-19", "wikipedia": null, "iso_a2": "ME", "adm0_sr": 1, "name": "Tivat", "name_alt": null, "name_local": null, "type": "Op\u0161tina", "type_en": "Municipality", "code_local": null, "code_hasc": "ME.TI", "note": null, "hasc_maybe": null, "region": null, "region_cod": null, "provnum_ne": 3, "gadm_level": 1, "check_me": 0, "datarank": 8, "abbrev": null, "postal": "TI", "area_sqkm": 0, "sameascity": -99, "labelrank": 9, "name_len": 5, "mapcolor9": 4, "mapcolor13": 5, "fips": "MJ00", "fips_alt": null, "woe_id": 29389245, "woe_label": "Tivat, ME, Montenegro", "woe_name": "Tivat", "latitude": 42.3897, "longitude": 18.6898, "sov_a3": "MNE", "adm0_a3": "MNE", "adm0_label": 5, "admin": "Montenegro", "geonunit": "Montenegro", "gu_a3": "MNE", "gn_id": 3189071, "gn_name": "Opstina Tivat", "gns_id": -98298, "gns_name": "Tivat, Opstina", "gn_level": 1, "gn_region": null, "gn_a1_code": "ME.19", "region_sub": null, "sub_code": null, "gns_level": 1, "gns_lang": "sqi", "gns_adm1": "MJ00", "gns_region": null, "min_label": 10, "max_label": 11, "min_zoom": 10, "wikidataid": "Q3738564", "name_ar": "\u062a\u064a\u0641\u0627\u062a", "name_bn": "\u099f\u09bf\u09ad\u09be\u09a4", "name_de": "Gemeinde Tivat", "name_en": "Tivat", "name_es": "Municipio de Tivat", "name_fr": "Tivat", "name_el": "\u03a4\u03b9\u03b2\u03ac\u03c4", "name_hi": "\u091f\u093f\u0935\u0924", "name_hu": "Tivat", "name_id": "Kota praja Tivat", "name_it": "Teodo", "name_ja": "\u30c6\u30a3\u30f4\u30a1\u30c8", "name_ko": "\ud2f0\ubc27", "name_nl": "Tivat", "name_pl": "Gmina Tivat", "name_pt": "Tivat", "name_ru": "\u0422\u0438\u0432\u0430\u0442", "name_sv": "Tivat", "name_tr": "Tivat", "name_vi": "Tivat", "name_zh": "\u8482\u74e6\u7279\u5340", "ne_id": 1159309491, "name_he": "\u05d8\u05d9\u05d1\u05d8", "name_uk": "\u041c\u0443\u043d\u0456\u0446\u0438\u043f\u0430\u043b\u0456\u0442\u0435\u0442 \u0422\u0438\u0432\u0430\u0442", "name_ur": "\u062a\u06cc\u0648\u0627\u062a \u0628\u0644\u062f\u06cc\u06c1", "name_fa": "\u0634\u0647\u0631\u062f\u0627\u0631\u06cc \u062a\u06cc\u0648\u0627\u062a", "name_zht": "\u8482\u74e6\u7279\u5340", "FCLASS_ISO": null, "FCLASS_US": null, "FCLASS_FR": null, "FCLASS_RU": null, "FCLASS_ES": null, "FCLASS_CN": null, "FCLASS_TW": null, "FCLASS_IN": null, "FCLASS_NP": null, "FCLASS_PK": null, "FCLASS_DE": null, "FCLASS_GB": null, "FCLASS_BR": null, "FCLASS_IL": null, "FCLASS_PS": null, "FCLASS_SA": null, "FCLASS_EG": null, "FCLASS_MA": null, "FCLASS_PT": null, "FCLASS_AR": null, "FCLASS_JP": null, "FCLASS_KO": null, "FCLASS_VN": null, "FCLASS_TR": null, "FCLASS_ID": null, "FCLASS_PL": null, "FCLASS_GR": null, "FCLASS_IT": null, "FCLASS_NL": null, "FCLASS_SE": null, "FCLASS_BD": null, "FCLASS_UA": null, "FCLASS_TLC": null}, "bbox": [18.644949, 42.357577, 18.73465, 42.476746], "geometry": {"type": "Polygon", "coordinates": [[[18.693614, 42.357577], [18.693614, 42.359442], [18.695811, 42.373765], [18.678477, 42.385972], [18.658539, 42.386623], [18.659978, 42.386664], [18.653105, 42.401185], [18.644949, 42.418362], [18.656505, 42.415513], [18.685557, 42.403998], [18.70045, 42.392971], [18.708181, 42.408515], [18.706554, 42.421047], [18.683849, 42.458808], [18.683279, 42.468085], [18.685658, 42.476746], [18.685764, 42.476684], [18.709277, 42.463041], [18.73465, 42.428186], [18.714703, 42.377052], [18.693774, 42.357725], [18.693614, 42.357577]]]}}, {"type": "Feature", "properties": {"featurecla": "Admin-1 states provinces", "scalerank": 9, "adm1_code": "MNE-1513", "diss_me": 1513, "iso_3166_2": "ME-11", "wikipedia": null, "iso_a2": "ME", "adm0_sr": 1, "name": "Mojkovac", "name_alt": null, "name_local": null, "type": "Op\u0161tina", "type_en": "Municipality", "code_local": null, "code_hasc": "ME.MK", "note": null, "hasc_maybe": null, "region": null, "region_cod": null, "provnum_ne": 17, "gadm_level": 1, "check_me": 0, "datarank": 8, "abbrev": null, "postal": "MK", "area_sqkm": 0, "sameascity": -99, "labelrank": 9, "name_len": 8, "mapcolor9": 4, "mapcolor13": 5, "fips": "MJ00", "fips_alt": null, "woe_id": 29389232, "woe_label": "Mojkovac, ME, Montenegro", "woe_name": "Mojkovac", "latitude": 42.971, "longitude": 19.515, "sov_a3": "MNE", "adm0_a3": "MNE", "adm0_label": 5, "admin": "Montenegro", "geonunit": "Montenegro", "gu_a3": "MNE", "gn_id": 3194925, "gn_name": "Opstina Mojkovac", "gns_id": -89437, "gns_name": "Mojkovac, Opstina", "gn_level": 1, "gn_region": null, "gn_a1_code": "ME.11", "region_sub": null, "sub_code": null, "gns_level": 1, "gns_lang": "sqi", "gns_adm1": "MJ00", "gns_region": null, "min_label": 10, "max_label": 11, "min_zoom": 10, "wikidataid": "Q3299782", "name_ar": "\u0628\u0644\u062f\u064a\u0629 \u0645\u0648\u064a\u0643\u0648\u0641\u0627\u062a\u0634", "name_bn": "\u09ae\u099c\u0995\u09cb\u09ad\u09bf\u0995 \u09aa\u09cc\u09b0\u09b8\u09ad\u09be", "name_de": "Gemeinde Mojkovac", "name_en": "Mojkovac", "name_es": "Municipio de Mojkovac", "name_fr": "Mojkovac", "name_el": "\u039c\u03cc\u03b6\u03ba\u03bf\u03b2\u03b1\u03ba", "name_hi": "\u092e\u094b\u0915\u094b\u0935\u0948\u0915 \u0928\u0917\u0930 \u092a\u093e\u0932\u093f\u0915\u093e", "name_hu": "Mojkovac", "name_id": "Mojkovac", "name_it": "Mojkovac", "name_ja": "\u30e2\u30a4\u30b3\u30f4\u30a1\u30c4", "name_ko": "\ubaa8\uc774\ucf54\ubc14\uce20 \uc9c0\ubc29 \uc790\uce58\uc81c", "name_nl": "Mojkovac", "name_pl": "Gmina Mojkovac", "name_pt": "Mojkovac", "name_ru": "\u041c\u043e\u0439\u043a\u043e\u0432\u0430\u0446", "name_sv": "Mojkovac", "name_tr": "Mojkovac Belediyesi", "name_vi": "\u0110\u00f4 th\u1ecb t\u1ef1 tr\u1ecb Mojkovac", "name_zh": "\u83ab\u4f0a\u79d1\u74e6\u8328\u5340", "ne_id": 1159310627, "name_he": "\u05de\u05d5\u05e7\u05d4", "name_uk": "\u041c\u0443\u043d\u0456\u0446\u0438\u043f\u0430\u043b\u0456\u0442\u0435\u0442 \u041c\u043e\u0439\u043a\u043e\u0432\u0430\u0446", "name_ur": "\u0645\u0648\u06cc\u06a9\u0648\u0648\u0627\u062a\u0633 \u0628\u0644\u062f\u06cc\u06c1", "name_fa": "\u0634\u0647\u0631\u062f\u0627\u0631\u06cc \u0645\u0648\u062c\u0648\u06a9\u0648\u0686", "name_zht": "\u83ab\u4f0a\u79d1\u74e6\u8328\u5340", "FCLASS_ISO": null, "FCLASS_US": null, "FCLASS_FR": null, "FCLASS_RU": null, "FCLASS_ES": null, "FCLASS_CN": null, "FCLASS_TW": null, "FCLASS_IN": null, "FCLASS_NP": null, "FCLASS_PK": null, "FCLASS_DE": null, "FCLASS_GB": null, "FCLASS_BR": null, "FCLASS_IL": null, "FCLASS_PS": null, "FCLASS_SA": null, "FCLASS_EG": null, "FCLASS_MA": null, "FCLASS_PT": null, "FCLASS_AR": null, "FCLASS_JP": null, "FCLASS_KO": null, "FCLASS_VN": null, "FCLASS_TR": null, "FCLASS_ID": null, "FCLASS_PL": null, "FCLASS_GR": null, "FCLASS_IT": null, "FCLASS_NL": null, "FCLASS_SE": null, "FCLASS_BD": null, "FCLASS_UA": null, "FCLASS_TLC": null}, "bbox": [19.331255, 42.881646, 19.698777, 43.051352], "geometry": {"type": "Polygon", "coordinates": [[[19.331668, 42.990115], [19.335234, 43.011406], [19.349393, 43.021612], [19.380864, 43.027555], [19.403757, 43.041998], [19.411146, 43.045177], [19.425564, 43.051352], [19.459464, 43.049647], [19.476259, 43.048794], [19.514499, 43.041714], [19.537443, 43.032929], [19.544833, 43.028123], [19.575994, 43.021612], [19.621573, 43.01368], [19.648496, 42.998952], [19.663224, 42.978824], [19.664361, 42.953632], [19.658108, 42.940325], [19.675678, 42.928698], [19.698777, 42.90751], [19.695522, 42.906632], [19.678985, 42.881646], [19.641675, 42.890173], [19.615061, 42.895005], [19.578268, 42.901516], [19.51114, 42.900379], [19.449077, 42.899242], [19.415901, 42.916244], [19.374301, 42.93322], [19.372286, 42.934486], [19.341745, 42.953606], [19.331255, 42.987609], [19.331668, 42.990115]]]}}, {"type": "Feature", "properties": {"featurecla": "Admin-1 states provinces", "scalerank": 9, "adm1_code": "MNE-1500", "diss_me": 1500, "iso_3166_2": "ME-06", "wikipedia": null, "iso_a2": "ME", "adm0_sr": 1, "name": "Cetinje", "name_alt": null, "name_local": null, "type": "Op\u0161tina", "type_en": "Municipality", "code_local": null, "code_hasc": "ME.CE", "note": null, "hasc_maybe": null, "region": null, "region_cod": null, "provnum_ne": 16, "gadm_level": 1, "check_me": 0, "datarank": 8, "abbrev": null, "postal": "CE", "area_sqkm": 0, "sameascity": -99, "labelrank": 9, "name_len": 7, "mapcolor9": 4, "mapcolor13": 5, "fips": "MJ00", "fips_alt": null, "woe_id": 29389242, "woe_label": "Cetinje, ME, Montenegro", "woe_name": "Cetinje", "latitude": 42.4993, "longitude": 18.8954, "sov_a3": "MNE", "adm0_a3": "MNE", "adm0_label": 5, "admin": "Montenegro", "geonunit": "Montenegro", "gu_a3": "MNE", "gn_id": 3202640, "gn_name": "Opstina Cetinje", "gns_id": -77354, "gns_name": "Cetinje, Opstina", "gn_level": 1, "gn_region": null, "gn_a1_code": "ME.06", "region_sub": null, "sub_code": null, "gns_level": 1, "gns_lang": "srp", "gns_adm1": "MJ00", "gns_region": null, "min_label": 10, "max_label": 11, "min_zoom": 10, "wikidataid": "Q3305075", "name_ar": "\u0628\u0644\u062f\u064a\u0629 \u0633\u064a\u062a\u064a\u0646\u064a\u064a", "name_bn": "\u09b8\u09c7\u09a4\u09bf\u099e\u09cd\u099c\u09c7 \u09aa\u09cc\u09b0\u09b8\u09ad\u09be", "name_de": "Gemeinde Cetinje", "name_en": "Cetinje", "name_es": "Municipio de Cetinje", "name_fr": "Cetinje", "name_el": "\u039a\u03b5\u03c4\u03af\u03bd\u03c4\u03b6\u03b5", "name_hi": "\u0915\u0947\u0924\u093f\u0928\u094d\u092f\u0947 \u0928\u0917\u0930 \u092a\u093e\u0932\u093f\u0915\u093e", "name_hu": "Cetinje", "name_id": "Cetinje", "name_it": "Cettigne", "name_ja": "\u30c4\u30a7\u30c6\u30a3\u30cb\u30a7", "name_ko": "\uccb4\ud2f0\ub15c \uc9c0\ubc29 \uc790\uce58\uc81c", "name_nl": "Cetinje", "name_pl": "Gmina Cetynia", "name_pt": "Cetinje", "name_ru": "\u0426\u0435\u0442\u0438\u043d\u0435", "name_sv": "Cetinje", "name_tr": "Cetinje Belediyesi", "name_vi": "\u0110\u00f4 th\u1ecb t\u1ef1 tr\u1ecb Cetinje", "name_zh": "\u91c7\u8482\u6d85\u5340", "ne_id": 1159310605, "name_he": "\u05e6'\u05d8\u05d9\u05e0\u05d9\u05d4", "name_uk": "\u041c\u0443\u043d\u0456\u0446\u0438\u043f\u0430\u043b\u0456\u0442\u0435\u0442 \u0426\u0435\u0442\u0438\u043d\u0435", "name_ur": "\u0642\u062f\u06cc\u0645 \u0634\u0627\u06c1\u06cc \u062f\u0627\u0631\u0627\u0644\u062d\u06a9\u0648\u0645\u062a \u0633\u06cc\u062a\u06cc\u0646\u06cc\u06d2", "name_fa": "\u067e\u0627\u06cc\u062a\u062e\u062a \u0633\u0644\u0637\u0646\u062a\u06cc \u0642\u062f\u06cc\u0645\u06cc \u0633\u062a\u06cc\u0646\u062c\u06cc", "name_zht": "\u91c7\u8482\u6d85\u5340", "FCLASS_ISO": null, "FCLASS_US": null, "FCLASS_FR": null, "FCLASS_RU": null, "FCLASS_ES": null, "FCLASS_CN": null, "FCLASS_TW": null, "FCLASS_IN": null, "FCLASS_NP": null, "FCLASS_PK": null, "FCLASS_DE": null, "FCLASS_GB": null, "FCLASS_BR": null, "FCLASS_IL": null, "FCLASS_PS": null, "FCLASS_SA": null, "FCLASS_EG": null, "FCLASS_MA": null, "FCLASS_PT": null, "FCLASS_AR": null, "FCLASS_JP": null, "FCLASS_KO": null, "FCLASS_VN": null, "FCLASS_TR": null, "FCLASS_ID": null, "FCLASS_PL": null, "FCLASS_GR": null, "FCLASS_IT": null, "FCLASS_NL": null, "FCLASS_SE": null, "FCLASS_BD": null, "FCLASS_UA": null, "FCLASS_TLC": null}, "bbox": [18.648299, 42.283621, 19.142584, 42.718116], "geometry": {"type": "Polygon", "coordinates": [[[18.727364, 42.718116], [18.767723, 42.709306], [18.797075, 42.69525], [18.823947, 42.696076], [18.859914, 42.690831], [18.870249, 42.680651], [18.889421, 42.669075], [18.914329, 42.6575], [18.932519, 42.640705], [18.93717, 42.620215], [18.93748, 42.618923], [18.93779, 42.602387], [18.959546, 42.592465], [18.981457, 42.580347], [18.992619, 42.568203], [19.005693, 42.55885], [19.001456, 42.54947], [18.986159, 42.52756], [18.985332, 42.506346], [18.970605, 42.509783], [18.95598, 42.504538], [18.959598, 42.494332], [18.997115, 42.471723], [19.03458, 42.452448], [19.055819, 42.435653], [19.07866, 42.417179], [19.113077, 42.394028], [19.142584, 42.370877], [19.135142, 42.335607], [19.109511, 42.300312], [19.095817, 42.306048], [19.046982, 42.321939], [19.028844, 42.305325], [19.024658, 42.283853], [19.001352, 42.283621], [18.960579, 42.295946], [18.922959, 42.302224], [18.922546, 42.302147], [18.914174, 42.320053], [18.884563, 42.339483], [18.852886, 42.344237], [18.82958, 42.351782], [18.797127, 42.360025], [18.793561, 42.354211], [18.779144, 42.379274], [18.765501, 42.410564], [18.761935, 42.425318], [18.769945, 42.439219], [18.771857, 42.452189], [18.772116, 42.47671], [18.76054, 42.507432], [18.722506, 42.527404], [18.698012, 42.540504], [18.694963, 42.556085], [18.683956, 42.576471], [18.666282, 42.59355], [18.650004, 42.624014], [18.648299, 42.629336], [18.669589, 42.631042], [18.6838, 42.641945], [18.69057, 42.658611], [18.690002, 42.674734], [18.696048, 42.685069], [18.70969, 42.689488], [18.719199, 42.700495], [18.727364, 42.718116]]]}}, {"type": "Feature", "properties": {"featurecla": "Admin-1 states provinces", "scalerank": 9, "adm1_code": "MNE-1519", "diss_me": 1519, "iso_3166_2": "ME-18", "wikipedia": null, "iso_a2": "ME", "adm0_sr": 1, "name": "\u0160avnik", "name_alt": null, "name_local": null, "type": "Op\u0161tina", "type_en": "Municipality", "code_local": null, "code_hasc": "ME.SA", "note": null, "hasc_maybe": null, "region": null, "region_cod": null, "provnum_ne": 15, "gadm_level": 1, "check_me": 0, "datarank": 8, "abbrev": null, "postal": "SA", "area_sqkm": 0, "sameascity": -99, "labelrank": 9, "name_len": 6, "mapcolor9": 4, "mapcolor13": 5, "fips": "MJ00", "fips_alt": null, "woe_id": 29389234, "woe_label": "\u00c5\u00a0avnik, ME, Montenegro", "woe_name": "\u0160avnik", "latitude": 42.9571, "longitude": 19.1516, "sov_a3": "MNE", "adm0_a3": "MNE", "adm0_label": 5, "admin": "Montenegro", "geonunit": "Montenegro", "gu_a3": "MNE", "gn_id": 3191221, "gn_name": "Opstina Savnik", "gns_id": -95099, "gns_name": "Savnik, Opstina", "gn_level": 1, "gn_region": null, "gn_a1_code": "ME.18", "region_sub": null, "sub_code": null, "gns_level": 1, "gns_lang": "sqi", "gns_adm1": "MJ00", "gns_region": null, "min_label": 10, "max_label": 11, "min_zoom": 10, "wikidataid": "Q13365880", "name_ar": "\u0628\u0644\u062f\u064a\u0629 \u062a\u0634\u0627\u0641\u0646\u064a\u0643", "name_bn": "\u09b8\u09be\u09ad\u09a8\u09bf\u0995 \u09aa\u09cc\u09b0\u09b8\u09ad\u09be", "name_de": "Gemeinde \u0160avnik", "name_en": "\u0160avnik", "name_es": "Municipio de \u0160avnik", "name_fr": "\u0160avnik", "name_el": "\u03a3\u03ac\u03b2\u03bd\u03b9\u03ba", "name_hi": "\u0938\u0935\u0928\u093f\u0915 \u0928\u0917\u0930 \u092a\u093e\u0932\u093f\u0915\u093e", "name_hu": "\u0160avnik", "name_id": "\u0160avnik", "name_it": "\u0160avnik", "name_ja": "\u30b7\u30e3\u30f4\u30cb\u30af", "name_ko": "\uc0e4\ube0c\ub2c8\ud06c \uc9c0\ubc29 \uc790\uce58\uc81c", "name_nl": "\u0160avnik", "name_pl": "Gmina \u0160avnik", "name_pt": "\u0160avnik", "name_ru": "\u0428\u0430\u0432\u043d\u0438\u043a", "name_sv": "Savnik", "name_tr": "Savnik Belediyesi", "name_vi": "\u0110\u00f4 th\u1ecb t\u1ef1 tr\u1ecb Savnik", "name_zh": "\u6c99\u592b\u5c3c\u514b\u5340", "ne_id": 1159309493, "name_he": "\u05e9\u05d0\u05d1\u05e0\u05d9\u05e7", "name_uk": "\u041c\u0443\u043d\u0456\u0446\u0438\u043f\u0430\u043b\u0456\u0442\u0435\u0442 \u0428\u0430\u0432\u043d\u0438\u043a", "name_ur": "\u0634\u0627\u0648\u0646\u06a9 \u0628\u0644\u062f\u06cc\u06c1", "name_fa": "\u0633\u0627\u0648\u0646\u06cc\u06a9", "name_zht": "\u6c99\u592b\u5c3c\u514b\u5340", "FCLASS_ISO": null, "FCLASS_US": null, "FCLASS_FR": null, "FCLASS_RU": null, "FCLASS_ES": null, "FCLASS_CN": null, "FCLASS_TW": null, "FCLASS_IN": null, "FCLASS_NP": null, "FCLASS_PK": null, "FCLASS_DE": null, "FCLASS_GB": null, "FCLASS_BR": null, "FCLASS_IL": null, "FCLASS_PS": null, "FCLASS_SA": null, "FCLASS_EG": null, "FCLASS_MA": null, "FCLASS_PT": null, "FCLASS_AR": null, "FCLASS_JP": null, "FCLASS_KO": null, "FCLASS_VN": null, "FCLASS_TR": null, "FCLASS_ID": null, "FCLASS_PL": null, "FCLASS_GR": null, "FCLASS_IT": null, "FCLASS_NL": null, "FCLASS_SE": null, "FCLASS_BD": null, "FCLASS_UA": null, "FCLASS_TLC": null}, "bbox": [18.930917, 42.858935, 19.372286, 43.097886], "geometry": {"type": "Polygon", "coordinates": [[[19.02471, 43.094217], [19.04998, 43.085226], [19.066206, 43.071997], [19.087445, 43.071997], [19.121035, 43.075304], [19.144754, 43.058767], [19.158242, 43.040862], [19.180049, 43.04776], [19.211469, 43.04776], [19.239581, 43.027917], [19.2525, 43.014687], [19.270431, 43.008073], [19.331668, 42.990115], [19.331255, 42.987609], [19.341745, 42.953606], [19.372286, 42.934486], [19.358695, 42.917665], [19.342985, 42.90087], [19.292549, 42.902239], [19.227798, 42.910508], [19.210952, 42.902239], [19.199893, 42.887615], [19.202115, 42.871363], [19.208575, 42.858935], [19.145581, 42.865032], [19.089667, 42.882396], [19.057679, 42.899759], [19.012463, 42.922083], [18.978098, 42.9334], [18.988226, 42.938878], [18.983834, 42.979392], [18.936705, 43.002285], [18.930917, 43.030113], [18.950761, 43.07117], [18.977219, 43.094062], [19.014426, 43.097886], [19.02471, 43.094217]]]}}, {"type": "Feature", "properties": {"featurecla": "Admin-1 states provinces", "scalerank": 9, "adm1_code": "MNE-1512", "diss_me": 1512, "iso_3166_2": "ME-09", "wikipedia": null, "iso_a2": "ME", "adm0_sr": 1, "name": "Kola\u0161in", "name_alt": null, "name_local": null, "type": "Op\u0161tina", "type_en": "Municipality", "code_local": null, "code_hasc": "ME.KL", "note": null, "hasc_maybe": null, "region": null, "region_cod": null, "provnum_ne": 14, "gadm_level": 1, "check_me": 0, "datarank": 8, "abbrev": null, "postal": "KL", "area_sqkm": 0, "sameascity": -99, "labelrank": 9, "name_len": 7, "mapcolor9": 4, "mapcolor13": 5, "fips": "MJ00", "fips_alt": null, "woe_id": 29389235, "woe_label": "Kola\u00c5\u00a1in, ME, Montenegro", "woe_name": "Kola\u0161in", "latitude": 42.7889, "longitude": 19.4394, "sov_a3": "MNE", "adm0_a3": "MNE", "adm0_label": 5, "admin": "Montenegro", "geonunit": "Montenegro", "gu_a3": "MNE", "gn_id": 3197895, "gn_name": "Opstina Kolasin", "gns_id": -84863, "gns_name": "Kolasin, Opstina", "gn_level": 1, "gn_region": null, "gn_a1_code": "ME.09", "region_sub": null, "sub_code": null, "gns_level": 1, "gns_lang": "slv", "gns_adm1": "MJ00", "gns_region": null, "min_label": 10, "max_label": 11, "min_zoom": 10, "wikidataid": "Q3303233", "name_ar": "\u0628\u0644\u062f\u064a\u0629 \u0643\u0648\u0644\u0627\u0634\u064a\u0646", "name_bn": "\u0995\u09cb\u09b2\u09be\u09b8\u09bf\u09a8 \u09aa\u09cc\u09b0\u09b8\u09ad\u09be", "name_de": "Gemeinde Kola\u0161in", "name_en": "Kola\u0161in", "name_es": "Municipio de Kola\u0161in", "name_fr": "Kola\u0161in", "name_el": "\u03c4\u03bf\u03c5 \u039a\u03cc\u03bb\u03b1\u03c3\u03b9\u03bd", "name_hi": "\u0915\u094b\u0932\u093e\u0938\u093f\u0928 \u0928\u0917\u0930\u092a\u093e\u0932\u093f\u0915\u093e", "name_hu": "Kola\u0161in", "name_id": "Kola\u0161in", "name_it": "Kola\u0161in", "name_ja": "\u30b3\u30e9\u30b7\u30f3", "name_ko": "\ucf5c\ub77c\uc2e0 \uc9c0\ubc29 \uc790\uce58\uc81c", "name_nl": "Kola\u0161in", "name_pl": "Gmina Kola\u0161in", "name_pt": "Kola\u0161in", "name_ru": "\u041a\u043e\u043b\u0430\u0448\u0438\u043d", "name_sv": "Op\u0161tina Kola\u0161in", "name_tr": "Kolasin Belediyesi", "name_vi": "\u0110\u00f4 th\u1ecb t\u1ef1 tr\u1ecb Kolasin", "name_zh": "\u79d1\u62c9\u6b23\u5340", "ne_id": 1159310625, "name_he": "\u05e7\u05d5\u05dc\u05d0\u05e9\u05d9\u05df", "name_uk": "\u041c\u0443\u043d\u0456\u0446\u0438\u043f\u0430\u043b\u0456\u0442\u0435\u0442 \u041a\u043e\u043b\u0430\u0448\u0438\u043d", "name_ur": "\u06a9\u0648\u0644\u0627\u0634\u0646 \u0628\u0644\u062f\u06cc\u06c1", "name_fa": "\u0634\u0647\u0631\u062f\u0627\u0631\u06cc \u06a9\u0648\u0644\u0627\u0698\u06cc\u0646", "name_zht": "\u79d1\u62c9\u6b23\u5340", "FCLASS_ISO": null, "FCLASS_US": null, "FCLASS_FR": null, "FCLASS_RU": null, "FCLASS_ES": null, "FCLASS_CN": null, "FCLASS_TW": null, "FCLASS_IN": null, "FCLASS_NP": null, "FCLASS_PK": null, "FCLASS_DE": null, "FCLASS_GB": null, "FCLASS_BR": null, "FCLASS_IL": null, "FCLASS_PS": null, "FCLASS_SA": null, "FCLASS_EG": null, "FCLASS_MA": null, "FCLASS_PT": null, "FCLASS_AR": null, "FCLASS_JP": null, "FCLASS_KO": null, "FCLASS_VN": null, "FCLASS_TR": null, "FCLASS_ID": null, "FCLASS_PL": null, "FCLASS_GR": null, "FCLASS_IT": null, "FCLASS_NL": null, "FCLASS_SE": null, "FCLASS_BD": null, "FCLASS_UA": null, "FCLASS_TLC": null}, "bbox": [19.199893, 42.661918, 19.678985, 42.934486], "geometry": {"type": "Polygon", "coordinates": [[[19.210745, 42.759509], [19.210952, 42.761137], [19.205681, 42.792014], [19.215344, 42.81625], [19.218652, 42.839685], [19.208575, 42.858935], [19.202115, 42.871363], [19.199893, 42.887615], [19.210952, 42.902239], [19.227798, 42.910508], [19.292549, 42.902239], [19.342985, 42.90087], [19.358695, 42.917665], [19.372286, 42.934486], [19.374301, 42.93322], [19.415901, 42.916244], [19.449077, 42.899242], [19.51114, 42.900379], [19.578268, 42.901516], [19.615061, 42.895005], [19.641675, 42.890173], [19.678985, 42.881646], [19.67113, 42.869787], [19.67542, 42.827567], [19.67573, 42.825293], [19.643949, 42.822193], [19.629479, 42.803227], [19.643949, 42.792737], [19.658986, 42.782815], [19.662087, 42.761008], [19.664878, 42.728142], [19.664361, 42.702097], [19.641985, 42.675768], [19.628136, 42.665071], [19.607827, 42.683958], [19.584159, 42.693622], [19.576976, 42.714835], [19.572583, 42.736048], [19.535066, 42.739071], [19.498686, 42.72778], [19.495379, 42.70822], [19.471918, 42.68755], [19.446855, 42.675147], [19.407736, 42.666879], [19.365309, 42.661918], [19.310171, 42.672124], [19.300972, 42.676879], [19.261595, 42.697187], [19.260561, 42.71207], [19.259476, 42.723646], [19.244852, 42.751473], [19.210745, 42.759509]]]}}, {"type": "Feature", "properties": {"featurecla": "Admin-1 states provinces", "scalerank": 9, "adm1_code": "MNE-1511", "diss_me": 1511, "iso_3166_2": "ME-07", "wikipedia": null, "iso_a2": "ME", "adm0_sr": 1, "name": "Danilovgrad", "name_alt": null, "name_local": null, "type": "Op\u0161tina", "type_en": "Municipality", "code_local": null, "code_hasc": "ME.DA", "note": null, "hasc_maybe": null, "region": null, "region_cod": null, "provnum_ne": 12, "gadm_level": 1, "check_me": 0, "datarank": 8, "abbrev": null, "postal": "DA", "area_sqkm": 0, "sameascity": -99, "labelrank": 9, "name_len": 11, "mapcolor9": 4, "mapcolor13": 5, "fips": "MJ00", "fips_alt": null, "woe_id": 29389236, "woe_label": "Danilovgrad, ME, Montenegro", "woe_name": "Danilovgrad", "latitude": 42.5936, "longitude": 19.1191, "sov_a3": "MNE", "adm0_a3": "MNE", "adm0_label": 5, "admin": "Montenegro", "geonunit": "Montenegro", "gu_a3": "MNE", "gn_id": 3202193, "gn_name": "Opstina Danilovgrad", "gns_id": -78125, "gns_name": "Danilovgrad, Opstina", "gn_level": 1, "gn_region": null, "gn_a1_code": "ME.07", "region_sub": null, "sub_code": null, "gns_level": 1, "gns_lang": "srp", "gns_adm1": "MJ00", "gns_region": null, "min_label": 10, "max_label": 11, "min_zoom": 10, "wikidataid": "Q3741507", "name_ar": "\u0628\u0644\u062f\u064a\u0629 \u062f\u0627\u0646\u064a\u0644\u0648\u0641\u063a\u0631\u0627\u062f", "name_bn": "\u09a1\u09be\u09a8\u09bf\u09b2\u09cb\u09ad\u0997\u09cd\u09b0\u09be\u09a1 \u09aa\u09cc\u09b0\u09b8\u09ad\u09be", "name_de": "Gemeinde Danilovgrad", "name_en": "Danilovgrad", "name_es": "Municipio de Danilovgrad", "name_fr": "Danilovgrad", "name_el": "\u03c4\u03bf\u03c5 \u039d\u03c4\u03b1\u03bd\u03af\u03bb\u03bf\u03b2\u03b3\u03ba\u03c1\u03b1\u03bd\u03c4", "name_hi": "\u0926\u093e\u0928\u093f\u0932\u094b\u0935\u0917\u094d\u0930\u093e\u0926 \u0928\u0917\u0930 \u092a\u093e\u0932\u093f\u0915\u093e", "name_hu": "Danilovgrad", "name_id": "Danilovgrad", "name_it": "Danilovgrad", "name_ja": "\u30c0\u30cb\u30ed\u30f4\u30b0\u30e9\u30fc\u30c9", "name_ko": "\ub2e4\ub2d0\ub85c\ube0c\uadf8\ub77c\ub4dc \uc9c0\ubc29 \uc790\uce58\uc81c", "name_nl": "Danilovgrad", "name_pl": "Gmina Danilovgrad", "name_pt": "Danilovgrad", "name_ru": "\u0414\u0430\u043d\u0438\u043b\u043e\u0432\u0433\u0440\u0430\u0434", "name_sv": "Danilovgrad", "name_tr": "Danilovgrad Belediyesi", "name_vi": "\u0110\u00f4 th\u1ecb t\u1ef1 tr\u1ecb Danilovgrad", "name_zh": "\u9054\u5c3c\u6d1b\u592b\u683c\u52d2\u5340", "ne_id": 1159310623, "name_he": "\u05d3\u05e0\u05d9\u05dc\u05d5\u05d1\u05d2\u05e8\u05d0\u05d3", "name_uk": "\u041c\u0443\u043d\u0456\u0446\u0438\u043f\u0430\u043b\u0456\u0442\u0435\u0442 \u0414\u0430\u043d\u0438\u043b\u043e\u0432\u0433\u0440\u0430\u0434", "name_ur": "\u062f\u0627\u0646\u06cc\u0644\u0648\u0648\u06af\u0631\u0627\u062f \u0628\u0644\u062f\u06cc\u06c1", "name_fa": "\u0634\u0647\u0631\u062f\u0627\u0631\u06cc \u062f\u0627\u0646\u06cc\u0644\u0648\u06af\u0631\u0627\u062f", "name_zht": "\u9054\u5c3c\u6d1b\u592b\u683c\u52d2\u5340", "FCLASS_ISO": null, "FCLASS_US": null, "FCLASS_FR": null, "FCLASS_RU": null, "FCLASS_ES": null, "FCLASS_CN": null, "FCLASS_TW": null, "FCLASS_IN": null, "FCLASS_NP": null, "FCLASS_PK": null, "FCLASS_DE": null, "FCLASS_GB": null, "FCLASS_BR": null, "FCLASS_IL": null, "FCLASS_PS": null, "FCLASS_SA": null, "FCLASS_EG": null, "FCLASS_MA": null, "FCLASS_PT": null, "FCLASS_AR": null, "FCLASS_JP": null, "FCLASS_KO": null, "FCLASS_VN": null, "FCLASS_TR": null, "FCLASS_ID": null, "FCLASS_PL": null, "FCLASS_GR": null, "FCLASS_IT": null, "FCLASS_NL": null, "FCLASS_SE": null, "FCLASS_BD": null, "FCLASS_UA": null, "FCLASS_TLC": null}, "bbox": [18.93717, 42.487174, 19.300972, 42.759509], "geometry": {"type": "Polygon", "coordinates": [[[19.177879, 42.694991], [19.213122, 42.70822], [19.20873, 42.728064], [19.208988, 42.743774], [19.210745, 42.759509], [19.244852, 42.751473], [19.259476, 42.723646], [19.260561, 42.71207], [19.261595, 42.697187], [19.300972, 42.676879], [19.285934, 42.664114], [19.259734, 42.642359], [19.261646, 42.622231], [19.251466, 42.5974], [19.233018, 42.582543], [19.220615, 42.570942], [19.213174, 42.54947], [19.208471, 42.517483], [19.202115, 42.492135], [19.198808, 42.487433], [19.149198, 42.487717], [19.073699, 42.487174], [19.041195, 42.489939], [19.0059, 42.501515], [18.985332, 42.506346], [18.986159, 42.52756], [19.001456, 42.54947], [19.005693, 42.55885], [18.992619, 42.568203], [18.981457, 42.580347], [18.959546, 42.592465], [18.93779, 42.602387], [18.93748, 42.618923], [18.93717, 42.620215], [18.981663, 42.622231], [18.995151, 42.634917], [18.997063, 42.664114], [19.014426, 42.687266], [19.04998, 42.703802], [19.072304, 42.708763], [19.089667, 42.703802], [19.125531, 42.698764], [19.177879, 42.694991]]]}}]}