{"type": "FeatureCollection", "features": [{"type": "Feature", "properties": {"featurecla": "Admin-1 states provinces", "scalerank": 10, "adm1_code": "LIE-4893", "diss_me": 4893, "iso_3166_2": "LI-09", "wikipedia": null, "iso_a2": "LI", "adm0_sr": 1, "name": "Triesen", "name_alt": null, "name_local": null, "type": null, "type_en": null, "code_local": null, "code_hasc": "LI.TN", "note": null, "hasc_maybe": null, "region": null, "region_cod": null, "provnum_ne": 0, "gadm_level": 0, "check_me": 20, "datarank": 10, "abbrev": null, "postal": null, "area_sqkm": 0, "sameascity": -99, "labelrank": 20, "name_len": 7, "mapcolor9": 2, "mapcolor13": 9, "fips": "LS09", "fips_alt": null, "woe_id": 20070532, "woe_label": "Triesen, LI, Liechtenstein", "woe_name": "Triesen", "latitude": 47.1001, "longitude": 9.5266, "sov_a3": "LIE", "adm0_a3": "LIE", "adm0_label": 5, "admin": "Liechtenstein", "geonunit": "Liechtenstein", "gu_a3": "LIE", "gn_id": 3042036, "gn_name": "Triesen", "gns_id": -1187184, "gns_name": "Triesen, Gemeinde", "gn_level": 1, "gn_region": null, "gn_a1_code": "LI.09", "region_sub": null, "sub_code": null, "gns_level": 1, "gns_lang": "fra", "gns_adm1": "LS09", "gns_region": null, "min_label": 11, "max_label": 11, "min_zoom": 11, "wikidataid": "Q49654", "name_ar": "\u062a\u0631\u064a\u0633\u064a\u0646", "name_bn": "\u099f\u09cd\u09b0\u09be\u0987\u09b8\u09c7\u09a8", "name_de": "Triesen", "name_en": "Triesen", "name_es": "Triesen", "name_fr": "Triesen", "name_el": "\u03a4\u03c1\u03af\u03c3\u03b5\u03bd", "name_hi": "\u091f\u094d\u0930\u093e\u0907\u0938\u0947\u0928", "name_hu": "Triesen", "name_id": "Triesen", "name_it": "Triesen", "name_ja": "\u30c8\u30ea\u30fc\u30bc\u30f3", "name_ko": "\ud2b8\ub9ac\uc820", "name_nl": "Triesen", "name_pl": "Triesen", "name_pt": "Triesen", "name_ru": "\u0422\u0440\u0438\u0437\u0435\u043d", "name_sv": "Triesen", "name_tr": "Triesen", "name_vi": "Triesen", "name_zh": "\u7279\u91cc\u68ee", "ne_id": 1159316009, "name_he": "\u05d8\u05e8\u05d9\u05d6\u05df", "name_uk": "\u0422\u0440\u0456\u0437\u0435\u043d", "name_ur": "\u0679\u0631\u0627\u0626\u06cc\u0633\u06cc\u0646", "name_fa": "\u062a\u062e\u06cc\u0632\u0646", "name_zht": "\u7279\u91cc\u68ee", "FCLASS_ISO": null, "FCLASS_US": null, "FCLASS_FR": null, "FCLASS_RU": null, "FCLASS_ES": null, "FCLASS_CN": null, "FCLASS_TW": null, "FCLASS_IN": null, "FCLASS_NP": null, "FCLASS_PK": null, "FCLASS_DE": null, "FCLASS_GB": null, "FCLASS_BR": null, "FCLASS_IL": null, "FCLASS_PS": null, "FCLASS_SA": null, "FCLASS_EG": null, "FCLASS_MA": null, "FCLASS_PT": null, "FCLASS_AR": null, "FCLASS_JP": null, "FCLASS_KO": null, "FCLASS_VN": null, "FCLASS_TR": null, "FCLASS_ID": null, "FCLASS_PL": null, "FCLASS_GR": null, "FCLASS_IT": null, "FCLASS_NL": null, "FCLASS_SE": null, "FCLASS_BD": null, "FCLASS_UA": null, "FCLASS_TLC": null}, "bbox": [9.502861, 47.0524, 9.588253, 47.130733], "geometry": {"type": "Polygon", "coordinates": [[[9.588253, 47.062977], [9.581203, 47.05687], [9.560636, 47.0524], [9.533134, 47.05553], [9.532163, 47.062333], [9.529382, 47.070674], [9.522709, 47.07846], [9.522153, 47.086801], [9.512143, 47.088469], [9.502861, 47.094698], [9.51237, 47.10803], [9.511853, 47.129372], [9.527158, 47.130733], [9.533275, 47.125172], [9.534387, 47.115162], [9.537168, 47.102928], [9.547734, 47.097367], [9.556631, 47.096255], [9.560524, 47.089026], [9.554407, 47.082908], [9.560524, 47.075679], [9.570534, 47.075679], [9.571646, 47.082908], [9.567753, 47.088469], [9.582768, 47.086801], [9.584436, 47.075123], [9.588253, 47.062977]]]}}, {"type": "Feature", "properties": {"featurecla": "Admin-1 states provinces", "scalerank": 10, "adm1_code": "LIE-4896", "diss_me": 4896, "iso_3166_2": "LI-07", "wikipedia": null, "iso_a2": "LI", "adm0_sr": 1, "name": "Schaan", "name_alt": null, "name_local": null, "type": null, "type_en": null, "code_local": null, "code_hasc": "LI.SN", "note": null, "hasc_maybe": null, "region": null, "region_cod": null, "provnum_ne": 0, "gadm_level": 0, "check_me": 20, "datarank": 10, "abbrev": null, "postal": null, "area_sqkm": 0, "sameascity": -99, "labelrank": 20, "name_len": 6, "mapcolor9": 2, "mapcolor13": 9, "fips": "LS07", "fips_alt": null, "woe_id": 20070535, "woe_label": "Schaan, LI, Liechtenstein", "woe_name": "Schaan", "latitude": 47.1819, "longitude": 9.51381, "sov_a3": "LIE", "adm0_a3": "LIE", "adm0_label": 5, "admin": "Liechtenstein", "geonunit": "Liechtenstein", "gu_a3": "LIE", "gn_id": 3042042, "gn_name": "Schaan", "gns_id": -1187178, "gns_name": "Schaan, Gemeinde", "gn_level": 1, "gn_region": null, "gn_a1_code": "LI.07", "region_sub": null, "sub_code": null, "gns_level": 1, "gns_lang": "fra", "gns_adm1": "LS07", "gns_region": null, "min_label": 11, "max_label": 11, "min_zoom": 11, "wikidataid": "Q49657", "name_ar": "\u0634\u0627\u0646 \u060c \u0644\u064a\u062e\u062a\u0646\u0634\u062a\u0627\u064a\u0646", "name_bn": "\u09b6\u09be\u09a8", "name_de": "Schaan", "name_en": "Schaan", "name_es": "Schaan", "name_fr": "Schaan", "name_el": "\u03a3\u03ac\u03b1\u03bd", "name_hi": "\u0936\u093e\u0928\u093e", "name_hu": "Schaan", "name_id": "Schaan", "name_it": "Schaan", "name_ja": "\u30b7\u30e3\u30fc\u30f3", "name_ko": "\uc0e8", "name_nl": "Schaan", "name_pl": "Schaan", "name_pt": "Schaan", "name_ru": "\u0428\u0430\u043d", "name_sv": "Schaan", "name_tr": "Schaan", "name_vi": "Schaan", "name_zh": "\u6c99\u6069", "ne_id": 1159316015, "name_he": "\u05e9\u05d0\u05df", "name_uk": "\u0428\u0430\u043d", "name_ur": "\u0634\u0627\u0646\u060c \u0644\u06cc\u062e\u062a\u06cc\u0646\u0633\u062a\u0627\u0626\u0646", "name_fa": "\u0634\u0627\u0646", "name_zht": "\u6c99\u6069", "FCLASS_ISO": null, "FCLASS_US": null, "FCLASS_FR": null, "FCLASS_RU": null, "FCLASS_ES": null, "FCLASS_CN": null, "FCLASS_TW": null, "FCLASS_IN": null, "FCLASS_NP": null, "FCLASS_PK": null, "FCLASS_DE": null, "FCLASS_GB": null, "FCLASS_BR": null, "FCLASS_IL": null, "FCLASS_PS": null, "FCLASS_SA": null, "FCLASS_EG": null, "FCLASS_MA": null, "FCLASS_PT": null, "FCLASS_AR": null, "FCLASS_JP": null, "FCLASS_KO": null, "FCLASS_VN": null, "FCLASS_TR": null, "FCLASS_ID": null, "FCLASS_PL": null, "FCLASS_GR": null, "FCLASS_IT": null, "FCLASS_NL": null, "FCLASS_SE": null, "FCLASS_BD": null, "FCLASS_UA": null, "FCLASS_TLC": null}, "bbox": [9.484981, 47.062977, 9.61416, 47.196918], "geometry": {"type": "MultiPolygon", "coordinates": [[[[9.605131, 47.077594], [9.588253, 47.062977], [9.584436, 47.075123], [9.582768, 47.086801], [9.597783, 47.090694], [9.600563, 47.082352], [9.605131, 47.077594]]], [[[9.609508, 47.12241], [9.61416, 47.110699], [9.600007, 47.110713], [9.591665, 47.111269], [9.585548, 47.109601], [9.576095, 47.108489], [9.57387, 47.123504], [9.569978, 47.132957], [9.56108, 47.137406], [9.563304, 47.147972], [9.572758, 47.144079], [9.580543, 47.138518], [9.589997, 47.131289], [9.598895, 47.121279], [9.609508, 47.12241]]], [[[9.551954, 47.175571], [9.552057, 47.16689], [9.54829, 47.160762], [9.53828, 47.162431], [9.52549, 47.165211], [9.517704, 47.161318], [9.512699, 47.167435], [9.50547, 47.169104], [9.508251, 47.152977], [9.495534, 47.155951], [9.492629, 47.15981], [9.484981, 47.176346], [9.486434, 47.196918], [9.499909, 47.191904], [9.517148, 47.191348], [9.531051, 47.194684], [9.529939, 47.185787], [9.541061, 47.177445], [9.551954, 47.175571]]]]}}, {"type": "Feature", "properties": {"featurecla": "Admin-1 states provinces", "scalerank": 10, "adm1_code": "LIE-4892", "diss_me": 4892, "iso_3166_2": "LI-10", "wikipedia": null, "iso_a2": "LI", "adm0_sr": 1, "name": "Triesenberg", "name_alt": null, "name_local": null, "type": null, "type_en": null, "code_local": null, "code_hasc": "LI.TB", "note": null, "hasc_maybe": null, "region": null, "region_cod": null, "provnum_ne": 0, "gadm_level": 0, "check_me": 20, "datarank": 10, "abbrev": null, "postal": null, "area_sqkm": 0, "sameascity": -99, "labelrank": 20, "name_len": 11, "mapcolor9": 2, "mapcolor13": 9, "fips": "LS10", "fips_alt": null, "woe_id": 20070534, "woe_label": "Triesenberg, LI, Liechtenstein", "woe_name": "Triesenberg", "latitude": 47.1284, "longitude": 9.54858, "sov_a3": "LIE", "adm0_a3": "LIE", "adm0_label": 5, "admin": "Liechtenstein", "geonunit": "Liechtenstein", "gu_a3": "LIE", "gn_id": 3042034, "gn_name": "Triesenberg", "gns_id": -1187186, "gns_name": "Triesenberg, Gemeinde", "gn_level": 1, "gn_region": null, "gn_a1_code": "LI.10", "region_sub": null, "sub_code": null, "gns_level": 1, "gns_lang": "fra", "gns_adm1": "LS10", "gns_region": null, "min_label": 11, "max_label": 11, "min_zoom": 11, "wikidataid": "Q49651", "name_ar": "\u062a\u0631\u064a\u0633\u0646\u0628\u064a\u0631\u062c", "name_bn": "\u099f\u09cd\u09b0\u09be\u0987\u09b8\u09c7\u09a8\u09ac\u09be\u09b0\u09cd\u0997", "name_de": "Triesenberg", "name_en": "Triesenberg", "name_es": "Triesenberg", "name_fr": "Triesenberg", "name_el": "\u03a4\u03c1\u03af\u03b6\u03b5\u03bd\u03bc\u03c0\u03b5\u03c1\u03b3\u03ba", "name_hi": "\u091f\u094d\u0930\u093e\u0907\u0938\u0947\u0928\u092c\u0930\u094d\u0917", "name_hu": "Triesenberg", "name_id": "Triesenberg", "name_it": "Triesenberg", "name_ja": "\u30c8\u30ea\u30fc\u30bc\u30f3\u30d9\u30eb\u30af", "name_ko": "\ud2b8\ub9ac\uc820\ubca0\ub974\ud06c", "name_nl": "Triesenberg", "name_pl": "Triesenberg", "name_pt": "Triesenberg", "name_ru": "\u0422\u0440\u0438\u0437\u0435\u043d\u0431\u0435\u0440\u0433", "name_sv": "Triesenberg", "name_tr": "Triesenberg", "name_vi": "Triesenberg", "name_zh": "\u7279\u91cc\u68ee\u8c9d\u683c", "ne_id": 1159315613, "name_he": "\u05d8\u05e8\u05d9\u05d6\u05e0\u05d1\u05e8\u05d2", "name_uk": "\u0422\u0440\u0456\u0437\u0435\u043d\u0431\u0435\u0440\u0433", "name_ur": "\u0679\u0631\u0627\u0626\u0633\u06cc\u0646 \u0628\u0631\u06af", "name_fa": "\u062a\u062e\u06cc\u0632\u0646\u0628\u0631\u06af", "name_zht": "\u7279\u91cc\u68ee\u8c9d\u683c", "FCLASS_ISO": null, "FCLASS_US": null, "FCLASS_FR": null, "FCLASS_RU": null, "FCLASS_ES": null, "FCLASS_CN": null, "FCLASS_TW": null, "FCLASS_IN": null, "FCLASS_NP": null, "FCLASS_PK": null, "FCLASS_DE": null, "FCLASS_GB": null, "FCLASS_BR": null, "FCLASS_IL": null, "FCLASS_PS": null, "FCLASS_SA": null, "FCLASS_EG": null, "FCLASS_MA": null, "FCLASS_PT": null, "FCLASS_AR": null, "FCLASS_JP": null, "FCLASS_KO": null, "FCLASS_VN": null, "FCLASS_TR": null, "FCLASS_ID": null, "FCLASS_PL": null, "FCLASS_GR": null, "FCLASS_IT": null, "FCLASS_NL": null, "FCLASS_SE": null, "FCLASS_BD": null, "FCLASS_UA": null, "FCLASS_TLC": null}, "bbox": [9.527158, 47.077594, 9.615723, 47.160762], "geometry": {"type": "MultiPolygon", "coordinates": [[[[9.61416, 47.110699], [9.615723, 47.106764], [9.608798, 47.080771], [9.605131, 47.077594], [9.600563, 47.082352], [9.597783, 47.090694], [9.598339, 47.099035], [9.591665, 47.111269], [9.600007, 47.110713], [9.61416, 47.110699]]], [[[9.560524, 47.089026], [9.556631, 47.096255], [9.547734, 47.097367], [9.537168, 47.102928], [9.534387, 47.115162], [9.533275, 47.125172], [9.527158, 47.130733], [9.527714, 47.142967], [9.531607, 47.145748], [9.542173, 47.145748], [9.545509, 47.151865], [9.54829, 47.160762], [9.555519, 47.153533], [9.563304, 47.147972], [9.56108, 47.137406], [9.569978, 47.132957], [9.57387, 47.123504], [9.576095, 47.108489], [9.568309, 47.107377], [9.568865, 47.097923], [9.567753, 47.088469], [9.560524, 47.089026]]]]}}, {"type": "Feature", "properties": {"featurecla": "Admin-1 states provinces", "scalerank": 10, "adm1_code": "LIE-4894", "diss_me": 4894, "iso_3166_2": "LI-01", "wikipedia": null, "iso_a2": "LI", "adm0_sr": 1, "name": "Balzers", "name_alt": null, "name_local": null, "type": null, "type_en": null, "code_local": null, "code_hasc": "LI.BA", "note": null, "hasc_maybe": null, "region": null, "region_cod": null, "provnum_ne": 0, "gadm_level": 0, "check_me": 20, "datarank": 10, "abbrev": null, "postal": null, "area_sqkm": 0, "sameascity": -99, "labelrank": 20, "name_len": 7, "mapcolor9": 2, "mapcolor13": 9, "fips": "LS01", "fips_alt": null, "woe_id": 20070533, "woe_label": "Balzers, LI, Liechtenstein", "woe_name": "Balzers", "latitude": 47.0701, "longitude": 9.50603, "sov_a3": "LIE", "adm0_a3": "LIE", "adm0_label": 5, "admin": "Liechtenstein", "geonunit": "Liechtenstein", "gu_a3": "LIE", "gn_id": 3042074, "gn_name": "Balzers", "gns_id": -1187145, "gns_name": "Balzers, Gemeinde", "gn_level": 1, "gn_region": null, "gn_a1_code": "LI.01", "region_sub": null, "sub_code": null, "gns_level": 1, "gns_lang": "fra", "gns_adm1": "LS01", "gns_region": null, "min_label": 11, "max_label": 11, "min_zoom": 11, "wikidataid": "Q49663", "name_ar": "\u0628\u0627\u0644\u0632\u0631\u0633", "name_bn": "\u09ac\u09be\u09b2\u099c\u09be\u09b0\u09b8", "name_de": "Balzers", "name_en": "Balzers", "name_es": "Balzers", "name_fr": "Balzers", "name_el": "\u039c\u03c0\u03ac\u03bb\u03c4\u03c3\u03b5\u03c1\u03c2", "name_hi": "\u092c\u093e\u0932\u094d\u091c\u093c\u0930\u094d\u0938", "name_hu": "Balzers", "name_id": "Balzers", "name_it": "Balzers", "name_ja": "\u30d0\u30eb\u30b6\u30fc\u30b9", "name_ko": "\ubc1c\ucc98\uc2a4", "name_nl": "Balzers", "name_pl": "Balzers", "name_pt": "Balzers", "name_ru": "\u0411\u0430\u043b\u044c\u0446\u0435\u0440\u0441", "name_sv": "Balzers", "name_tr": "Balzers", "name_vi": "Balzers", "name_zh": "\u5df4\u5c14\u91c7\u65af", "ne_id": 1159316011, "name_he": "\u05d1\u05dc\u05e6\u05e8\u05e1", "name_uk": "\u0411\u0430\u043b\u044c\u0446\u0435\u0440\u0441", "name_ur": "\u0628\u0627\u0644\u0632\u0631\u0633", "name_fa": "\u0628\u0627\u0644\u0632\u0631\u0633", "name_zht": "\u5df4\u5c14\u91c7\u65af", "FCLASS_ISO": null, "FCLASS_US": null, "FCLASS_FR": null, "FCLASS_RU": null, "FCLASS_ES": null, "FCLASS_CN": null, "FCLASS_TW": null, "FCLASS_IN": null, "FCLASS_NP": null, "FCLASS_PK": null, "FCLASS_DE": null, "FCLASS_GB": null, "FCLASS_BR": null, "FCLASS_IL": null, "FCLASS_PS": null, "FCLASS_SA": null, "FCLASS_EG": null, "FCLASS_MA": null, "FCLASS_PT": null, "FCLASS_AR": null, "FCLASS_JP": null, "FCLASS_KO": null, "FCLASS_VN": null, "FCLASS_TR": null, "FCLASS_ID": null, "FCLASS_PL": null, "FCLASS_GR": null, "FCLASS_IT": null, "FCLASS_NL": null, "FCLASS_SE": null, "FCLASS_BD": null, "FCLASS_UA": null, "FCLASS_TLC": null}, "bbox": [9.475886, 47.05553, 9.609508, 47.160825], "geometry": {"type": "MultiPolygon", "coordinates": [[[[9.567114, 47.160825], [9.581823, 47.154901], [9.605594, 47.132266], [9.609508, 47.12241], [9.598895, 47.121279], [9.589997, 47.131289], [9.580543, 47.138518], [9.572758, 47.144079], [9.563304, 47.147972], [9.567114, 47.160825]]], [[[9.533134, 47.05553], [9.499554, 47.059351], [9.477023, 47.063898], [9.475886, 47.073226], [9.487565, 47.083949], [9.502861, 47.094698], [9.512143, 47.088469], [9.522153, 47.086801], [9.522709, 47.07846], [9.529382, 47.070674], [9.532163, 47.062333], [9.533134, 47.05553]]], [[[9.560524, 47.089026], [9.567753, 47.088469], [9.571646, 47.082908], [9.570534, 47.075679], [9.560524, 47.075679], [9.554407, 47.082908], [9.560524, 47.089026]]]]}}, {"type": "Feature", "properties": {"featurecla": "Admin-1 states provinces", "scalerank": 10, "adm1_code": "LIE-4901", "diss_me": 4901, "iso_3166_2": "LI-05", "wikipedia": null, "iso_a2": "LI", "adm0_sr": 1, "name": "Planken", "name_alt": null, "name_local": null, "type": null, "type_en": null, "code_local": null, "code_hasc": "LI.PL", "note": null, "hasc_maybe": null, "region": null, "region_cod": null, "provnum_ne": 0, "gadm_level": 0, "check_me": 20, "datarank": 10, "abbrev": null, "postal": null, "area_sqkm": 0, "sameascity": -99, "labelrank": 20, "name_len": 7, "mapcolor9": 2, "mapcolor13": 9, "fips": "LS05", "fips_alt": null, "woe_id": 20070536, "woe_label": "Planken, LI, Liechtenstein", "woe_name": "Planken", "latitude": 47.1875, "longitude": 9.5494, "sov_a3": "LIE", "adm0_a3": "LIE", "adm0_label": 5, "admin": "Liechtenstein", "geonunit": "Liechtenstein", "gu_a3": "LIE", "gn_id": 3042050, "gn_name": "Planken", "gns_id": -1187169, "gns_name": "Planken, Gemeinde", "gn_level": 1, "gn_region": null, "gn_a1_code": "LI.05", "region_sub": null, "sub_code": null, "gns_level": 1, "gns_lang": "fra", "gns_adm1": "LS05", "gns_region": null, "min_label": 11, "max_label": 11, "min_zoom": 11, "wikidataid": "Q49660", "name_ar": "\u0628\u0644\u0627\u0646\u0643\u064a\u0646", "name_bn": "\u09aa\u09cd\u09b2\u09cd\u09af\u09be\u0999\u09cd\u0995\u09c7\u09a8", "name_de": "Planken", "name_en": "Planken", "name_es": "Planken", "name_fr": "Planken", "name_el": "\u03a0\u03bb\u03ac\u03bd\u03ba\u03b5\u03bd", "name_hi": "\u092a\u094d\u0932\u0902\u0915\u0947\u0928", "name_hu": "Planken", "name_id": "Planken", "name_it": "Planken", "name_ja": "\u30d7\u30e9\u30f3\u30b1\u30f3", "name_ko": "\ud50c\ub791\ucf04", "name_nl": "Planken", "name_pl": "Planken", "name_pt": "Planken", "name_ru": "\u041f\u043b\u0430\u043d\u043a\u0435\u043d", "name_sv": "Planken", "name_tr": "Planken", "name_vi": "Planken", "name_zh": "\u666e\u5170\u80af", "ne_id": 1159316027, "name_he": "\u05e4\u05dc\u05e0\u05e7\u05df", "name_uk": "\u041f\u043b\u0430\u043d\u043a\u0435\u043d", "name_ur": "\u067e\u0644\u0646\u06a9\u06cc\u0646", "name_fa": "\u067e\u0644\u0646\u06a9\u0646", "name_zht": "\u666e\u5170\u80af", "FCLASS_ISO": null, "FCLASS_US": null, "FCLASS_FR": null, "FCLASS_RU": null, "FCLASS_ES": null, "FCLASS_CN": null, "FCLASS_TW": null, "FCLASS_IN": null, "FCLASS_NP": null, "FCLASS_PK": null, "FCLASS_DE": null, "FCLASS_GB": null, "FCLASS_BR": null, "FCLASS_IL": null, "FCLASS_PS": null, "FCLASS_SA": null, "FCLASS_EG": null, "FCLASS_MA": null, "FCLASS_PT": null, "FCLASS_AR": null, "FCLASS_JP": null, "FCLASS_KO": null, "FCLASS_VN": null, "FCLASS_TR": null, "FCLASS_ID": null, "FCLASS_PL": null, "FCLASS_GR": null, "FCLASS_IT": null, "FCLASS_NL": null, "FCLASS_SE": null, "FCLASS_BD": null, "FCLASS_UA": null, "FCLASS_TLC": null}, "bbox": [9.529939, 47.147972, 9.567114, 47.199689], "geometry": {"type": "MultiPolygon", "coordinates": [[[[9.552057, 47.16689], [9.567114, 47.160825], [9.563304, 47.147972], [9.555519, 47.153533], [9.54829, 47.160762], [9.552057, 47.16689]]], [[[9.561876, 47.190609], [9.551954, 47.175571], [9.541061, 47.177445], [9.529939, 47.185787], [9.531051, 47.194684], [9.539948, 47.199689], [9.551626, 47.197465], [9.561876, 47.190609]]]]}}, {"type": "Feature", "properties": {"featurecla": "Admin-1 states provinces", "scalerank": 10, "adm1_code": "LIE-4902", "diss_me": 4902, "iso_3166_2": "LI-02", "wikipedia": null, "iso_a2": "LI", "adm0_sr": 1, "name": "Eschen", "name_alt": null, "name_local": null, "type": null, "type_en": null, "code_local": null, "code_hasc": "LI.ES", "note": null, "hasc_maybe": null, "region": null, "region_cod": null, "provnum_ne": 0, "gadm_level": 0, "check_me": 20, "datarank": 10, "abbrev": null, "postal": null, "area_sqkm": 0, "sameascity": -99, "labelrank": 20, "name_len": 6, "mapcolor9": 2, "mapcolor13": 9, "fips": "LS02", "fips_alt": null, "woe_id": 20070537, "woe_label": "Eschen, LI, Liechtenstein", "woe_name": "Eschen", "latitude": 47.2058, "longitude": 9.53383, "sov_a3": "LIE", "adm0_a3": "LIE", "adm0_label": 5, "admin": "Liechtenstein", "geonunit": "Liechtenstein", "gu_a3": "LIE", "gn_id": 3042069, "gn_name": "Eschen", "gns_id": -1187150, "gns_name": "Eschen, Gemeinde", "gn_level": 1, "gn_region": null, "gn_a1_code": "LI.02", "region_sub": null, "sub_code": null, "gns_level": 1, "gns_lang": "fra", "gns_adm1": "LS02", "gns_region": null, "min_label": 11, "max_label": 11, "min_zoom": 11, "wikidataid": "Q4540", "name_ar": "\u0625\u0634\u0646", "name_bn": "\u098f\u09b8\u099a\u09c7\u09a8", "name_de": "Eschen", "name_en": "Eschen", "name_es": "Eschen", "name_fr": "Eschen", "name_el": "\u0388\u03c3\u03ba\u03b5\u03bd", "name_hi": "\u090f\u0938\u091a\u0947\u0928", "name_hu": "Eschen", "name_id": "Eschen", "name_it": "Eschen", "name_ja": "\u30a8\u30c3\u30b7\u30a7\u30f3", "name_ko": "\uc5d0\uc174", "name_nl": "Eschen", "name_pl": "Eschen", "name_pt": "Eschen", "name_ru": "\u042d\u0448\u0435\u043d", "name_sv": "Eschen", "name_tr": "Eschen", "name_vi": "Eschen", "name_zh": "\u57c3\u7533", "ne_id": 1159316029, "name_he": "\u05d0\u05e9\u05df", "name_uk": "\u0415\u0448\u0435\u043d", "name_ur": "\u0627\u06cc\u0633\u0686\u0646", "name_fa": "\u0627\u0634\u0646", "name_zht": "\u57c3\u7533", "FCLASS_ISO": null, "FCLASS_US": null, "FCLASS_FR": null, "FCLASS_RU": null, "FCLASS_ES": null, "FCLASS_CN": null, "FCLASS_TW": null, "FCLASS_IN": null, "FCLASS_NP": null, "FCLASS_PK": null, "FCLASS_DE": null, "FCLASS_GB": null, "FCLASS_BR": null, "FCLASS_IL": null, "FCLASS_PS": null, "FCLASS_SA": null, "FCLASS_EG": null, "FCLASS_MA": null, "FCLASS_PT": null, "FCLASS_AR": null, "FCLASS_JP": null, "FCLASS_KO": null, "FCLASS_VN": null, "FCLASS_TR": null, "FCLASS_ID": null, "FCLASS_PL": null, "FCLASS_GR": null, "FCLASS_IT": null, "FCLASS_NL": null, "FCLASS_SE": null, "FCLASS_BD": null, "FCLASS_UA": null, "FCLASS_TLC": null}, "bbox": [9.508251, 47.190609, 9.562909, 47.22527], "geometry": {"type": "Polygon", "coordinates": [[[9.554331, 47.211615], [9.562909, 47.19774], [9.561876, 47.190609], [9.551626, 47.197465], [9.539948, 47.199689], [9.531051, 47.194684], [9.518817, 47.199689], [9.509363, 47.204694], [9.508251, 47.214704], [9.512699, 47.224714], [9.519929, 47.22527], [9.524934, 47.216928], [9.542173, 47.210811], [9.554331, 47.211615]]]}}, {"type": "Feature", "properties": {"featurecla": "Admin-1 states provinces", "scalerank": 10, "adm1_code": "LIE-4900", "diss_me": 4900, "iso_3166_2": "LI-04", "wikipedia": null, "iso_a2": "LI", "adm0_sr": 1, "name": "Mauren", "name_alt": null, "name_local": null, "type": null, "type_en": null, "code_local": null, "code_hasc": "LI.MA", "note": null, "hasc_maybe": null, "region": null, "region_cod": null, "provnum_ne": 0, "gadm_level": 0, "check_me": 20, "datarank": 10, "abbrev": null, "postal": null, "area_sqkm": 0, "sameascity": -99, "labelrank": 20, "name_len": 6, "mapcolor9": 2, "mapcolor13": 9, "fips": "LS04", "fips_alt": null, "woe_id": 20070538, "woe_label": "Mauren, LI, Liechtenstein", "woe_name": "Mauren", "latitude": 47.2214, "longitude": 9.53828, "sov_a3": "LIE", "adm0_a3": "LIE", "adm0_label": 5, "admin": "Liechtenstein", "geonunit": "Liechtenstein", "gu_a3": "LIE", "gn_id": 3042056, "gn_name": "Mauren", "gns_id": -1187163, "gns_name": "Mauren, Gemeinde", "gn_level": 1, "gn_region": null, "gn_a1_code": "LI.04", "region_sub": null, "sub_code": null, "gns_level": 1, "gns_lang": "fra", "gns_adm1": "LS04", "gns_region": null, "min_label": 11, "max_label": 11, "min_zoom": 11, "wikidataid": "Q49661", "name_ar": "\u0645\u0648\u0631\u064a\u0646", "name_bn": "\u09ae\u09be\u0989\u09b0\u09c7\u09a8", "name_de": "Mauren", "name_en": "Mauren", "name_es": "Mauren", "name_fr": "Mauren", "name_el": "\u039c\u03ac\u03bf\u03c5\u03c1\u03b5\u03bd", "name_hi": "\u092e\u094c\u0930\u0947\u0928", "name_hu": "Mauren", "name_id": "Mauren", "name_it": "Mauren", "name_ja": "\u30de\u30a6\u30ec\u30f3", "name_ko": "\ub9c8\uc6b0\ub80c", "name_nl": "Mauren", "name_pl": "Mauren", "name_pt": "Mauren", "name_ru": "\u041c\u0430\u0443\u0440\u0435\u043d", "name_sv": "Mauren", "name_tr": "Mauren", "name_vi": "Mauren", "name_zh": "\u6bdb\u4f26", "ne_id": 1159316025, "name_he": "\u05de\u05d0\u05d5\u05e8\u05df", "name_uk": "\u041c\u0430\u0443\u0440\u0435\u043d", "name_ur": "\u0645\u0627\u0648\u06cc\u0631\u0646", "name_fa": "\u0645\u0627\u0648\u0642\u0646", "name_zht": "\u6bdb\u4f26", "FCLASS_ISO": null, "FCLASS_US": null, "FCLASS_FR": null, "FCLASS_RU": null, "FCLASS_ES": null, "FCLASS_CN": null, "FCLASS_TW": null, "FCLASS_IN": null, "FCLASS_NP": null, "FCLASS_PK": null, "FCLASS_DE": null, "FCLASS_GB": null, "FCLASS_BR": null, "FCLASS_IL": null, "FCLASS_PS": null, "FCLASS_SA": null, "FCLASS_EG": null, "FCLASS_MA": null, "FCLASS_PT": null, "FCLASS_AR": null, "FCLASS_JP": null, "FCLASS_KO": null, "FCLASS_VN": null, "FCLASS_TR": null, "FCLASS_ID": null, "FCLASS_PL": null, "FCLASS_GR": null, "FCLASS_IT": null, "FCLASS_NL": null, "FCLASS_SE": null, "FCLASS_BD": null, "FCLASS_UA": null, "FCLASS_TLC": null}, "bbox": [9.519929, 47.210811, 9.554331, 47.234817], "geometry": {"type": "Polygon", "coordinates": [[[9.543132, 47.234817], [9.540378, 47.229108], [9.544823, 47.220323], [9.554331, 47.211615], [9.542173, 47.210811], [9.524934, 47.216928], [9.519929, 47.22527], [9.529939, 47.231943], [9.543132, 47.234817]]]}}, {"type": "Feature", "properties": {"featurecla": "Admin-1 states provinces", "scalerank": 10, "adm1_code": "LIE-4899", "diss_me": 4899, "iso_3166_2": "LI-08", "wikipedia": null, "iso_a2": "LI", "adm0_sr": 1, "name": "Schellenberg", "name_alt": null, "name_local": null, "type": null, "type_en": null, "code_local": null, "code_hasc": "LI.SB", "note": null, "hasc_maybe": null, "region": null, "region_cod": null, "provnum_ne": 0, "gadm_level": 0, "check_me": 20, "datarank": 10, "abbrev": null, "postal": null, "area_sqkm": 0, "sameascity": -99, "labelrank": 20, "name_len": 12, "mapcolor9": 2, "mapcolor13": 9, "fips": "LS08", "fips_alt": null, "woe_id": 20070541, "woe_label": "Schellenberg, LI, Liechtenstein", "woe_name": "Schellenberg", "latitude": 47.242, "longitude": 9.53828, "sov_a3": "LIE", "adm0_a3": "LIE", "adm0_label": 5, "admin": "Liechtenstein", "geonunit": "Liechtenstein", "gu_a3": "LIE", "gn_id": 3042038, "gn_name": "Schellenberg", "gns_id": -1187182, "gns_name": "Schellenberg, Gemeinde", "gn_level": 1, "gn_region": null, "gn_a1_code": "LI.08", "region_sub": null, "sub_code": null, "gns_level": 1, "gns_lang": "fra", "gns_adm1": "LS08", "gns_region": null, "min_label": 11, "max_label": 11, "min_zoom": 11, "wikidataid": "Q49655", "name_ar": "\u0634\u0644\u064a\u0646\u0628\u0631\u062c", "name_bn": "\u09b6\u09c7\u09b2\u09c7\u09a8\u09ac\u09be\u09b0\u09cd\u0997", "name_de": "Schellenberg", "name_en": "Schellenberg", "name_es": "Schellenberg", "name_fr": "Schellenberg", "name_el": "\u03a3\u03ad\u03bb\u03b5\u03bd\u03bc\u03c0\u03b5\u03c1\u03b3\u03ba", "name_hi": "\u0936\u0947\u0932\u0947\u0928\u092c\u0930\u094d\u0917", "name_hu": "Schellenberg", "name_id": "Schellenberg", "name_it": "Schellenberg", "name_ja": "\u30b7\u30a7\u30ec\u30f3\u30d9\u30eb\u30af", "name_ko": "\uc178\ub80c\ubca0\ub974\ud06c", "name_nl": "Schellenberg", "name_pl": "Schellenberg", "name_pt": "Schellenberg", "name_ru": "\u0428\u0435\u043b\u043b\u0435\u043d\u0431\u0435\u0440\u0433", "name_sv": "Schellenberg", "name_tr": "Schellenberg", "name_vi": "Schellenberg", "name_zh": "\u65bd\u4f26\u8d1d\u683c", "ne_id": 1159316023, "name_he": "\u05e9\u05dc\u05e0\u05d1\u05e8\u05d2", "name_uk": "\u0428\u0435\u043b\u043b\u0435\u043d\u0431\u0435\u0440\u0433", "name_ur": "\u0634\u0644\u0646\u0628\u0631\u06af", "name_fa": "\u0634\u0644\u0646\u0628\u0631\u06af", "name_zht": "\u65bd\u4f26\u8d1d\u683c", "FCLASS_ISO": null, "FCLASS_US": null, "FCLASS_FR": null, "FCLASS_RU": null, "FCLASS_ES": null, "FCLASS_CN": null, "FCLASS_TW": null, "FCLASS_IN": null, "FCLASS_NP": null, "FCLASS_PK": null, "FCLASS_DE": null, "FCLASS_GB": null, "FCLASS_BR": null, "FCLASS_IL": null, "FCLASS_PS": null, "FCLASS_SA": null, "FCLASS_EG": null, "FCLASS_MA": null, "FCLASS_PT": null, "FCLASS_AR": null, "FCLASS_JP": null, "FCLASS_KO": null, "FCLASS_VN": null, "FCLASS_TR": null, "FCLASS_ID": null, "FCLASS_PL": null, "FCLASS_GR": null, "FCLASS_IT": null, "FCLASS_NL": null, "FCLASS_SE": null, "FCLASS_BD": null, "FCLASS_UA": null, "FCLASS_TLC": null}, "bbox": [9.519373, 47.22527, 9.547096, 47.251176], "geometry": {"type": "Polygon", "coordinates": [[[9.534182, 47.251176], [9.547096, 47.243035], [9.543132, 47.234817], [9.529939, 47.231943], [9.519929, 47.22527], [9.519373, 47.231387], [9.526046, 47.23806], [9.529382, 47.244733], [9.534182, 47.251176]]]}}, {"type": "Feature", "properties": {"featurecla": "Admin-1 states provinces", "scalerank": 10, "adm1_code": "LIE-4898", "diss_me": 4898, "iso_3166_2": "LI-06", "wikipedia": null, "iso_a2": "LI", "adm0_sr": 1, "name": "Ruggell", "name_alt": null, "name_local": null, "type": null, "type_en": null, "code_local": null, "code_hasc": "LI.RU", "note": null, "hasc_maybe": null, "region": null, "region_cod": null, "provnum_ne": 0, "gadm_level": 0, "check_me": 20, "datarank": 10, "abbrev": null, "postal": null, "area_sqkm": 0, "sameascity": -99, "labelrank": 20, "name_len": 7, "mapcolor9": 2, "mapcolor13": 9, "fips": "LS06", "fips_alt": null, "woe_id": 20070540, "woe_label": "Ruggell, LI, Liechtenstein", "woe_name": "Ruggell", "latitude": 47.2458, "longitude": 9.51882, "sov_a3": "LIE", "adm0_a3": "LIE", "adm0_label": 5, "admin": "Liechtenstein", "geonunit": "Liechtenstein", "gu_a3": "LIE", "gn_id": 3042047, "gn_name": "Ruggell", "gns_id": -1187173, "gns_name": "Ruggell, Gemeinde", "gn_level": 1, "gn_region": null, "gn_a1_code": "LI.06", "region_sub": null, "sub_code": null, "gns_level": 1, "gns_lang": "fra", "gns_adm1": "LS06", "gns_region": null, "min_label": 11, "max_label": 11, "min_zoom": 11, "wikidataid": "Q49659", "name_ar": "\u0631\u0648\u063a\u0644", "name_bn": "\u09b0\u09be\u0997\u09c7\u09b2", "name_de": "Ruggell", "name_en": "Ruggell", "name_es": "Ruggell", "name_fr": "Ruggell", "name_el": "\u03a1\u03bf\u03cd\u03b3\u03ba\u03b5\u03bb", "name_hi": "\u0930\u0917\u094d\u0917\u0947\u0932", "name_hu": "Ruggell", "name_id": "Ruggell", "name_it": "Ruggell", "name_ja": "\u30eb\u30c3\u30b2\u30eb", "name_ko": "\ub8e8\uac94", "name_nl": "Ruggell", "name_pl": "Ruggell", "name_pt": "Ruggell", "name_ru": "\u0420\u0443\u0433\u0433\u0435\u043b\u043b\u044c", "name_sv": "Ruggell", "name_tr": "Ruggell", "name_vi": "Ruggell", "name_zh": "\u5112\u683c\u5c14", "ne_id": 1159316021, "name_he": "\u05e8\u05d5\u05d2\u05dc", "name_uk": "\u0420\u0443\u0491\u0491\u0435\u043b\u044c", "name_ur": "\u0631\u06af\u06cc\u0644", "name_fa": "\u0631\u0648\u06af\u0644", "name_zht": "\u5112\u683c\u5c14", "FCLASS_ISO": null, "FCLASS_US": null, "FCLASS_FR": null, "FCLASS_RU": null, "FCLASS_ES": null, "FCLASS_CN": null, "FCLASS_TW": null, "FCLASS_IN": null, "FCLASS_NP": null, "FCLASS_PK": null, "FCLASS_DE": null, "FCLASS_GB": null, "FCLASS_BR": null, "FCLASS_IL": null, "FCLASS_PS": null, "FCLASS_SA": null, "FCLASS_EG": null, "FCLASS_MA": null, "FCLASS_PT": null, "FCLASS_AR": null, "FCLASS_JP": null, "FCLASS_KO": null, "FCLASS_VN": null, "FCLASS_TR": null, "FCLASS_ID": null, "FCLASS_PL": null, "FCLASS_GR": null, "FCLASS_IT": null, "FCLASS_NL": null, "FCLASS_SE": null, "FCLASS_BD": null, "FCLASS_UA": null, "FCLASS_TLC": null}, "bbox": [9.497044, 47.224714, 9.534182, 47.262801], "geometry": {"type": "Polygon", "coordinates": [[[9.521155, 47.262801], [9.53025, 47.253654], [9.534182, 47.251176], [9.529382, 47.244733], [9.526046, 47.23806], [9.519373, 47.231387], [9.519929, 47.22527], [9.512699, 47.224714], [9.503802, 47.227494], [9.497044, 47.228934], [9.504618, 47.243732], [9.521155, 47.262801]]]}}, {"type": "Feature", "properties": {"featurecla": "Admin-1 states provinces", "scalerank": 10, "adm1_code": "LIE-4895", "diss_me": 4895, "iso_3166_2": "LI-11", "wikipedia": null, "iso_a2": "LI", "adm0_sr": 1, "name": "Vaduz", "name_alt": null, "name_local": null, "type": null, "type_en": null, "code_local": null, "code_hasc": "LI.VA", "note": null, "hasc_maybe": null, "region": null, "region_cod": null, "provnum_ne": 0, "gadm_level": 0, "check_me": 20, "datarank": 10, "abbrev": null, "postal": null, "area_sqkm": 0, "sameascity": 1, "labelrank": 20, "name_len": 5, "mapcolor9": 2, "mapcolor13": 9, "fips": "LS11", "fips_alt": null, "woe_id": 20070531, "woe_label": "Vaduz, LI, Liechtenstein", "woe_name": "Vaduz", "latitude": 47.1469, "longitude": 9.51826, "sov_a3": "LIE", "adm0_a3": "LIE", "adm0_label": 5, "admin": "Liechtenstein", "geonunit": "Liechtenstein", "gu_a3": "LIE", "gn_id": 3042031, "gn_name": "Vaduz", "gns_id": -1187189, "gns_name": "Vaduz, Gemeinde", "gn_level": 1, "gn_region": null, "gn_a1_code": "LI.11", "region_sub": null, "sub_code": null, "gns_level": 1, "gns_lang": "fra", "gns_adm1": "LS11", "gns_region": null, "min_label": 11, "max_label": 11, "min_zoom": 11, "wikidataid": "Q1844", "name_ar": "\u0641\u0627\u062f\u0648\u062a\u0633", "name_bn": "\u09ab\u09be\u09a1\u09c1\u09ce\u09b8", "name_de": "Vaduz", "name_en": "Vaduz", "name_es": "Vaduz", "name_fr": "Vaduz", "name_el": "\u0392\u03b1\u03bd\u03c4\u03bf\u03cd\u03b6", "name_hi": "\u0935\u093e\u0926\u0941\u091c\u093c", "name_hu": "Vaduz", "name_id": "Vaduz", "name_it": "Vaduz", "name_ja": "\u30d5\u30a1\u30c9\u30a5\u30fc\u30c4", "name_ko": "\ud30c\ub450\uce20", "name_nl": "Vaduz", "name_pl": "Vaduz", "name_pt": "Vaduz", "name_ru": "\u0412\u0430\u0434\u0443\u0446", "name_sv": "Vaduz", "name_tr": "Vaduz", "name_vi": "Vaduz", "name_zh": "\u74e6\u90fd\u5179", "ne_id": 1159316013, "name_he": "\u05d5\u05d0\u05d3\u05d5\u05e5", "name_uk": "\u0412\u0430\u0434\u0443\u0446", "name_ur": "\u0648\u0627\u0688\u0648\u0632", "name_fa": "\u0641\u0627\u062f\u0648\u062a\u0633", "name_zht": "\u83ef\u675c\u8332", "FCLASS_ISO": null, "FCLASS_US": null, "FCLASS_FR": null, "FCLASS_RU": null, "FCLASS_ES": null, "FCLASS_CN": null, "FCLASS_TW": null, "FCLASS_IN": null, "FCLASS_NP": null, "FCLASS_PK": null, "FCLASS_DE": null, "FCLASS_GB": null, "FCLASS_BR": null, "FCLASS_IL": null, "FCLASS_PS": null, "FCLASS_SA": null, "FCLASS_EG": null, "FCLASS_MA": null, "FCLASS_PT": null, "FCLASS_AR": null, "FCLASS_JP": null, "FCLASS_KO": null, "FCLASS_VN": null, "FCLASS_TR": null, "FCLASS_ID": null, "FCLASS_PL": null, "FCLASS_GR": null, "FCLASS_IT": null, "FCLASS_NL": null, "FCLASS_SE": null, "FCLASS_BD": null, "FCLASS_UA": null, "FCLASS_TLC": null}, "bbox": [9.495534, 47.086801, 9.598339, 47.169104], "geometry": {"type": "MultiPolygon", "coordinates": [[[[9.511853, 47.129372], [9.503481, 47.145392], [9.495534, 47.155951], [9.508251, 47.152977], [9.50547, 47.169104], [9.512699, 47.167435], [9.517704, 47.161318], [9.52549, 47.165211], [9.53828, 47.162431], [9.54829, 47.160762], [9.545509, 47.151865], [9.542173, 47.145748], [9.531607, 47.145748], [9.527714, 47.142967], [9.527158, 47.130733], [9.511853, 47.129372]]], [[[9.567753, 47.088469], [9.568865, 47.097923], [9.568309, 47.107377], [9.576095, 47.108489], [9.585548, 47.109601], [9.591665, 47.111269], [9.598339, 47.099035], [9.597783, 47.090694], [9.582768, 47.086801], [9.567753, 47.088469]]]]}}, {"type": "Feature", "properties": {"featurecla": "Admin-1 states provinces", "scalerank": 10, "adm1_code": "LIE-4897", "diss_me": 4897, "iso_3166_2": "LI-03", "wikipedia": null, "iso_a2": "LI", "adm0_sr": 1, "name": "Gamprin", "name_alt": null, "name_local": null, "type": null, "type_en": null, "code_local": null, "code_hasc": "LI.GA", "note": null, "hasc_maybe": null, "region": null, "region_cod": null, "provnum_ne": 0, "gadm_level": 0, "check_me": 20, "datarank": 10, "abbrev": null, "postal": null, "area_sqkm": 0, "sameascity": -99, "labelrank": 20, "name_len": 7, "mapcolor9": 2, "mapcolor13": 9, "fips": "LS03", "fips_alt": null, "woe_id": 20070539, "woe_label": "Gamprin, LI, Liechtenstein", "woe_name": "Gamprin", "latitude": 47.2052, "longitude": 9.50213, "sov_a3": "LIE", "adm0_a3": "LIE", "adm0_label": 5, "admin": "Liechtenstein", "geonunit": "Liechtenstein", "gu_a3": "LIE", "gn_id": 3042063, "gn_name": "Gemeinde Gamprin", "gns_id": -1187156, "gns_name": "Gamprin, Gemeinde", "gn_level": 1, "gn_region": null, "gn_a1_code": "LI.03", "region_sub": null, "sub_code": null, "gns_level": 1, "gns_lang": "fra", "gns_adm1": "LS03", "gns_region": null, "min_label": 11, "max_label": 11, "min_zoom": 11, "wikidataid": "Q49662", "name_ar": "\u062c\u0627\u0645\u0628\u0631\u064a\u0646", "name_bn": "\u0997\u09be\u09ae\u09cd\u09aa\u09cd\u09b0\u09bf\u09a8", "name_de": "Gamprin", "name_en": "Gamprin", "name_es": "Gamprin", "name_fr": "Gamprin", "name_el": "\u0393\u03ba\u03b1\u03bc\u03c0\u03c1\u03af\u03bd", "name_hi": "\u0917\u0948\u092e\u094d\u092a\u094d\u0930\u0940\u0928", "name_hu": "Gamprin", "name_id": "Gamprin", "name_it": "Gamprin", "name_ja": "\u30ac\u30f3\u30d7\u30ea\u30f3", "name_ko": "\uac10\ud504\ub9b0", "name_nl": "Gamprin", "name_pl": "Gamprin", "name_pt": "Gamprin", "name_ru": "\u0413\u0430\u043c\u043f\u0440\u0438\u043d", "name_sv": "Gamprin", "name_tr": "Gamprin", "name_vi": "Gamprin", "name_zh": "\u7518\u666e\u6797", "ne_id": 1159316017, "name_he": "\u05d2\u05de\u05e4\u05e8\u05d9\u05df", "name_uk": "\u0413\u0430\u043c\u043f\u0440\u0456\u043d", "name_ur": "\u06af\u0627\u0645\u067e\u0631\u06cc\u0646", "name_fa": "\u06af\u0645\u067e\u062e\u06cc\u0646", "name_zht": "\u7518\u666e\u6797", "FCLASS_ISO": null, "FCLASS_US": null, "FCLASS_FR": null, "FCLASS_RU": null, "FCLASS_ES": null, "FCLASS_CN": null, "FCLASS_TW": null, "FCLASS_IN": null, "FCLASS_NP": null, "FCLASS_PK": null, "FCLASS_DE": null, "FCLASS_GB": null, "FCLASS_BR": null, "FCLASS_IL": null, "FCLASS_PS": null, "FCLASS_SA": null, "FCLASS_EG": null, "FCLASS_MA": null, "FCLASS_PT": null, "FCLASS_AR": null, "FCLASS_JP": null, "FCLASS_KO": null, "FCLASS_VN": null, "FCLASS_TR": null, "FCLASS_ID": null, "FCLASS_PL": null, "FCLASS_GR": null, "FCLASS_IT": null, "FCLASS_NL": null, "FCLASS_SE": null, "FCLASS_BD": null, "FCLASS_UA": null, "FCLASS_TLC": null}, "bbox": [9.486434, 47.191348, 9.531051, 47.228934], "geometry": {"type": "Polygon", "coordinates": [[[9.486434, 47.196918], [9.487358, 47.210014], [9.497044, 47.228934], [9.503802, 47.227494], [9.512699, 47.224714], [9.508251, 47.214704], [9.509363, 47.204694], [9.518817, 47.199689], [9.531051, 47.194684], [9.517148, 47.191348], [9.499909, 47.191904], [9.486434, 47.196918]]]}}]}